{"type": "FeatureCollection", "features": [{"type": "Feature", "id": "way/363453", "geometry": {"type": "LineString", "coordinates": [[18.055493, 59.34416], [18.055058, 59.344614], [18.054999, 59.344673], [18.054935, 59.34474]]}, "properties": {"@id": "way/363453", "check_date": "2019-12-15", "foot": "no", "highway": "secondary", "lanes": "3", "maxspeed": "50", "name": "Sveav\u00e4gen", "oneway": "yes", "surface": "asphalt", "wikidata": "Q1788276", "wikipedia": "sv:Sveav\u00e4gen"}}, {"type": "Feature", "id": "way/1881614", "geometry": {"type": "LineString", "coordinates": [[18.078978, 59.343609], [18.079126, 59.343724], [18.079251, 59.343838]]}, "properties": {"@id": "way/1881614", "foot": "no", "highway": "secondary", "maxspeed": "50", "name": "Liding\u00f6v\u00e4gen", "oneway": "yes", "source": "survey", "surface": "asphalt", "wikidata": "Q10561376", "wikipedia": "sv:Liding\u00f6v\u00e4gen"}}, {"type": "Feature", "id": "way/4425745", "geometry": {"type": "LineString", "coordinates": [[18.085183, 59.342327], [18.085129, 59.34227], [18.085035, 59.342172], [18.084976, 59.34211], [18.084927, 59.342058], [18.084846, 59.341974]]}, "properties": {"@id": "way/4425745", "foot": "no", "highway": "secondary_link", "maxspeed": "50", "name": "Sibyllegatan", "surface": "asphalt", "wikidata": "Q10667299", "wikipedia": "sv:Sibyllegatan"}}, {"type": "Feature", "id": "way/4488522", "geometry": {"type": "LineString", "coordinates": [[18.053639, 59.333063], [18.052492, 59.332801]]}, "properties": {"@id": "way/4488522", "bridge": "yes", "cycleway:right": "track", "foot": "no", "highway": "secondary", "layer": "1", "maxspeed": "50", "name": "Kungsbron", "oneway": "yes", "surface": "asphalt", "wikidata": "Q6444547", "wikipedia": "sv:Kungsbron"}}, {"type": "Feature", "id": "way/4488523", "geometry": {"type": "LineString", "coordinates": [[18.051219, 59.332288], [18.051356, 59.332342], [18.051703, 59.332462]]}, "properties": {"@id": "way/4488523", "bridge": "yes", "cycleway:right": "lane", "foot": "no", "highway": "secondary", "layer": "1", "maxspeed": "50", "name": "Kungsbron", "oneway": "yes", "surface": "asphalt", "wikidata": "Q6444547", "wikipedia": "sv:Kungsbron"}}, {"type": "Feature", "id": "way/4488526", "geometry": {"type": "LineString", "coordinates": [[18.051703, 59.332462], [18.052075, 59.332578], [18.05245, 59.332673]]}, "properties": {"@id": "way/4488526", "bridge": "yes", "cycleway:right": "lane", "foot": "no", "highway": "secondary", "layer": "1", "maxspeed": "50", "name": "Kungsbron", "oneway": "yes", "surface": "asphalt", "wikidata": "Q6444547", "wikipedia": "sv:Kungsbron"}}, {"type": "Feature", "id": "way/4490176", "geometry": {"type": "LineString", "coordinates": [[18.062353, 59.348652], [18.063388, 59.3482], [18.064736, 59.34761]]}, "properties": {"@id": "way/4490176", "foot": "no", "highway": "secondary", "lanes": "2", "maxspeed": "50", "name": "Valhallav\u00e4gen", "oneway": "yes", "surface": "asphalt", "wikidata": "Q7911587", "wikipedia": "sv:Valhallav\u00e4gen, Stockholm"}}, {"type": "Feature", "id": "way/4490178", "geometry": {"type": "LineString", "coordinates": [[18.07868, 59.343981], [18.076665, 59.344491], [18.076366, 59.344562], [18.076137, 59.344618], [18.073968, 59.345166], [18.073889, 59.345186], [18.073543, 59.345271]]}, "properties": {"@id": "way/4490178", "foot": "no", "highway": "secondary", "maxspeed": "50", "name": "Valhallav\u00e4gen", "oneway": "yes", "surface": "asphalt", "wikidata": "Q7911587", "wikipedia": "sv:Valhallav\u00e4gen, Stockholm"}}, {"type": "Feature", "id": "way/4491048", "geometry": {"type": "LineString", "coordinates": [[18.035338, 59.338003], [18.034342, 59.336762]]}, "properties": {"@id": "way/4491048", "bridge": "yes", "check_date": "2019-12-09", "foot": "no", "highway": "secondary", "layer": "2", "maxspeed": "40", "name": "Sankt Eriksbron", "oneway": "yes", "surface": "asphalt", "wikidata": "Q7418754", "wikipedia": "sv:S:t Eriksbron"}}, {"type": "Feature", "id": "way/4491159", "geometry": {"type": "LineString", "coordinates": [[18.048949, 59.350363], [18.048702, 59.350346], [18.047237, 59.350244], [18.046813, 59.350217], [18.046525, 59.350191]]}, "properties": {"@id": "way/4491159", "check_date": "2019-12-05", "foot": "no", "highway": "secondary", "maxspeed": "50", "name": "Sveav\u00e4gen", "oneway": "yes", "surface": "asphalt", "wikidata": "Q1788276", "wikipedia": "sv:Sveav\u00e4gen"}}, {"type": "Feature", "id": "way/4491179", "geometry": {"type": "LineString", "coordinates": [[18.051177, 59.332507], [18.051022, 59.332478], [18.050911, 59.332457]]}, "properties": {"@id": "way/4491179", "bridge": "yes", "cycleway:right": "track", "foot": "no", "highway": "secondary", "layer": "2", "maxspeed": "50", "name": "Kungsbron", "oneway": "yes", "surface": "asphalt", "wikidata": "Q6444547", "wikipedia": "sv:Kungsbron"}}, {"type": "Feature", "id": "way/4491181", "geometry": {"type": "LineString", "coordinates": [[18.049619, 59.332228], [18.049558, 59.332212], [18.049497, 59.332187], [18.049433, 59.332155], [18.049393, 59.332116]]}, "properties": {"@id": "way/4491181", "cycleway:right": "lane", "foot": "no", "highway": "secondary", "maxspeed": "40", "name": "Kungsbroplan", "oneway": "yes", "surface": "asphalt", "wikidata": "Q10550278", "wikipedia": "sv:Kungsbroplan, Stockholm"}}, {"type": "Feature", "id": "way/4491250", "geometry": {"type": "LineString", "coordinates": [[18.067152, 59.347128], [18.067025, 59.347098], [18.066905, 59.347047], [18.066849, 59.347012]]}, "properties": {"@id": "way/4491250", "foot": "no", "highway": "secondary", "lanes": "2", "maxspeed": "50", "name": "Odengatan", "oneway": "yes", "surface": "asphalt", "wikidata": "Q10606799", "wikipedia": "sv:Odengatan"}}, {"type": "Feature", "id": "way/4492247", "geometry": {"type": "LineString", "coordinates": [[18.073091, 59.3449], [18.073135, 59.344901], [18.073177, 59.344907], [18.073213, 59.344918], [18.07324, 59.344931], [18.073266, 59.344956], [18.07346, 59.34518], [18.073495, 59.345219], [18.073543, 59.345271]]}, "properties": {"@id": "way/4492247", "foot": "no", "highway": "secondary_link", "lanes": "1", "maxspeed": "50", "oneway": "yes", "surface": "asphalt"}}, {"type": "Feature", "id": "way/4492284", "geometry": {"type": "LineString", "coordinates": [[18.090378, 59.341035], [18.089098, 59.341352], [18.088275, 59.341557], [18.087267, 59.341808], [18.087077, 59.341855], [18.085931, 59.342141], [18.085416, 59.342269], [18.085319, 59.342293], [18.085183, 59.342327]]}, "properties": {"@id": "way/4492284", "foot": "no", "highway": "secondary", "maxspeed": "50", "name": "Valhallav\u00e4gen", "oneway": "yes", "surface": "asphalt", "wikidata": "Q7911587", "wikipedia": "sv:Valhallav\u00e4gen, Stockholm"}}, {"type": "Feature", "id": "way/4492286", "geometry": {"type": "LineString", "coordinates": [[18.064736, 59.34761], [18.064987, 59.347501], [18.065044, 59.347476], [18.06514, 59.347434], [18.065304, 59.347362]]}, "properties": {"@id": "way/4492286", "foot": "no", "highway": "secondary", "maxspeed": "50", "name": "Valhallav\u00e4gen", "oneway": "yes", "surface": "asphalt", "wikidata": "Q7911587", "wikipedia": "sv:Valhallav\u00e4gen, Stockholm"}}, {"type": "Feature", "id": "way/4492721", "geometry": {"type": "LineString", "coordinates": [[18.056511, 59.351418], [18.056196, 59.35158]]}, "properties": {"@id": "way/4492721", "cycleway:right": "no", "foot": "no", "highway": "secondary", "junction": "roundabout", "lanes": "3", "maxspeed": "50", "name": "Roslagstull", "surface": "asphalt"}}, {"type": "Feature", "id": "way/4689539", "geometry": {"type": "LineString", "coordinates": [[18.039347, 59.345219], [18.039262, 59.345177], [18.039212, 59.345149], [18.03917, 59.345106], [18.039155, 59.345005]]}, "properties": {"@id": "way/4689539", "foot": "no", "highway": "secondary", "junction": "roundabout", "maxspeed": "50", "name": "Vanadisplan", "sidewalk": "separate", "surface": "asphalt", "wikidata": "Q10712558", "wikipedia": "sv:Vanadisplan"}}, {"type": "Feature", "id": "way/4700199", "geometry": {"type": "LineString", "coordinates": [[18.063962, 59.33507], [18.064064, 59.335002], [18.064146, 59.334921], [18.064199, 59.334845], [18.064543, 59.334285], [18.065169, 59.33325]]}, "properties": {"@id": "way/4700199", "bicycle": "no", "foot": "no", "highway": "secondary", "maxheight": "3", "maxspeed": "50", "name": "Klaratunneln", "oneway": "yes", "sidewalk": "no", "surface": "asphalt", "wikidata": "Q10546062", "wikipedia": "sv:Klaratunneln"}}, {"type": "Feature", "id": "way/4700200", "geometry": {"type": "LineString", "coordinates": [[18.065169, 59.33325], [18.065703, 59.332211]]}, "properties": {"@id": "way/4700200", "bicycle": "no", "foot": "no", "highway": "secondary", "lanes": "1", "layer": "-1", "lit": "24/7", "maxheight": "3", "maxspeed": "50", "name": "Klaratunneln", "oneway": "yes", "surface": "asphalt", "tunnel": "yes", "wikidata": "Q10546062", "wikipedia": "sv:Klaratunneln"}}, {"type": "Feature", "id": "way/4700202", "geometry": {"type": "LineString", "coordinates": [[18.06302, 59.33596], [18.063356, 59.335634], [18.063481, 59.335515]]}, "properties": {"@id": "way/4700202", "cycleway:right": "lane", "foot": "no", "highway": "secondary", "maxspeed": "50", "name": "Sveav\u00e4gen", "oneway": "yes", "sidewalk": "separate", "surface": "asphalt", "wikidata": "Q1788276", "wikipedia": "sv:Sveav\u00e4gen"}}, {"type": "Feature", "id": "way/4700207", "geometry": {"type": "LineString", "coordinates": [[18.062556, 59.329685], [18.062826, 59.329742]]}, "properties": {"@id": "way/4700207", "bicycle": "no", "foot": "no", "highway": "secondary_link", "lanes": "1", "maxspeed": "30", "name": "Herkulesgatan", "oneway": "yes", "surface": "asphalt", "wikidata": "Q10522357", "wikipedia": "sv:Herkulesgatan"}}, {"type": "Feature", "id": "way/4742027", "geometry": {"type": "LineString", "coordinates": [[18.070463, 59.32087], [18.069705, 59.320994]]}, "properties": {"@id": "way/4742027", "foot": "no", "highway": "secondary", "maxheight": "3.5", "maxspeed": "30", "name": "Guldfj\u00e4rdsplan", "oneway": "yes", "ref": "222", "surface": "asphalt", "wikidata": "Q10510512", "wikipedia": "sv:Guldfj\u00e4rdsplan"}}, {"type": "Feature", "id": "way/4745156", "geometry": {"type": "LineString", "coordinates": [[18.083162, 59.345948], [18.08303, 59.346036]]}, "properties": {"@id": "way/4745156", "highway": "secondary_link", "maxspeed": "50", "surface": "asphalt"}}, {"type": "Feature", "id": "way/5376440", "geometry": {"type": "LineString", "coordinates": [[18.078754, 59.3435], [18.078848, 59.343477]]}, "properties": {"@id": "way/5376440", "foot": "no", "highway": "secondary", "maxspeed": "50", "name": "Valhallav\u00e4gen", "oneway": "yes", "surface": "asphalt", "wikidata": "Q7911587", "wikipedia": "sv:Valhallav\u00e4gen, Stockholm"}}, {"type": "Feature", "id": "way/5376746", "geometry": {"type": "LineString", "coordinates": [[18.055888, 59.351124], [18.056502, 59.351049], [18.056764, 59.351005], [18.056978, 59.350961], [18.05713, 59.350926], [18.057281, 59.350875], [18.057417, 59.350822], [18.057478, 59.350795], [18.057565, 59.350754], [18.05769, 59.3507]]}, "properties": {"@id": "way/5376746", "foot": "no", "highway": "secondary", "maxspeed": "50", "name": "Birger Jarlsgatan", "oneway": "yes", "surface": "asphalt", "wikidata": "Q2523030", "wikipedia": "sv:Birger Jarlsgatan"}}, {"type": "Feature", "id": "way/8049592", "geometry": {"type": "LineString", "coordinates": [[18.068041, 59.320971], [18.068101, 59.320839]]}, "properties": {"@id": "way/8049592", "bicycle": "no", "foot": "no", "highway": "secondary_link", "maxspeed": "50", "oneway": "yes", "surface": "asphalt"}}, {"type": "Feature", "id": "way/16620413", "geometry": {"type": "LineString", "coordinates": [[18.059343, 59.350057], [18.058856, 59.35028]]}, "properties": {"@id": "way/16620413", "foot": "no", "highway": "secondary", "maxspeed": "50", "name": "Valhallav\u00e4gen", "oneway": "yes", "surface": "asphalt", "wikidata": "Q7911587", "wikipedia": "sv:Valhallav\u00e4gen, Stockholm"}}, {"type": "Feature", "id": "way/19050476", "geometry": {"type": "LineString", "coordinates": [[18.096553, 59.339572], [18.096475, 59.33951], [18.09637, 59.339402], [18.096307, 59.339312], [18.096277, 59.339212]]}, "properties": {"@id": "way/19050476", "foot": "no", "highway": "secondary_link", "maxspeed": "50", "name": "Ban\u00e9rgatan", "oneway": "yes", "surface": "asphalt", "wikidata": "Q10426211", "wikipedia": "sv:Ban\u00e9rgatan"}}, {"type": "Feature", "id": "way/19878779", "geometry": {"type": "LineString", "coordinates": [[18.036516, 59.33951], [18.03642, 59.339387], [18.035338, 59.338003]]}, "properties": {"@id": "way/19878779", "check_date": "2019-12-16", "foot": "no", "highway": "secondary", "maxspeed": "50", "name": "Sankt Eriksgatan", "oneway": "yes", "surface": "asphalt", "wikidata": "Q10661346", "wikipedia": "sv:Sankt Eriksgatan"}}, {"type": "Feature", "id": "way/20148784", "geometry": {"type": "LineString", "coordinates": [[18.062589, 59.330062], [18.061853, 59.329894], [18.061419, 59.329825]]}, "properties": {"@id": "way/20148784", "bicycle": "no", "foot": "no", "highway": "secondary", "layer": "0", "maxspeed": "50", "name": "Vattugatan", "oneway": "yes", "surface": "asphalt", "wikidata": "Q10713471", "wikipedia": "sv:Vattugatan"}}, {"type": "Feature", "id": "way/20152181", "geometry": {"type": "LineString", "coordinates": [[18.061187, 59.32936], [18.061981, 59.329644], [18.062455, 59.329792]]}, "properties": {"@id": "way/20152181", "bicycle": "no", "foot": "no", "highway": "secondary", "lanes": "2", "maxspeed": "50", "name": "Herkulesgatan", "oneway": "yes", "surface": "asphalt"}}, {"type": "Feature", "id": "way/20153356", "geometry": {"type": "LineString", "coordinates": [[18.064559, 59.334471], [18.064312, 59.334864], [18.064207, 59.335031]]}, "properties": {"@id": "way/20153356", "cycleway:right": "lane", "foot": "no", "highway": "secondary", "maxspeed": "50", "name": "Sveav\u00e4gen", "oneway": "yes", "surface": "asphalt", "wikidata": "Q1788276", "wikipedia": "sv:Sveav\u00e4gen"}}, {"type": "Feature", "id": "way/20156379", "geometry": {"type": "LineString", "coordinates": [[18.065969, 59.332251], [18.065652, 59.332867], [18.065614, 59.332999], [18.06558, 59.333141], [18.065587, 59.333283], [18.065614, 59.333425], [18.06567, 59.333582], [18.065763, 59.333714], [18.065888, 59.333841], [18.066014, 59.333954], [18.066181, 59.334081], [18.066342, 59.334177], [18.06653, 59.334273], [18.066765, 59.334358], [18.066989, 59.334422], [18.067185, 59.334468], [18.067458, 59.334508], [18.067796, 59.334541], [18.068984, 59.334587], [18.069165, 59.334586], [18.06933, 59.334567], [18.069469, 59.334544], [18.069626, 59.334484], [18.069743, 59.334427], [18.069811, 59.334379], [18.069846, 59.334327], [18.069865, 59.334244]]}, "properties": {"@id": "way/20156379", "bicycle": "no", "foot": "no", "highway": "secondary", "lanes": "1", "layer": "-1", "lit": "24/7", "maxheight": "3", "maxspeed": "50", "name": "Klaratunneln", "oneway": "yes", "surface": "asphalt", "tunnel": "yes", "wikidata": "Q10546062", "wikipedia": "sv:Klaratunneln"}}, {"type": "Feature", "id": "way/20157662", "geometry": {"type": "LineString", "coordinates": [[18.061008, 59.329316], [18.061187, 59.32936]]}, "properties": {"@id": "way/20157662", "bicycle": "no", "foot": "no", "highway": "secondary", "lanes": "2", "maxspeed": "50", "name": "Herkulesgatan", "oneway": "yes", "surface": "asphalt", "wikidata": "Q10522357", "wikipedia": "sv:Herkulesgatan"}}, {"type": "Feature", "id": "way/20278471", "geometry": {"type": "LineString", "coordinates": [[18.056583, 59.333774], [18.056425, 59.333777]]}, "properties": {"@id": "way/20278471", "check_date": "2020-01-05", "foot": "no", "highway": "secondary", "maxspeed": "30", "name": "Kungsgatan", "oneway": "yes", "surface": "asphalt", "wikidata": "Q836909", "wikipedia": "sv:Kungsgatan, Stockholm"}}, {"type": "Feature", "id": "way/20279056", "geometry": {"type": "LineString", "coordinates": [[18.051219, 59.332288], [18.051141, 59.332334]]}, "properties": {"@id": "way/20279056", "bridge": "yes", "foot": "no", "highway": "secondary_link", "layer": "1", "maxspeed": "40", "oneway": "yes", "surface": "asphalt"}}, {"type": "Feature", "id": "way/20279327", "geometry": {"type": "LineString", "coordinates": [[18.034275, 59.345194], [18.03503, 59.344342], [18.035186, 59.344149], [18.035235, 59.344089]]}, "properties": {"@id": "way/20279327", "foot": "no", "highway": "secondary", "maxspeed": "50", "name": "Torsgatan", "oneway": "yes", "surface": "asphalt", "wikidata": "Q10700359", "wikipedia": "sv:Torsgatan"}}, {"type": "Feature", "id": "way/20285097", "geometry": {"type": "LineString", "coordinates": [[18.050726, 59.350207], [18.051249, 59.350335], [18.052699, 59.35069], [18.052999, 59.35075], [18.053272, 59.350791], [18.053823, 59.350865], [18.054176, 59.350912], [18.054821, 59.351008], [18.054937, 59.351026], [18.055002, 59.351035], [18.05518, 59.351057], [18.05547, 59.351109], [18.055617, 59.35112], [18.055783, 59.351126]]}, "properties": {"@id": "way/20285097", "foot": "no", "highway": "secondary", "lanes": "2", "maxspeed": "50", "name": "Cedersdalsgatan", "oneway": "yes", "surface": "asphalt", "wikidata": "Q10444377", "wikipedia": "sv:Cedersdalsgatan"}}, {"type": "Feature", "id": "way/22884937", "geometry": {"type": "LineString", "coordinates": [[18.029773, 59.338821], [18.029483, 59.338934], [18.029393, 59.338994], [18.029244, 59.339197], [18.029177, 59.339248]]}, "properties": {"@id": "way/22884937", "bicycle": "no", "foot": "no", "highway": "secondary", "lanes": "1", "maxspeed": "50", "name": "Pampasl\u00e4nken", "oneway": "yes", "surface": "asphalt"}}, {"type": "Feature", "id": "way/23089009", "geometry": {"type": "LineString", "coordinates": [[18.062636, 59.330008], [18.062556, 59.329976], [18.062508, 59.329954], [18.062459, 59.329909], [18.062442, 59.32987], [18.062455, 59.329792]]}, "properties": {"@id": "way/23089009", "bicycle": "no", "foot": "no", "highway": "secondary_link", "maxspeed": "50", "name": "R\u00f6dbodgatan", "oneway": "yes", "surface": "asphalt"}}, {"type": "Feature", "id": "way/23089605", "geometry": {"type": "LineString", "coordinates": [[18.055669, 59.334805], [18.055587, 59.334939], [18.055265, 59.335449]]}, "properties": {"@id": "way/23089605", "cycleway:right": "track", "foot": "no", "highway": "secondary", "maxspeed": "50", "name": "Vasagatan", "oneway": "yes", "surface": "asphalt", "wikidata": "Q679282", "wikipedia": "sv:Vasagatan, Stockholm"}}, {"type": "Feature", "id": "way/23224310", "geometry": {"type": "LineString", "coordinates": [[18.073889, 59.345186], [18.073799, 59.345186], [18.073736, 59.345179], [18.073682, 59.345169], [18.073628, 59.345153], [18.073597, 59.345141], [18.073573, 59.345127], [18.073424, 59.34497], [18.073391, 59.344926]]}, "properties": {"@id": "way/23224310", "foot": "no", "highway": "secondary_link", "maxspeed": "50", "oneway": "yes", "surface": "asphalt"}}, {"type": "Feature", "id": "way/24488987", "geometry": {"type": "LineString", "coordinates": [[18.053639, 59.333063], [18.053715, 59.332987]]}, "properties": {"@id": "way/24488987", "bridge": "yes", "highway": "secondary_link", "layer": "1", "surface": "asphalt"}}, {"type": "Feature", "id": "way/25112482", "geometry": {"type": "LineString", "coordinates": [[18.029177, 59.339248], [18.029069, 59.339307], [18.028656, 59.339485], [18.027938, 59.339807], [18.02747, 59.340054], [18.027078, 59.340274], [18.026596, 59.340597], [18.026132, 59.340963], [18.025512, 59.341447], [18.024591, 59.342181], [18.024019, 59.342615], [18.023181, 59.343194], [18.0229, 59.343373], [18.022674, 59.343495], [18.022288, 59.343699], [18.022049, 59.343809], [18.021788, 59.343922], [18.021465, 59.344045], [18.02107, 59.344189], [18.020918, 59.344232], [18.020687, 59.344293]]}, "properties": {"@id": "way/25112482", "bicycle": "no", "foot": "no", "highway": "secondary", "maxspeed": "70", "name": "Pampasl\u00e4nken", "oneway": "yes", "surface": "asphalt"}}, {"type": "Feature", "id": "way/25113452", "geometry": {"type": "LineString", "coordinates": [[18.092461, 59.348622], [18.092318, 59.348585], [18.091416, 59.348347], [18.090862, 59.348207], [18.090323, 59.34806], [18.089141, 59.347723], [18.088055, 59.347416], [18.087183, 59.347167], [18.087086, 59.347139], [18.085712, 59.346745], [18.084337, 59.346363], [18.083428, 59.346133], [18.083296, 59.3461], [18.08303, 59.346036]]}, "properties": {"@id": "way/25113452", "foot": "no", "highway": "secondary", "lit": "yes", "maxspeed": "50", "name": "Liding\u00f6v\u00e4gen", "oneway": "yes", "source": "Bing", "surface": "asphalt", "wikidata": "Q10561376", "wikipedia": "sv:Liding\u00f6v\u00e4gen"}}, {"type": "Feature", "id": "way/27423309", "geometry": {"type": "LineString", "coordinates": [[18.049982, 59.331868], [18.051219, 59.332288]]}, "properties": {"@id": "way/27423309", "bridge": "yes", "cycleway:right": "lane", "foot": "no", "highway": "secondary", "layer": "1", "material": "concrete", "maxspeed": "40", "name": "Kungsbron", "oneway": "yes", "surface": "asphalt", "wikidata": "Q6444547", "wikipedia": "sv:Kungsbron"}}, {"type": "Feature", "id": "way/28217634", "geometry": {"type": "LineString", "coordinates": [[18.055045, 59.333416], [18.05388, 59.33312], [18.053639, 59.333063]]}, "properties": {"@id": "way/28217634", "bridge": "yes", "cycleway:right": "lane", "foot": "no", "highway": "secondary", "layer": "1", "maxspeed": "30", "name": "Kungsbron", "oneway": "yes", "surface": "asphalt", "wikidata": "Q6444547", "wikipedia": "sv:Kungsbron"}}, {"type": "Feature", "id": "way/28419719", "geometry": {"type": "LineString", "coordinates": [[18.031112, 59.332073], [18.031272, 59.332074]]}, "properties": {"@id": "way/28419719", "cycleway:right": "lane", "foot": "no", "highway": "secondary", "maxspeed": "40", "name": "Drottningholmsv\u00e4gen", "oneway": "yes", "surface": "asphalt", "wikidata": "Q10477000", "wikipedia": "sv:Drottningholmsv\u00e4gen, Stockholm"}}, {"type": "Feature", "id": "way/30827004", "geometry": {"type": "LineString", "coordinates": [[18.055256, 59.351284], [18.055341, 59.351234], [18.055404, 59.351197], [18.055501, 59.351163], [18.055597, 59.351149], [18.055783, 59.351126]]}, "properties": {"@id": "way/30827004", "foot": "no", "highway": "secondary", "junction": "roundabout", "lanes": "2", "maxspeed": "50", "name": "Roslagstull", "surface": "asphalt"}}, {"type": "Feature", "id": "way/30827005", "geometry": {"type": "LineString", "coordinates": [[18.055783, 59.351126], [18.055847, 59.351124], [18.055888, 59.351124]]}, "properties": {"@id": "way/30827005", "foot": "no", "highway": "secondary", "junction": "roundabout", "lanes": "2", "maxspeed": "50", "name": "Roslagstull", "surface": "asphalt"}}, {"type": "Feature", "id": "way/30827007", "geometry": {"type": "LineString", "coordinates": [[18.055888, 59.351124], [18.056075, 59.351126], [18.05622, 59.351141], [18.056291, 59.351164], [18.056336, 59.351196], [18.056349, 59.35121], [18.056371, 59.351233], [18.056392, 59.351267], [18.056426, 59.351311], [18.05647, 59.351364], [18.056511, 59.351418]]}, "properties": {"@id": "way/30827007", "foot": "no", "highway": "secondary", "junction": "roundabout", "lanes": "2", "maxspeed": "50", "name": "Roslagstull", "surface": "asphalt"}}, {"type": "Feature", "id": "way/32125128", "geometry": {"type": "LineString", "coordinates": [[18.076703, 59.344], [18.077154, 59.343998], [18.078105, 59.343764], [18.078619, 59.343631], [18.07871, 59.343612], [18.07876, 59.343602], [18.078846, 59.343599]]}, "properties": {"@id": "way/32125128", "foot": "no", "highway": "secondary", "maxspeed": "50", "name": "Valhallav\u00e4gen", "oneway": "yes", "surface": "asphalt", "wikidata": "Q7911587", "wikipedia": "sv:Valhallav\u00e4gen, Stockholm"}}, {"type": "Feature", "id": "way/33057170", "geometry": {"type": "LineString", "coordinates": [[18.069245, 59.345896], [18.06955, 59.345788]]}, "properties": {"@id": "way/33057170", "cycleway:right": "lane", "foot": "no", "highway": "secondary", "maxspeed": "30", "name": "Valhallav\u00e4gen", "oneway": "yes", "surface": "asphalt", "wikidata": "Q7911587", "wikipedia": "sv:Valhallav\u00e4gen, Stockholm"}}, {"type": "Feature", "id": "way/34231304", "geometry": {"type": "LineString", "coordinates": [[18.051105, 59.332575], [18.051177, 59.332507], [18.051233, 59.332488], [18.051303, 59.332468], [18.051401, 59.332455], [18.051703, 59.332462]]}, "properties": {"@id": "way/34231304", "bridge": "yes", "foot": "no", "highway": "secondary_link", "layer": "1", "maxspeed": "50", "oneway": "yes", "surface": "asphalt"}}, {"type": "Feature", "id": "way/34231305", "geometry": {"type": "LineString", "coordinates": [[18.052584, 59.332705], [18.052492, 59.332801]]}, "properties": {"@id": "way/34231305", "bridge": "yes", "foot": "no", "highway": "secondary_link", "layer": "1", "maxspeed": "50", "oneway": "yes", "surface": "asphalt"}}, {"type": "Feature", "id": "way/34387765", "geometry": {"type": "LineString", "coordinates": [[18.052305, 59.332833], [18.052361, 59.332769]]}, "properties": {"@id": "way/34387765", "bridge": "yes", "foot": "no", "highway": "secondary_link", "layer": "1", "maxspeed": "50", "oneway": "yes", "surface": "asphalt"}}, {"type": "Feature", "id": "way/35477782", "geometry": {"type": "LineString", "coordinates": [[18.056583, 59.333774], [18.056482, 59.333889], [18.055755, 59.334708], [18.055669, 59.334805]]}, "properties": {"@id": "way/35477782", "cycleway:right": "track", "foot": "no", "highway": "secondary", "maxspeed": "50", "name": "Vasagatan", "oneway": "yes", "sidewalk": "separate", "surface": "asphalt", "wikidata": "Q679282", "wikipedia": "sv:Vasagatan, Stockholm"}}, {"type": "Feature", "id": "way/35477783", "geometry": {"type": "LineString", "coordinates": [[18.060266, 59.329665], [18.060211, 59.329682], [18.060153, 59.329689], [18.060095, 59.32969], [18.060032, 59.329686]]}, "properties": {"@id": "way/35477783", "highway": "secondary_link", "name": "Vasagatan", "oneway": "yes", "surface": "asphalt", "wikidata": "Q679282", "wikipedia": "sv:Vasagatan, Stockholm"}}, {"type": "Feature", "id": "way/35551373", "geometry": {"type": "LineString", "coordinates": [[18.05443, 59.335576], [18.054101, 59.335468], [18.053385, 59.335298], [18.053319, 59.335273], [18.053292, 59.335257], [18.053264, 59.335237]]}, "properties": {"@id": "way/35551373", "cycleway:left": "opposite_track", "cycleway:right": "track", "foot": "no", "highway": "secondary", "maxspeed": "50", "name": "Barnhusgatan", "oneway": "yes", "oneway:bicycle": "no", "surface": "asphalt", "wikidata": "Q10426539", "wikipedia": "sv:Barnhusgatan"}}, {"type": "Feature", "id": "way/35583988", "geometry": {"type": "LineString", "coordinates": [[18.058857, 59.33124], [18.058687, 59.331416], [18.05843, 59.331673], [18.05839, 59.331716], [18.058311, 59.331797]]}, "properties": {"@id": "way/35583988", "cycleway:right": "lane", "foot": "no", "highway": "secondary", "lcn": "yes", "maxspeed": "50", "name": "Vasagatan", "oneway": "yes", "surface": "asphalt", "wikidata": "Q679282", "wikipedia": "sv:Vasagatan, Stockholm"}}, {"type": "Feature", "id": "way/37145862", "geometry": {"type": "LineString", "coordinates": [[18.05443, 59.335576], [18.054644, 59.335557], [18.05484, 59.335532], [18.054959, 59.335505], [18.055067, 59.335466], [18.055155, 59.335414], [18.055455, 59.334912], [18.055543, 59.334775]]}, "properties": {"@id": "way/37145862", "access": "no", "bicycle": "yes", "cycleway:right": "track", "highway": "secondary", "name": "Vasagatan", "oneway": "yes", "psv": "yes", "sidewalk": "separate", "surface": "asphalt", "wikidata": "Q679282", "wikipedia": "sv:Vasagatan, Stockholm"}}, {"type": "Feature", "id": "way/39093517", "geometry": {"type": "LineString", "coordinates": [[18.055562, 59.344089], [18.055394, 59.344053]]}, "properties": {"@id": "way/39093517", "cycleway:right": "lane", "foot": "no", "highway": "secondary", "maxspeed": "50", "name": "Odengatan", "oneway": "yes", "sidewalk": "separate", "surface": "asphalt", "wikidata": "Q10606799", "wikipedia": "sv:Odengatan"}}, {"type": "Feature", "id": "way/39093604", "geometry": {"type": "LineString", "coordinates": [[18.058967, 59.340473], [18.05889, 59.340554], [18.058045, 59.341451], [18.058003, 59.341496], [18.057965, 59.341536], [18.057333, 59.342207], [18.057263, 59.342281], [18.056492, 59.3431], [18.056454, 59.34314], [18.055778, 59.343855], [18.055727, 59.343912], [18.055678, 59.343964], [18.055664, 59.343979]]}, "properties": {"@id": "way/39093604", "cycleway:right": "track", "foot": "no", "highway": "secondary", "lit": "yes", "maxspeed": "50", "name": "Sveav\u00e4gen", "oneway": "yes", "sidewalk": "separate", "surface": "asphalt", "wikidata": "Q1788276", "wikipedia": "sv:Sveav\u00e4gen"}}, {"type": "Feature", "id": "way/39359352", "geometry": {"type": "LineString", "coordinates": [[18.05668, 59.333659], [18.056583, 59.333774]]}, "properties": {"@id": "way/39359352", "cycleway:right": "lane", "foot": "no", "highway": "secondary", "maxspeed": "50", "name": "Vasagatan", "oneway": "yes", "sidewalk": "separate", "surface": "asphalt", "wikidata": "Q679282", "wikipedia": "sv:Vasagatan, Stockholm"}}, {"type": "Feature", "id": "way/39691471", "geometry": {"type": "LineString", "coordinates": [[18.063681, 59.33556], [18.063555, 59.335685], [18.063248, 59.335947], [18.063185, 59.336004]]}, "properties": {"@id": "way/39691471", "cycleway:right": "share_busway", "foot": "no", "highway": "secondary", "maxspeed": "50", "name": "Sveav\u00e4gen", "oneway": "yes", "sidewalk": "separate", "surface": "asphalt", "wikidata": "Q1788276", "wikipedia": "sv:Sveav\u00e4gen"}}, {"type": "Feature", "id": "way/39691472", "geometry": {"type": "LineString", "coordinates": [[18.063481, 59.335515], [18.063648, 59.33536], [18.063962, 59.33507]]}, "properties": {"@id": "way/39691472", "cycleway:right": "lane", "foot": "no", "highway": "secondary", "maxspeed": "50", "name": "Sveav\u00e4gen", "oneway": "yes", "sidewalk": "separate", "surface": "asphalt", "wikidata": "Q1788276", "wikipedia": "sv:Sveav\u00e4gen"}}, {"type": "Feature", "id": "way/40048880", "geometry": {"type": "LineString", "coordinates": [[18.049763, 59.349767], [18.05001, 59.349694], [18.050047, 59.349675], [18.050112, 59.349643], [18.050221, 59.34957], [18.050303, 59.349493], [18.050643, 59.349117], [18.051492, 59.348177], [18.051618, 59.348043]]}, "properties": {"@id": "way/40048880", "foot": "no", "highway": "secondary", "maxspeed": "50", "name": "Sveav\u00e4gen", "oneway": "yes", "sidewalk": "separate", "surface": "asphalt", "wikidata": "Q1788276", "wikipedia": "sv:Sveav\u00e4gen"}}, {"type": "Feature", "id": "way/40272685", "geometry": {"type": "LineString", "coordinates": [[18.060838, 59.328794], [18.060925, 59.328701], [18.060999, 59.328633], [18.061074, 59.32859]]}, "properties": {"@id": "way/40272685", "foot": "no", "highway": "secondary", "maxspeed": "50", "name": "Vasagatan", "oneway": "yes", "surface": "asphalt", "wikidata": "Q679282", "wikipedia": "sv:Vasagatan, Stockholm"}}, {"type": "Feature", "id": "way/40273617", "geometry": {"type": "LineString", "coordinates": [[18.061588, 59.3287], [18.061524, 59.328691], [18.061453, 59.328686], [18.061359, 59.328688], [18.061289, 59.328699], [18.061168, 59.328729], [18.061091, 59.328762], [18.061032, 59.328794]]}, "properties": {"@id": "way/40273617", "foot": "no", "highway": "secondary", "maxspeed": "50", "name": "Vasagatan", "oneway": "yes", "surface": "asphalt", "wikidata": "Q679282", "wikipedia": "sv:Vasagatan, Stockholm"}}, {"type": "Feature", "id": "way/40802611", "geometry": {"type": "LineString", "coordinates": [[18.067152, 59.347128], [18.06697, 59.347181], [18.066611, 59.347329], [18.065996, 59.347604]]}, "properties": {"@id": "way/40802611", "foot": "no", "highway": "secondary", "maxspeed": "50", "name": "Valhallav\u00e4gen", "oneway": "yes", "surface": "asphalt", "wikidata": "Q7911587", "wikipedia": "sv:Valhallav\u00e4gen, Stockholm"}}, {"type": "Feature", "id": "way/40802612", "geometry": {"type": "LineString", "coordinates": [[18.059396, 59.349942], [18.059449, 59.34992], [18.059647, 59.349836], [18.059708, 59.34981], [18.060157, 59.34962]]}, "properties": {"@id": "way/40802612", "foot": "no", "highway": "secondary", "maxspeed": "50", "name": "Valhallav\u00e4gen", "oneway": "yes", "surface": "asphalt", "wikidata": "Q7911587", "wikipedia": "sv:Valhallav\u00e4gen, Stockholm"}}, {"type": "Feature", "id": "way/40887373", "geometry": {"type": "LineString", "coordinates": [[18.068086, 59.3463], [18.068416, 59.346185], [18.069245, 59.345896]]}, "properties": {"@id": "way/40887373", "cycleway:right": "lane", "foot": "no", "highway": "secondary", "maxspeed": "50", "name": "Valhallav\u00e4gen", "oneway": "yes", "surface": "asphalt"}}, {"type": "Feature", "id": "way/40923719", "geometry": {"type": "LineString", "coordinates": [[18.066584, 59.346844], [18.066755, 59.346788]]}, "properties": {"@id": "way/40923719", "foot": "no", "highway": "secondary", "maxspeed": "50", "name": "Valhallav\u00e4gen", "oneway": "yes", "surface": "asphalt", "wikidata": "Q7911587", "wikipedia": "sv:Valhallav\u00e4gen, Stockholm"}}, {"type": "Feature", "id": "way/40923732", "geometry": {"type": "LineString", "coordinates": [[18.055394, 59.344053], [18.055152, 59.343999], [18.054633, 59.343869], [18.054158, 59.343735]]}, "properties": {"@id": "way/40923732", "check_date": "2019-12-10", "cycleway:right": "lane", "foot": "no", "highway": "secondary", "maxspeed": "50", "name": "Odengatan", "oneway": "yes", "surface": "asphalt", "wikidata": "Q10606799", "wikipedia": "sv:Odengatan"}}, {"type": "Feature", "id": "way/40924323", "geometry": {"type": "LineString", "coordinates": [[18.048838, 59.342341], [18.049049, 59.342394], [18.049909, 59.342602], [18.05085, 59.342832], [18.050932, 59.342851], [18.050986, 59.342865]]}, "properties": {"@id": "way/40924323", "check_date": "2019-12-09", "cycleway:right": "lane", "foot": "no", "highway": "secondary", "maxspeed": "50", "name": "Odengatan", "oneway": "yes", "surface": "asphalt", "wikidata": "Q10606799", "wikipedia": "sv:Odengatan"}}, {"type": "Feature", "id": "way/40924326", "geometry": {"type": "LineString", "coordinates": [[18.036113, 59.342478], [18.036233, 59.342455], [18.036295, 59.342455], [18.036413, 59.342455], [18.03658, 59.342453], [18.036645, 59.342453]]}, "properties": {"@id": "way/40924326", "highway": "secondary", "maxspeed": "50", "name": "Karlbergsv\u00e4gen", "oneway": "yes", "surface": "asphalt", "wikidata": "Q10543777", "wikipedia": "sv:Karlbergsv\u00e4gen"}}, {"type": "Feature", "id": "way/40924331", "geometry": {"type": "LineString", "coordinates": [[18.052195, 59.343241], [18.051952, 59.343197], [18.051679, 59.343174], [18.050881, 59.343136], [18.050821, 59.343134], [18.050712, 59.343131], [18.049444, 59.343075], [18.048511, 59.34304], [18.048392, 59.343035], [18.048156, 59.343026]]}, "properties": {"@id": "way/40924331", "check_date": "2019-12-09", "cycleway:right": "lane", "foot": "no", "highway": "secondary", "maxspeed": "50", "name": "Karlbergsv\u00e4gen", "oneway": "yes", "surface": "asphalt", "wikidata": "Q10543777", "wikipedia": "sv:Karlbergsv\u00e4gen"}}, {"type": "Feature", "id": "way/41123416", "geometry": {"type": "LineString", "coordinates": [[18.031757, 59.333288], [18.031714, 59.333203], [18.031296, 59.332391], [18.031275, 59.332348], [18.031211, 59.332223]]}, "properties": {"@id": "way/41123416", "cycleway:right": "lane", "foot": "no", "highway": "secondary", "maxspeed": "40", "name": "Sankt Eriksgatan", "oneway": "yes", "surface": "asphalt", "wikidata": "Q10661346", "wikipedia": "sv:Sankt Eriksgatan"}}, {"type": "Feature", "id": "way/41123422", "geometry": {"type": "LineString", "coordinates": [[18.033233, 59.335421], [18.032578, 59.334667], [18.03254, 59.334624], [18.032449, 59.334516]]}, "properties": {"@id": "way/41123422", "cycleway:right": "lane", "foot": "no", "highway": "secondary", "maxspeed": "40", "name": "Sankt Eriksgatan", "oneway": "yes", "sidewalk": "separate", "surface": "asphalt", "wikidata": "Q10661346", "wikipedia": "sv:Sankt Eriksgatan"}}, {"type": "Feature", "id": "way/41208820", "geometry": {"type": "LineString", "coordinates": [[18.037687, 59.341372], [18.037634, 59.341298]]}, "properties": {"@id": "way/41208820", "foot": "no", "highway": "secondary", "maxspeed": "50", "name": "Sankt Eriksgatan", "oneway": "yes", "surface": "asphalt", "wikidata": "Q10661346", "wikipedia": "sv:Sankt Eriksgatan"}}, {"type": "Feature", "id": "way/41208822", "geometry": {"type": "LineString", "coordinates": [[18.048156, 59.343026], [18.047318, 59.342996], [18.046697, 59.342976], [18.046419, 59.342965]]}, "properties": {"@id": "way/41208822", "check_date": "2019-12-09", "cycleway:right": "lane", "foot": "no", "highway": "secondary", "maxspeed": "50", "name": "Karlbergsv\u00e4gen", "oneway": "yes", "surface": "asphalt", "wikidata": "Q10543777", "wikipedia": "sv:Karlbergsv\u00e4gen"}}, {"type": "Feature", "id": "way/41208825", "geometry": {"type": "LineString", "coordinates": [[18.05952, 59.345068], [18.059358, 59.345018], [18.058089, 59.344695], [18.057982, 59.344668], [18.057836, 59.344631], [18.057575, 59.344569], [18.055881, 59.344161], [18.055777, 59.344136], [18.055562, 59.344089]]}, "properties": {"@id": "way/41208825", "cycleway:right": "lane", "foot": "no", "highway": "secondary", "maxspeed": "50", "name": "Odengatan", "oneway": "yes", "sidewalk": "separate", "surface": "asphalt", "wikidata": "Q10606799", "wikipedia": "sv:Odengatan"}}, {"type": "Feature", "id": "way/41274652", "geometry": {"type": "LineString", "coordinates": [[18.062782, 59.32988], [18.064076, 59.330226], [18.065148, 59.330498], [18.065605, 59.330647], [18.065803, 59.330733], [18.065942, 59.330808], [18.066025, 59.330866], [18.066097, 59.330922], [18.066209, 59.331039], [18.066281, 59.331138], [18.066322, 59.331232], [18.066353, 59.33135], [18.066353, 59.331465], [18.06631, 59.331616], [18.066274, 59.331705], [18.065969, 59.332251]]}, "properties": {"@id": "way/41274652", "bicycle": "no", "foot": "no", "highway": "secondary", "lanes": "2", "layer": "-1", "lit": "24/7", "maxheight": "3", "maxspeed": "50", "name": "Klaratunneln", "oneway": "yes", "surface": "asphalt", "tunnel": "yes", "wikidata": "Q10546062", "wikipedia": "sv:Klaratunneln"}}, {"type": "Feature", "id": "way/41274655", "geometry": {"type": "LineString", "coordinates": [[18.062826, 59.329742], [18.062769, 59.329803], [18.062761, 59.329842], [18.06277, 59.329875]]}, "properties": {"@id": "way/41274655", "bicycle": "no", "foot": "no", "highway": "secondary_link", "maxspeed": "50", "name": "R\u00f6dbodgatan", "oneway": "yes", "surface": "asphalt"}}, {"type": "Feature", "id": "way/41510319", "geometry": {"type": "LineString", "coordinates": [[18.094346, 59.339633], [18.094492, 59.339678], [18.094596, 59.339724], [18.094658, 59.339773]]}, "properties": {"@id": "way/41510319", "foot": "no", "highway": "secondary_link", "maxspeed": "50", "name": "V\u00e4rtav\u00e4gen", "oneway": "yes", "surface": "asphalt", "wikidata": "Q10717752", "wikipedia": "sv:V\u00e4rtav\u00e4gen"}}, {"type": "Feature", "id": "way/41510322", "geometry": {"type": "LineString", "coordinates": [[18.094346, 59.339633], [18.094599, 59.339579], [18.096128, 59.339244], [18.096277, 59.339212]]}, "properties": {"@id": "way/41510322", "foot": "no", "highway": "secondary", "maxspeed": "50", "name": "Valhallav\u00e4gen", "oneway": "yes", "surface": "asphalt", "wikidata": "Q7911587", "wikipedia": "sv:Valhallav\u00e4gen, Stockholm"}}, {"type": "Feature", "id": "way/41510327", "geometry": {"type": "LineString", "coordinates": [[18.094642, 59.339985], [18.094418, 59.34004]]}, "properties": {"@id": "way/41510327", "foot": "no", "highway": "secondary", "maxspeed": "50", "name": "Valhallav\u00e4gen", "oneway": "yes", "surface": "asphalt", "wikidata": "Q7911587", "wikipedia": "sv:Valhallav\u00e4gen, Stockholm"}}, {"type": "Feature", "id": "way/41510339", "geometry": {"type": "LineString", "coordinates": [[18.084846, 59.341974], [18.084995, 59.341935], [18.085831, 59.34173], [18.086713, 59.341508], [18.086886, 59.341468], [18.087938, 59.341207], [18.088756, 59.341004], [18.089725, 59.340763], [18.090079, 59.340675], [18.090172, 59.340652], [18.090319, 59.340616]]}, "properties": {"@id": "way/41510339", "foot": "no", "highway": "secondary", "maxspeed": "50", "name": "Valhallav\u00e4gen", "oneway": "yes", "surface": "asphalt", "wikidata": "Q7911587", "wikipedia": "sv:Valhallav\u00e4gen, Stockholm"}}, {"type": "Feature", "id": "way/41510350", "geometry": {"type": "LineString", "coordinates": [[18.085183, 59.342327], [18.083681, 59.342709], [18.083527, 59.342748], [18.082324, 59.343055], [18.082186, 59.34309], [18.082029, 59.34313], [18.0807, 59.343469], [18.07956, 59.343758], [18.079458, 59.343785], [18.079349, 59.343813], [18.079251, 59.343838]]}, "properties": {"@id": "way/41510350", "foot": "no", "highway": "secondary", "maxspeed": "50", "name": "Valhallav\u00e4gen", "oneway": "yes", "surface": "asphalt", "wikidata": "Q7911587", "wikipedia": "sv:Valhallav\u00e4gen, Stockholm"}}, {"type": "Feature", "id": "way/41517361", "geometry": {"type": "LineString", "coordinates": [[18.040759, 59.338072], [18.040672, 59.338168], [18.040571, 59.338242], [18.040411, 59.338368], [18.04028, 59.338502], [18.040072, 59.338723], [18.039726, 59.339109], [18.039654, 59.339189], [18.039194, 59.33971], [18.03915, 59.339759], [18.039099, 59.339806], [18.039019, 59.33988]]}, "properties": {"@id": "way/41517361", "foot": "no", "highway": "secondary", "maxspeed": "50", "name": "Torsgatan", "oneway": "yes", "surface": "asphalt", "wikidata": "Q10700359", "wikipedia": "sv:Torsgatan"}}, {"type": "Feature", "id": "way/41517900", "geometry": {"type": "LineString", "coordinates": [[18.031211, 59.332223], [18.031112, 59.332073]]}, "properties": {"@id": "way/41517900", "foot": "no", "highway": "secondary", "maxspeed": "40", "name": "Sankt Eriksgatan", "oneway": "yes", "surface": "asphalt", "wikidata": "Q10661346", "wikipedia": "sv:Sankt Eriksgatan"}}, {"type": "Feature", "id": "way/41517901", "geometry": {"type": "LineString", "coordinates": [[18.031211, 59.332223], [18.030931, 59.332202], [18.028967, 59.332128], [18.028885, 59.332124], [18.028804, 59.332121]]}, "properties": {"@id": "way/41517901", "cycleway:right": "share_busway", "foot": "no", "highway": "secondary", "maxspeed": "40", "name": "Drottningholmsv\u00e4gen", "oneway": "yes", "surface": "asphalt", "wikidata": "Q10477000", "wikipedia": "sv:Drottningholmsv\u00e4gen, Stockholm"}}, {"type": "Feature", "id": "way/41518274", "geometry": {"type": "LineString", "coordinates": [[18.096553, 59.339572], [18.096425, 59.339602], [18.094886, 59.339931], [18.094642, 59.339985]]}, "properties": {"@id": "way/41518274", "foot": "no", "highway": "secondary", "maxspeed": "50", "name": "Valhallav\u00e4gen", "oneway": "yes", "surface": "asphalt", "wikidata": "Q7911587", "wikipedia": "sv:Valhallav\u00e4gen, Stockholm"}}, {"type": "Feature", "id": "way/41518279", "geometry": {"type": "LineString", "coordinates": [[18.096277, 59.339212], [18.096482, 59.339172]]}, "properties": {"@id": "way/41518279", "foot": "no", "highway": "secondary", "maxspeed": "50", "name": "Valhallav\u00e4gen", "oneway": "yes", "surface": "asphalt"}}, {"type": "Feature", "id": "way/41520482", "geometry": {"type": "LineString", "coordinates": [[18.028539, 59.332109], [18.028255, 59.332104]]}, "properties": {"@id": "way/41520482", "bicycle": "no", "foot": "no", "highway": "secondary", "maxspeed": "40", "name": "Drottningholmsv\u00e4gen", "oneway": "yes", "surface": "asphalt", "wikidata": "Q10477000", "wikipedia": "sv:Drottningholmsv\u00e4gen, Stockholm"}}, {"type": "Feature", "id": "way/41529245", "geometry": {"type": "LineString", "coordinates": [[18.028549, 59.331984], [18.028803, 59.331994]]}, "properties": {"@id": "way/41529245", "foot": "no", "highway": "secondary", "maxspeed": "40", "name": "Drottningholmsv\u00e4gen", "oneway": "yes", "source": "survey", "surface": "asphalt", "wikidata": "Q10477000", "wikipedia": "sv:Drottningholmsv\u00e4gen, Stockholm"}}, {"type": "Feature", "id": "way/41529339", "geometry": {"type": "LineString", "coordinates": [[18.049763, 59.349767], [18.049912, 59.34978], [18.05005, 59.349801], [18.050359, 59.349894]]}, "properties": {"@id": "way/41529339", "check_date": "2020-01-08", "highway": "secondary", "maxspeed": "50", "name": "Sveaplan", "oneway": "yes", "surface": "asphalt", "wikidata": "Q10684619", "wikipedia": "sv:Sveaplan, Stockholm"}}, {"type": "Feature", "id": "way/41568994", "geometry": {"type": "LineString", "coordinates": [[18.065542, 59.347597], [18.065486, 59.347586]]}, "properties": {"@id": "way/41568994", "foot": "no", "highway": "secondary", "maxspeed": "50", "name": "Valhallav\u00e4gen", "oneway": "yes", "surface": "asphalt", "wikidata": "Q7911587", "wikipedia": "sv:Valhallav\u00e4gen, Stockholm"}}, {"type": "Feature", "id": "way/41568995", "geometry": {"type": "LineString", "coordinates": [[18.065486, 59.347586], [18.065397, 59.347569], [18.06533, 59.347559], [18.065273, 59.347555], [18.065198, 59.347553]]}, "properties": {"@id": "way/41568995", "foot": "no", "highway": "secondary", "maxspeed": "50", "name": "Valhallav\u00e4gen", "oneway": "yes", "surface": "asphalt"}}, {"type": "Feature", "id": "way/41568996", "geometry": {"type": "LineString", "coordinates": [[18.065304, 59.347362], [18.065926, 59.347091], [18.06637, 59.346914], [18.066419, 59.346897], [18.066584, 59.346844]]}, "properties": {"@id": "way/41568996", "foot": "no", "highway": "secondary", "lanes": "3", "maxspeed": "50", "name": "Valhallav\u00e4gen", "oneway": "yes", "surface": "asphalt", "wikidata": "Q7911587", "wikipedia": "sv:Valhallav\u00e4gen, Stockholm"}}, {"type": "Feature", "id": "way/41568997", "geometry": {"type": "LineString", "coordinates": [[18.065996, 59.347604], [18.065915, 59.347611], [18.065831, 59.347615], [18.065774, 59.347616], [18.065697, 59.347614], [18.065609, 59.347607], [18.065542, 59.347597]]}, "properties": {"@id": "way/41568997", "foot": "no", "highway": "secondary", "maxspeed": "50", "name": "Valhallav\u00e4gen", "oneway": "yes", "surface": "asphalt", "wikidata": "Q7911587", "wikipedia": "sv:Valhallav\u00e4gen, Stockholm"}}, {"type": "Feature", "id": "way/41573310", "geometry": {"type": "LineString", "coordinates": [[18.074256, 59.344611], [18.074984, 59.344429], [18.07586, 59.34421], [18.076014, 59.344172], [18.076563, 59.344035], [18.076703, 59.344]]}, "properties": {"@id": "way/41573310", "cycleway:right": "lane", "foot": "no", "highway": "secondary", "maxspeed": "30", "name": "Valhallav\u00e4gen", "oneway": "yes", "surface": "asphalt", "wikidata": "Q7911587", "wikipedia": "sv:Valhallav\u00e4gen, Stockholm"}}, {"type": "Feature", "id": "way/41574205", "geometry": {"type": "LineString", "coordinates": [[18.046169, 59.342902], [18.044998, 59.342851], [18.04488, 59.342846], [18.044494, 59.34283]]}, "properties": {"@id": "way/41574205", "check_date": "2019-12-09", "cycleway:right": "lane", "foot": "no", "highway": "secondary", "maxspeed": "50", "name": "Karlbergsv\u00e4gen", "oneway": "yes", "surface": "asphalt", "wikidata": "Q10543777", "wikipedia": "sv:Karlbergsv\u00e4gen"}}, {"type": "Feature", "id": "way/41574208", "geometry": {"type": "LineString", "coordinates": [[18.058989, 59.330818], [18.059105, 59.330697], [18.0592, 59.33061], [18.059939, 59.329787], [18.060032, 59.329686]]}, "properties": {"@id": "way/41574208", "cycleway:right": "track", "foot": "no", "highway": "secondary", "maxspeed": "50", "name": "Vasagatan", "oneway": "yes", "surface": "asphalt", "wikidata": "Q679282", "wikipedia": "sv:Vasagatan, Stockholm"}}, {"type": "Feature", "id": "way/41575727", "geometry": {"type": "LineString", "coordinates": [[18.032419, 59.334457], [18.03237, 59.334367], [18.03182, 59.333398], [18.031757, 59.333288]]}, "properties": {"@id": "way/41575727", "cycleway:right": "lane", "foot": "no", "highway": "secondary", "maxspeed": "40", "name": "Sankt Eriksgatan", "oneway": "yes", "sidewalk": "separate", "surface": "asphalt", "wikidata": "Q10661346", "wikipedia": "sv:Sankt Eriksgatan"}}, {"type": "Feature", "id": "way/41771259", "geometry": {"type": "LineString", "coordinates": [[18.069865, 59.334244], [18.069954, 59.334151]]}, "properties": {"@id": "way/41771259", "bicycle": "no", "foot": "no", "highway": "secondary", "lanes": "1", "maxheight": "3", "maxspeed": "50", "name": "Klaratunneln", "oneway": "yes", "surface": "asphalt", "wikidata": "Q10546062", "wikipedia": "sv:Klaratunneln"}}, {"type": "Feature", "id": "way/42105882", "geometry": {"type": "LineString", "coordinates": [[18.050955, 59.350336], [18.050776, 59.350273], [18.050622, 59.350243], [18.050435, 59.350229], [18.050242, 59.350231]]}, "properties": {"@id": "way/42105882", "foot": "no", "highway": "secondary", "lanes": "1", "maxspeed": "50", "name": "Cedersdalsgatan", "oneway": "yes", "surface": "asphalt", "wikidata": "Q10444377", "wikipedia": "sv:Cedersdalsgatan"}}, {"type": "Feature", "id": "way/42105883", "geometry": {"type": "LineString", "coordinates": [[18.049634, 59.350361], [18.049445, 59.350324], [18.049321, 59.350282]]}, "properties": {"@id": "way/42105883", "access": "no", "foot": "no", "highway": "secondary", "maxspeed": "50", "name": "Sveaplan", "oneway": "yes", "psv": "yes", "surface": "asphalt", "wikidata": "Q10684619", "wikipedia": "sv:Sveaplan, Stockholm"}}, {"type": "Feature", "id": "way/42105884", "geometry": {"type": "LineString", "coordinates": [[18.050388, 59.349969], [18.050352, 59.350085], [18.05031, 59.350164], [18.050242, 59.350231], [18.050106, 59.350302]]}, "properties": {"@id": "way/42105884", "check_date": "2020-01-08", "foot": "no", "highway": "secondary", "maxspeed": "50", "name": "Sveaplan", "oneway": "yes", "surface": "asphalt", "wikidata": "Q10684619", "wikipedia": "sv:Sveaplan, Stockholm"}}, {"type": "Feature", "id": "way/42105885", "geometry": {"type": "LineString", "coordinates": [[18.055256, 59.351284], [18.055202, 59.351213], [18.055161, 59.351181], [18.055082, 59.351145], [18.055023, 59.351129], [18.054962, 59.351117], [18.054899, 59.35111], [18.054446, 59.351059]]}, "properties": {"@id": "way/42105885", "foot": "no", "highway": "secondary", "lanes": "2", "maxspeed": "50", "name": "Cedersdalsgatan", "oneway": "yes", "surface": "asphalt", "wikidata": "Q10444377", "wikipedia": "sv:Cedersdalsgatan"}}, {"type": "Feature", "id": "way/42269415", "geometry": {"type": "LineString", "coordinates": [[18.094321, 59.340063], [18.094118, 59.340026], [18.094054, 59.34], [18.09401, 59.339981], [18.093942, 59.339928]]}, "properties": {"@id": "way/42269415", "foot": "no", "highway": "secondary_link", "maxspeed": "50", "name": "V\u00e4rtav\u00e4gen", "oneway": "yes", "surface": "asphalt", "wikidata": "Q10717752", "wikipedia": "sv:V\u00e4rtav\u00e4gen"}}, {"type": "Feature", "id": "way/42974938", "geometry": {"type": "LineString", "coordinates": [[18.050106, 59.350302], [18.049634, 59.350361]]}, "properties": {"@id": "way/42974938", "foot": "no", "highway": "secondary", "lanes": "2", "maxspeed": "50", "name": "Sveaplan", "oneway": "yes", "surface": "asphalt", "wikidata": "Q10684619", "wikipedia": "sv:Sveaplan, Stockholm"}}, {"type": "Feature", "id": "way/42974944", "geometry": {"type": "LineString", "coordinates": [[18.050388, 59.349969], [18.050529, 59.35009], [18.05061, 59.350145], [18.050726, 59.350207]]}, "properties": {"@id": "way/42974944", "check_date": "2020-01-08", "foot": "no", "highway": "secondary", "maxspeed": "50", "name": "Cedersdalsgatan", "oneway": "yes", "surface": "asphalt", "wikidata": "Q10444377", "wikipedia": "sv:Cedersdalsgatan"}}, {"type": "Feature", "id": "way/42978395", "geometry": {"type": "LineString", "coordinates": [[18.090319, 59.340616], [18.090453, 59.340583], [18.091868, 59.340234], [18.093728, 59.339775], [18.093948, 59.339721], [18.094346, 59.339633]]}, "properties": {"@id": "way/42978395", "foot": "no", "highway": "secondary", "name": "Valhallav\u00e4gen", "oneway": "yes", "surface": "asphalt", "wikidata": "Q7911587", "wikipedia": "sv:Valhallav\u00e4gen, Stockholm"}}, {"type": "Feature", "id": "way/42979012", "geometry": {"type": "LineString", "coordinates": [[18.040786, 59.348063], [18.04073, 59.347971], [18.040675, 59.347884], [18.040374, 59.347407], [18.040262, 59.347245], [18.04018, 59.347051], [18.040049, 59.346548], [18.039872, 59.345856]]}, "properties": {"@id": "way/42979012", "foot": "no", "highway": "secondary", "maxspeed": "50", "name": "Sankt Eriksgatan", "sidewalk": "separate", "surface": "asphalt", "wikidata": "Q10661346", "wikipedia": "sv:Sankt Eriksgatan"}}, {"type": "Feature", "id": "way/42979124", "geometry": {"type": "LineString", "coordinates": [[18.055265, 59.335449], [18.055179, 59.335513], [18.055046, 59.335564], [18.054878, 59.335596]]}, "properties": {"@id": "way/42979124", "cycleway:right": "lane", "foot": "no", "highway": "secondary", "maxspeed": "50", "name": "Vasagatan", "oneway": "yes", "surface": "asphalt", "wikidata": "Q679282", "wikipedia": "sv:Vasagatan, Stockholm"}}, {"type": "Feature", "id": "way/43022634", "geometry": {"type": "LineString", "coordinates": [[18.060879, 59.345397], [18.060688, 59.345361], [18.060325, 59.345277], [18.059705, 59.345123], [18.05952, 59.345068]]}, "properties": {"@id": "way/43022634", "cycleway:right": "shared_lane", "foot": "no", "highway": "secondary", "lanes": "1", "maxspeed": "50", "name": "Odengatan", "oneway": "yes", "surface": "asphalt", "wikidata": "Q10606799", "wikipedia": "sv:Odengatan"}}, {"type": "Feature", "id": "way/43022638", "geometry": {"type": "LineString", "coordinates": [[18.059613, 59.344968], [18.059869, 59.345017], [18.06079, 59.345248], [18.060973, 59.345299]]}, "properties": {"@id": "way/43022638", "cycleway:right": "lane", "foot": "no", "highway": "secondary", "maxspeed": "50", "name": "Odengatan", "oneway": "yes", "surface": "asphalt", "wikidata": "Q10606799", "wikipedia": "sv:Odengatan"}}, {"type": "Feature", "id": "way/43052949", "geometry": {"type": "LineString", "coordinates": [[18.050955, 59.350336], [18.050709, 59.350299], [18.050534, 59.350285], [18.050428, 59.350282], [18.050332, 59.350285], [18.050106, 59.350302]]}, "properties": {"@id": "way/43052949", "foot": "no", "highway": "secondary", "lanes": "2", "maxspeed": "50", "name": "Cedersdalsgatan", "oneway": "yes", "surface": "asphalt", "wikidata": "Q10444377", "wikipedia": "sv:Cedersdalsgatan"}}, {"type": "Feature", "id": "way/43053605", "geometry": {"type": "LineString", "coordinates": [[18.049204, 59.350061], [18.049296, 59.349982], [18.049391, 59.349914], [18.04955, 59.349832], [18.049763, 59.349767]]}, "properties": {"@id": "way/43053605", "check_date": "2020-01-08", "foot": "no", "highway": "secondary", "maxspeed": "50", "name": "Sveaplan", "oneway": "yes", "surface": "asphalt", "wikidata": "Q10684619", "wikipedia": "sv:Sveaplan, Stockholm"}}, {"type": "Feature", "id": "way/43055851", "geometry": {"type": "LineString", "coordinates": [[18.039019, 59.33988], [18.039081, 59.339895], [18.03919, 59.339923], [18.039646, 59.340041]]}, "properties": {"@id": "way/43055851", "check_date": "2019-12-09", "foot": "no", "highway": "secondary", "maxspeed": "50", "name": "Odengatan", "oneway": "yes", "surface": "asphalt", "wikidata": "Q10606799", "wikipedia": "sv:Odengatan"}}, {"type": "Feature", "id": "way/43065375", "geometry": {"type": "LineString", "coordinates": [[18.050359, 59.349894], [18.050388, 59.349969]]}, "properties": {"@id": "way/43065375", "check_date": "2020-01-08", "foot": "no", "highway": "secondary", "maxspeed": "50", "name": "Sveaplan", "oneway": "yes", "surface": "asphalt", "wikidata": "Q10684619", "wikipedia": "sv:Sveaplan, Stockholm"}}, {"type": "Feature", "id": "way/46873955", "geometry": {"type": "LineString", "coordinates": [[18.048949, 59.350363], [18.048986, 59.350315], [18.049045, 59.350276], [18.04921, 59.350217]]}, "properties": {"@id": "way/46873955", "foot": "no", "highway": "secondary", "maxspeed": "50", "name": "Sveaplan", "oneway": "yes", "surface": "asphalt"}}, {"type": "Feature", "id": "way/47520672", "geometry": {"type": "LineString", "coordinates": [[18.048315, 59.350221], [18.048629, 59.35021], [18.048754, 59.350198], [18.048814, 59.350189], [18.048879, 59.350179], [18.048972, 59.35015], [18.049204, 59.350061]]}, "properties": {"@id": "way/47520672", "check_date": "2020-01-09", "foot": "no", "highway": "secondary", "maxspeed": "50", "name": "Sveav\u00e4gen", "oneway": "yes", "surface": "asphalt", "wikidata": "Q1788276", "wikipedia": "sv:Sveav\u00e4gen"}}, {"type": "Feature", "id": "way/47520678", "geometry": {"type": "LineString", "coordinates": [[18.046525, 59.350191], [18.046423, 59.350173], [18.045488, 59.350116], [18.044525, 59.350108], [18.044233, 59.350101]]}, "properties": {"@id": "way/47520678", "foot": "no", "highway": "secondary", "maxspeed": "50", "name": "Norra Stationsgatan", "oneway": "yes", "surface": "asphalt", "wikidata": "Q10602579", "wikipedia": "sv:Norra Stationsgatan"}}, {"type": "Feature", "id": "way/48804973", "geometry": {"type": "LineString", "coordinates": [[18.0385, 59.342498], [18.03843, 59.34239], [18.038023, 59.341803], [18.037793, 59.341504], [18.037722, 59.341415], [18.037687, 59.341372]]}, "properties": {"@id": "way/48804973", "foot": "no", "highway": "secondary", "maxspeed": "50", "name": "Sankt Eriksgatan", "oneway": "yes", "surface": "asphalt", "wikidata": "Q10661346", "wikipedia": "sv:Sankt Eriksgatan"}}, {"type": "Feature", "id": "way/48804974", "geometry": {"type": "LineString", "coordinates": [[18.03778, 59.341278], [18.037687, 59.341372]]}, "properties": {"@id": "way/48804974", "foot": "no", "highway": "secondary", "maxspeed": "50", "name": "Torsgatan", "oneway": "yes", "surface": "asphalt", "wikidata": "Q10700359", "wikipedia": "sv:Torsgatan"}}, {"type": "Feature", "id": "way/58913644", "geometry": {"type": "LineString", "coordinates": [[18.028254, 59.331965], [18.028549, 59.331984]]}, "properties": {"@id": "way/58913644", "bicycle": "no", "foot": "no", "highway": "secondary", "maxspeed": "40", "name": "Drottningholmsv\u00e4gen", "oneway": "yes", "source": "survey", "surface": "asphalt", "wikidata": "Q10477000", "wikipedia": "sv:Drottningholmsv\u00e4gen, Stockholm"}}, {"type": "Feature", "id": "way/60049134", "geometry": {"type": "LineString", "coordinates": [[18.046419, 59.342965], [18.046359, 59.342951], [18.046169, 59.342902]]}, "properties": {"@id": "way/60049134", "check_date": "2019-12-09", "foot": "no", "highway": "secondary", "maxspeed": "50", "name": "Karlbergsv\u00e4gen", "oneway": "yes", "surface": "asphalt", "wikidata": "Q10543777", "wikipedia": "sv:Karlbergsv\u00e4gen"}}, {"type": "Feature", "id": "way/61322393", "geometry": {"type": "LineString", "coordinates": [[18.060157, 59.34962], [18.06211, 59.348759], [18.062177, 59.348731], [18.062212, 59.348714], [18.062246, 59.3487], [18.062353, 59.348652]]}, "properties": {"@id": "way/61322393", "foot": "no", "highway": "secondary", "lanes": "2", "maxspeed": "50", "name": "Valhallav\u00e4gen", "oneway": "yes", "surface": "asphalt", "wikidata": "Q7911587", "wikipedia": "sv:Valhallav\u00e4gen, Stockholm"}}, {"type": "Feature", "id": "way/62299010", "geometry": {"type": "LineString", "coordinates": [[18.044494, 59.34283], [18.044151, 59.342818], [18.04257, 59.342764], [18.042491, 59.342761]]}, "properties": {"@id": "way/62299010", "check_date": "2019-12-09", "cycleway:right": "lane", "foot": "no", "highway": "secondary", "maxspeed": "30", "name": "Karlbergsv\u00e4gen", "oneway": "yes", "surface": "asphalt", "wikidata": "Q10543777", "wikipedia": "sv:Karlbergsv\u00e4gen"}}, {"type": "Feature", "id": "way/62299029", "geometry": {"type": "LineString", "coordinates": [[18.038737, 59.342625], [18.038782, 59.342735], [18.038852, 59.343006], [18.038935, 59.343229], [18.039294, 59.343948], [18.039664, 59.344647], [18.039674, 59.344665], [18.039747, 59.344735]]}, "properties": {"@id": "way/62299029", "foot": "no", "highway": "secondary", "maxspeed": "50", "name": "Sankt Eriksgatan", "oneway": "yes", "surface": "asphalt", "wikidata": "Q10661346", "wikipedia": "sv:Sankt Eriksgatan"}}, {"type": "Feature", "id": "way/75465436", "geometry": {"type": "LineString", "coordinates": [[18.046525, 59.350191], [18.046406, 59.350207], [18.045123, 59.350217], [18.044901, 59.350221], [18.044795, 59.350227], [18.044624, 59.350247], [18.04455, 59.350261]]}, "properties": {"@id": "way/75465436", "foot": "no", "highway": "primary_link", "lanes": "2", "maxspeed": "50", "name": "Sveav\u00e4gen", "oneway": "yes", "surface": "asphalt", "wikidata": "Q1788276", "wikipedia": "sv:Sveav\u00e4gen"}}, {"type": "Feature", "id": "way/76203450", "geometry": {"type": "LineString", "coordinates": [[18.048315, 59.350221], [18.048834, 59.350233], [18.048902, 59.350235], [18.04921, 59.350217]]}, "properties": {"@id": "way/76203450", "check_date": "2020-01-09", "foot": "no", "highway": "secondary", "lanes": "2", "maxspeed": "50", "name": "Sveav\u00e4gen", "oneway": "yes", "surface": "asphalt", "wikidata": "Q1788276", "wikipedia": "sv:Sveav\u00e4gen"}}, {"type": "Feature", "id": "way/85184285", "geometry": {"type": "LineString", "coordinates": [[18.037687, 59.341372], [18.037624, 59.341446], [18.037578, 59.3415], [18.036925, 59.342286], [18.036874, 59.342347], [18.036788, 59.34245], [18.036713, 59.34254]]}, "properties": {"@id": "way/85184285", "cycleway:right": "track", "foot": "no", "highway": "secondary", "maxspeed": "50", "name": "Torsgatan", "oneway": "yes", "surface": "asphalt", "wikidata": "Q10700359", "wikipedia": "sv:Torsgatan"}}, {"type": "Feature", "id": "way/87218363", "geometry": {"type": "LineString", "coordinates": [[18.058035, 59.331868], [18.058136, 59.331752]]}, "properties": {"@id": "way/87218363", "cycleway:right": "lane", "foot": "no", "highway": "secondary", "lcn": "yes", "maxspeed": "50", "name": "Vasagatan", "oneway": "yes", "surface": "asphalt", "wikidata": "Q679282", "wikipedia": "sv:Vasagatan, Stockholm"}}, {"type": "Feature", "id": "way/87891919", "geometry": {"type": "LineString", "coordinates": [[18.058856, 59.35028], [18.057782, 59.350784], [18.0577, 59.350823], [18.056722, 59.351308], [18.056511, 59.351418]]}, "properties": {"@id": "way/87891919", "foot": "no", "highway": "secondary", "lanes": "3", "maxspeed": "50", "name": "Valhallav\u00e4gen", "oneway": "yes", "surface": "asphalt", "wikidata": "Q7911587", "wikipedia": "sv:Valhallav\u00e4gen, Stockholm"}}, {"type": "Feature", "id": "way/87891921", "geometry": {"type": "LineString", "coordinates": [[18.055029, 59.351578], [18.055045, 59.351506], [18.055065, 59.351427], [18.055078, 59.351377], [18.05509, 59.35131]]}, "properties": {"@id": "way/87891921", "foot": "no", "highway": "primary_link", "lanes": "1", "maxspeed": "50", "name": "Cedersdalsgatan", "oneway": "yes", "surface": "asphalt"}}, {"type": "Feature", "id": "way/95305155", "geometry": {"type": "LineString", "coordinates": [[18.065486, 59.347586], [18.065389, 59.347546], [18.065349, 59.347522], [18.065326, 59.347496], [18.065306, 59.347458], [18.065302, 59.347423], [18.065304, 59.347362]]}, "properties": {"@id": "way/95305155", "foot": "no", "highway": "secondary", "maxspeed": "50", "name": "Valhallav\u00e4gen", "oneway": "yes", "source": "yahoo + survey", "surface": "asphalt", "wikidata": "Q7911587", "wikipedia": "sv:Valhallav\u00e4gen, Stockholm"}}, {"type": "Feature", "id": "way/97723694", "geometry": {"type": "LineString", "coordinates": [[18.038765, 59.343079], [18.03866, 59.343026], [18.038619, 59.342989], [18.038571, 59.342878], [18.038516, 59.342792], [18.038492, 59.342769], [18.038446, 59.342743], [18.038409, 59.342729], [18.038178, 59.342649], [18.037714, 59.342577]]}, "properties": {"@id": "way/97723694", "foot": "no", "highway": "secondary", "maxspeed": "50", "name": "Karlbergsv\u00e4gen", "oneway": "yes", "surface": "asphalt", "wikidata": "Q10543777", "wikipedia": "sv:Karlbergsv\u00e4gen"}}, {"type": "Feature", "id": "way/97723696", "geometry": {"type": "LineString", "coordinates": [[18.029094, 59.339143], [18.029069, 59.339121], [18.02905, 59.339112], [18.029007, 59.339098], [18.028959, 59.339092], [18.028901, 59.339089], [18.028828, 59.339093], [18.028756, 59.339108], [18.028659, 59.339135], [18.028456, 59.339202], [18.028245, 59.339252]]}, "properties": {"@id": "way/97723696", "bicycle": "no", "foot": "no", "highway": "secondary", "maxspeed": "50", "name": "Pampasl\u00e4nken", "oneway": "yes", "surface": "asphalt"}}, {"type": "Feature", "id": "way/97854215", "geometry": {"type": "LineString", "coordinates": [[18.087938, 59.341207], [18.088069, 59.341343], [18.088127, 59.341403], [18.088215, 59.341494], [18.088275, 59.341557]]}, "properties": {"@id": "way/97854215", "foot": "no", "highway": "secondary_link", "maxspeed": "50", "oneway": "yes", "surface": "asphalt"}}, {"type": "Feature", "id": "way/97854217", "geometry": {"type": "LineString", "coordinates": [[18.096673, 59.339132], [18.096746, 59.339197], [18.096757, 59.339207], [18.096769, 59.339217], [18.096859, 59.339298], [18.096947, 59.339402], [18.096966, 59.339488]]}, "properties": {"@id": "way/97854217", "foot": "no", "highway": "secondary_link", "maxspeed": "50", "name": "Ban\u00e9rgatan", "oneway": "yes", "surface": "asphalt", "wikidata": "Q10426211", "wikipedia": "sv:Ban\u00e9rgatan"}}, {"type": "Feature", "id": "way/110655211", "geometry": {"type": "LineString", "coordinates": [[18.065244, 59.333262], [18.064715, 59.334175], [18.064559, 59.334471]]}, "properties": {"@id": "way/110655211", "bicycle": "no", "foot": "no", "highway": "secondary", "maxheight": "3", "maxspeed": "50", "name": "Klaratunneln", "oneway": "yes", "sidewalk": "no", "surface": "asphalt", "wikidata": "Q10546062", "wikipedia": "sv:Klaratunneln"}}, {"type": "Feature", "id": "way/116145874", "geometry": {"type": "LineString", "coordinates": [[18.080422, 59.343083], [18.080507, 59.343174], [18.080519, 59.343187], [18.080531, 59.3432], [18.080585, 59.343258], [18.080688, 59.343368], [18.0807, 59.343469]]}, "properties": {"@id": "way/116145874", "foot": "no", "highway": "secondary", "maxspeed": "50", "name": "Brahegatan", "oneway": "yes", "surface": "asphalt", "wikidata": "Q15890693", "wikipedia": "sv:Brahegatan, Stockholm"}}, {"type": "Feature", "id": "way/116883665", "geometry": {"type": "LineString", "coordinates": [[18.06709, 59.346663], [18.067579, 59.346483], [18.068086, 59.3463]]}, "properties": {"@id": "way/116883665", "cycleway:right": "lane", "foot": "no", "highway": "secondary", "maxspeed": "50", "name": "Valhallav\u00e4gen", "oneway": "yes", "surface": "asphalt", "wikidata": "Q7911587", "wikipedia": "sv:Valhallav\u00e4gen, Stockholm"}}, {"type": "Feature", "id": "way/121854793", "geometry": {"type": "LineString", "coordinates": [[18.063185, 59.336004], [18.06309, 59.336095], [18.062767, 59.336438], [18.062703, 59.336506], [18.062662, 59.336549], [18.062633, 59.33658]]}, "properties": {"@id": "way/121854793", "cycleway:right": "lane", "foot": "no", "highway": "secondary", "lit": "yes", "maxspeed": "50", "name": "Sveav\u00e4gen", "oneway": "yes", "sidewalk": "separate", "surface": "asphalt", "wikidata": "Q1788276", "wikipedia": "sv:Sveav\u00e4gen"}}, {"type": "Feature", "id": "way/121854794", "geometry": {"type": "LineString", "coordinates": [[18.061199, 59.337892], [18.061376, 59.337704], [18.061474, 59.337601], [18.061544, 59.337526], [18.062405, 59.336612], [18.062504, 59.336508], [18.062545, 59.336464], [18.062608, 59.336397], [18.062931, 59.336054], [18.06302, 59.33596]]}, "properties": {"@id": "way/121854794", "cycleway:right": "lane", "foot": "no", "highway": "secondary", "lit": "yes", "maxspeed": "50", "name": "Sveav\u00e4gen", "oneway": "yes", "sidewalk": "separate", "surface": "asphalt", "wikidata": "Q1788276", "wikipedia": "sv:Sveav\u00e4gen"}}, {"type": "Feature", "id": "way/122041454", "geometry": {"type": "LineString", "coordinates": [[18.061363, 59.337928], [18.0606, 59.338738], [18.060548, 59.338794], [18.059959, 59.339419], [18.059857, 59.339528], [18.059777, 59.339612], [18.059061, 59.340373], [18.058967, 59.340473]]}, "properties": {"@id": "way/122041454", "cycleway:right": "track", "foot": "no", "highway": "secondary", "lit": "yes", "maxspeed": "50", "name": "Sveav\u00e4gen", "oneway": "yes", "sidewalk": "separate", "surface": "asphalt", "wikidata": "Q1788276", "wikipedia": "sv:Sveav\u00e4gen"}}, {"type": "Feature", "id": "way/127674505", "geometry": {"type": "LineString", "coordinates": [[18.053715, 59.332987], [18.053948, 59.333051], [18.055105, 59.333358]]}, "properties": {"@id": "way/127674505", "bridge": "yes", "cycleway:right": "lane", "foot": "no", "highway": "secondary", "layer": "1", "maxspeed": "30", "name": "Kungsbron", "oneway": "yes", "surface": "asphalt", "wikidata": "Q6444547", "wikipedia": "sv:Kungsbron"}}, {"type": "Feature", "id": "way/127674516", "geometry": {"type": "LineString", "coordinates": [[18.055543, 59.334775], [18.055669, 59.334805]]}, "properties": {"@id": "way/127674516", "highway": "secondary", "maxspeed": "50", "name": "Olof Palmes Gata", "sidewalk": "separate", "surface": "asphalt", "wikidata": "Q10609262", "wikipedia": "sv:Olof Palmes gata, Stockholm"}}, {"type": "Feature", "id": "way/127674517", "geometry": {"type": "LineString", "coordinates": [[18.055543, 59.334775], [18.055629, 59.334677], [18.056352, 59.33386], [18.056425, 59.333777]]}, "properties": {"@id": "way/127674517", "cycleway:right": "lane", "foot": "no", "highway": "secondary", "maxspeed": "50", "name": "Vasagatan", "oneway": "yes", "sidewalk": "separate", "surface": "asphalt", "wikidata": "Q679282", "wikipedia": "sv:Vasagatan, Stockholm"}}, {"type": "Feature", "id": "way/127674520", "geometry": {"type": "LineString", "coordinates": [[18.056425, 59.333777], [18.056494, 59.33371]]}, "properties": {"@id": "way/127674520", "check_date": "2020-01-05", "cycleway:right": "shared_lane", "foot": "no", "highway": "secondary", "maxspeed": "50", "name": "Vasagatan", "oneway": "yes", "surface": "asphalt", "wikidata": "Q679282", "wikipedia": "sv:Vasagatan, Stockholm"}}, {"type": "Feature", "id": "way/127751305", "geometry": {"type": "LineString", "coordinates": [[18.051141, 59.332334], [18.050911, 59.332457]]}, "properties": {"@id": "way/127751305", "bridge": "yes", "foot": "no", "highway": "secondary_link", "layer": "2", "maxspeed": "40", "oneway": "yes", "surface": "asphalt"}}, {"type": "Feature", "id": "way/129464802", "geometry": {"type": "LineString", "coordinates": [[18.058204, 59.331908], [18.057692, 59.33247]]}, "properties": {"@id": "way/129464802", "cycleway:right": "track", "foot": "no", "highway": "secondary", "maxspeed": "50", "name": "Vasagatan", "oneway": "yes", "surface": "asphalt", "wikidata": "Q679282", "wikipedia": "sv:Vasagatan, Stockholm"}}, {"type": "Feature", "id": "way/129464812", "geometry": {"type": "LineString", "coordinates": [[18.057143, 59.333042], [18.056967, 59.333121]]}, "properties": {"@id": "way/129464812", "check_date": "2020-01-05", "foot": "no", "highway": "secondary_link", "name": "Vasagatan", "oneway": "yes", "surface": "asphalt", "wikidata": "Q679282", "wikipedia": "sv:Vasagatan, Stockholm"}}, {"type": "Feature", "id": "way/129535725", "geometry": {"type": "LineString", "coordinates": [[18.058678, 59.33116], [18.058989, 59.330818]]}, "properties": {"@id": "way/129535725", "cycleway:right": "track", "foot": "no", "highway": "secondary", "lcn": "yes", "maxspeed": "50", "name": "Vasagatan", "oneway": "yes", "surface": "asphalt", "wikidata": "Q679282", "wikipedia": "sv:Vasagatan, Stockholm"}}, {"type": "Feature", "id": "way/129535726", "geometry": {"type": "LineString", "coordinates": [[18.062357, 59.330124], [18.061735, 59.329948], [18.061419, 59.329825]]}, "properties": {"@id": "way/129535726", "bicycle": "no", "foot": "no", "highway": "secondary", "lanes": "1", "layer": "0", "maxspeed": "50", "name": "Vattugatan", "oneway": "yes", "surface": "asphalt", "wikidata": "Q10713471", "wikipedia": "sv:Vattugatan"}}, {"type": "Feature", "id": "way/129795628", "geometry": {"type": "LineString", "coordinates": [[18.05533, 59.344122], [18.055394, 59.344053]]}, "properties": {"@id": "way/129795628", "cycleway:right": "shared_lane", "foot": "no", "highway": "secondary", "lit": "yes", "maxspeed": "50", "name": "Sveav\u00e4gen", "oneway": "yes", "sidewalk": "separate", "surface": "asphalt", "wikidata": "Q1788276", "wikipedia": "sv:Sveav\u00e4gen"}}, {"type": "Feature", "id": "way/130196241", "geometry": {"type": "LineString", "coordinates": [[18.053264, 59.335237], [18.053239, 59.335217], [18.05322, 59.335197]]}, "properties": {"@id": "way/130196241", "cycleway:left": "opposite_track", "foot": "no", "highway": "secondary", "maxspeed": "50", "name": "Barnhusgatan", "note": "Korsningen har byggts om och satellitbilden st\u00e4mmer inte", "oneway": "yes", "oneway:bicycle": "no", "surface": "asphalt"}}, {"type": "Feature", "id": "way/130381249", "geometry": {"type": "LineString", "coordinates": [[18.053357, 59.346401], [18.05329, 59.34648], [18.052851, 59.346946], [18.052754, 59.347047], [18.052463, 59.347358], [18.051901, 59.347957], [18.051779, 59.348087]]}, "properties": {"@id": "way/130381249", "check_date": "2019-12-15", "foot": "no", "highway": "secondary", "maxspeed": "50", "name": "Sveav\u00e4gen", "oneway": "yes", "surface": "asphalt", "wikidata": "Q1788276", "wikipedia": "sv:Sveav\u00e4gen"}}, {"type": "Feature", "id": "way/130381251", "geometry": {"type": "LineString", "coordinates": [[18.055394, 59.344053], [18.055453, 59.343991]]}, "properties": {"@id": "way/130381251", "cycleway:right": "shared_lane", "foot": "no", "highway": "secondary", "lit": "yes", "maxspeed": "50", "name": "Sveav\u00e4gen", "oneway": "yes", "sidewalk": "separate", "surface": "asphalt", "wikidata": "Q1788276", "wikipedia": "sv:Sveav\u00e4gen"}}, {"type": "Feature", "id": "way/130381254", "geometry": {"type": "LineString", "coordinates": [[18.055664, 59.343979], [18.055617, 59.34403]]}, "properties": {"@id": "way/130381254", "check_date": "2019-12-18", "cycleway:right": "shared_lane", "foot": "no", "highway": "secondary", "lit": "yes", "maxspeed": "50", "name": "Sveav\u00e4gen", "oneway": "yes", "sidewalk": "separate", "surface": "asphalt", "wikidata": "Q1788276", "wikipedia": "sv:Sveav\u00e4gen"}}, {"type": "Feature", "id": "way/130381255", "geometry": {"type": "LineString", "coordinates": [[18.054935, 59.34474], [18.054871, 59.344809], [18.054127, 59.345597], [18.053594, 59.346154], [18.053426, 59.346328], [18.053357, 59.346401]]}, "properties": {"@id": "way/130381255", "check_date": "2019-12-15", "foot": "no", "highway": "secondary", "lanes": "3", "maxspeed": "50", "name": "Sveav\u00e4gen", "oneway": "yes", "surface": "asphalt", "wikidata": "Q1788276", "wikipedia": "sv:Sveav\u00e4gen"}}, {"type": "Feature", "id": "way/130381263", "geometry": {"type": "LineString", "coordinates": [[18.051618, 59.348043], [18.051779, 59.348087]]}, "properties": {"@id": "way/130381263", "foot": "no", "highway": "secondary_link", "maxspeed": "50", "name": "Vanadisv\u00e4gen", "sidewalk": "separate", "surface": "asphalt", "wikidata": "Q10712557", "wikipedia": "sv:Vanadisv\u00e4gen"}}, {"type": "Feature", "id": "way/135177265", "geometry": {"type": "LineString", "coordinates": [[18.038951, 59.339946], [18.038833, 59.339904]]}, "properties": {"@id": "way/135177265", "cycleway:right": "lane", "foot": "no", "highway": "secondary", "maxspeed": "50", "name": "Odengatan", "oneway": "yes", "surface": "asphalt", "wikidata": "Q10606799", "wikipedia": "sv:Odengatan"}}, {"type": "Feature", "id": "way/135199995", "geometry": {"type": "LineString", "coordinates": [[18.047318, 59.342996], [18.047043, 59.342963], [18.046748, 59.342946], [18.046688, 59.342938], [18.046655, 59.34293], [18.046626, 59.34292], [18.046602, 59.342906], [18.04659, 59.342893], [18.046571, 59.342863]]}, "properties": {"@id": "way/135199995", "check_date": "2019-12-14", "foot": "no", "highway": "secondary", "maxspeed": "50", "name": "Karlbergsv\u00e4gen", "oneway": "yes", "surface": "asphalt", "wikidata": "Q10543777", "wikipedia": "sv:Karlbergsv\u00e4gen"}}, {"type": "Feature", "id": "way/135199996", "geometry": {"type": "LineString", "coordinates": [[18.044577, 59.342752], [18.044894, 59.342763], [18.045544, 59.342785]]}, "properties": {"@id": "way/135199996", "cycleway:right": "lane", "foot": "no", "highway": "secondary", "maxspeed": "50", "name": "Karlbergsv\u00e4gen", "oneway": "yes", "sidewalk": "separate", "surface": "asphalt", "wikidata": "Q10543777", "wikipedia": "sv:Karlbergsv\u00e4gen"}}, {"type": "Feature", "id": "way/135200000", "geometry": {"type": "LineString", "coordinates": [[18.055498, 59.343941], [18.055664, 59.343979]]}, "properties": {"@id": "way/135200000", "foot": "no", "highway": "secondary", "maxspeed": "50", "name": "Odengatan", "oneway": "yes", "sidewalk": "separate", "surface": "asphalt", "wikidata": "Q10606799", "wikipedia": "sv:Odengatan"}}, {"type": "Feature", "id": "way/135200001", "geometry": {"type": "LineString", "coordinates": [[18.052275, 59.343147], [18.053487, 59.34345], [18.053572, 59.343472], [18.054028, 59.343589], [18.055211, 59.34387], [18.055328, 59.343899], [18.055498, 59.343941]]}, "properties": {"@id": "way/135200001", "check_date": "2019-12-09", "cycleway:right": "lane", "foot": "no", "highway": "secondary", "maxspeed": "50", "name": "Odengatan", "oneway": "yes", "surface": "asphalt", "wikidata": "Q10606799", "wikipedia": "sv:Odengatan"}}, {"type": "Feature", "id": "way/135200003", "geometry": {"type": "LineString", "coordinates": [[18.055498, 59.343941], [18.055564, 59.343873], [18.056331, 59.343059], [18.0571, 59.342243], [18.057759, 59.341543], [18.057802, 59.341498], [18.057908, 59.341385], [18.05873, 59.340513], [18.05881, 59.340429], [18.058899, 59.340333], [18.059615, 59.339573], [18.059698, 59.339486], [18.059799, 59.339378], [18.060389, 59.338753], [18.06046, 59.338677], [18.061199, 59.337892]]}, "properties": {"@id": "way/135200003", "cycleway:right": "track", "foot": "no", "highway": "secondary", "lit": "yes", "maxspeed": "50", "name": "Sveav\u00e4gen", "oneway": "yes", "sidewalk": "separate", "surface": "asphalt", "wikidata": "Q1788276", "wikipedia": "sv:Sveav\u00e4gen"}}, {"type": "Feature", "id": "way/135200004", "geometry": {"type": "LineString", "coordinates": [[18.039019, 59.33988], [18.038951, 59.339946]]}, "properties": {"@id": "way/135200004", "foot": "no", "highway": "secondary", "maxspeed": "50", "name": "Torsgatan", "oneway": "yes", "surface": "asphalt", "wikidata": "Q10700359", "wikipedia": "sv:Torsgatan"}}, {"type": "Feature", "id": "way/135200005", "geometry": {"type": "LineString", "coordinates": [[18.046571, 59.342863], [18.046563, 59.342847], [18.046554, 59.342829], [18.046552, 59.342808], [18.046563, 59.342773]]}, "properties": {"@id": "way/135200005", "check_date": "2019-12-14", "foot": "no", "highway": "secondary", "maxspeed": "50", "name": "V\u00e4stmannagatan", "oneway": "yes", "surface": "asphalt", "wikidata": "Q15116455", "wikipedia": "sv:V\u00e4stmannagatan"}}, {"type": "Feature", "id": "way/137341438", "geometry": {"type": "LineString", "coordinates": [[18.056494, 59.33371], [18.056583, 59.333774]]}, "properties": {"@id": "way/137341438", "check_date": "2020-01-05", "foot": "no", "highway": "secondary", "maxspeed": "30", "name": "Kungsgatan", "oneway": "yes", "surface": "asphalt", "wikidata": "Q836909", "wikipedia": "sv:Kungsgatan, Stockholm"}}, {"type": "Feature", "id": "way/137341439", "geometry": {"type": "LineString", "coordinates": [[18.055105, 59.333358], [18.056352, 59.333674], [18.056494, 59.33371]]}, "properties": {"@id": "way/137341439", "cycleway:right": "lane", "foot": "no", "highway": "secondary", "maxspeed": "30", "name": "Kungsgatan", "oneway": "yes", "sidewalk": "separate", "surface": "asphalt", "wikidata": "Q836909", "wikipedia": "sv:Kungsgatan, Stockholm"}}, {"type": "Feature", "id": "way/137341440", "geometry": {"type": "LineString", "coordinates": [[18.056494, 59.33371], [18.056565, 59.33363], [18.056936, 59.333218], [18.056967, 59.333121]]}, "properties": {"@id": "way/137341440", "cycleway:right": "share_busway", "foot": "no", "highway": "secondary", "maxspeed": "50", "name": "Vasagatan", "oneway": "yes", "sidewalk": "separate", "surface": "asphalt", "wikidata": "Q679282", "wikipedia": "sv:Vasagatan, Stockholm"}}, {"type": "Feature", "id": "way/138143505", "geometry": {"type": "LineString", "coordinates": [[18.076703, 59.344], [18.0778, 59.343733], [18.078533, 59.343555], [18.078629, 59.343531], [18.078694, 59.343515], [18.078754, 59.3435]]}, "properties": {"@id": "way/138143505", "cycleway:right": "lane", "foot": "no", "highway": "secondary", "maxspeed": "30", "name": "Valhallav\u00e4gen", "oneway": "yes", "surface": "asphalt", "wikidata": "Q7911587", "wikipedia": "sv:Valhallav\u00e4gen, Stockholm"}}, {"type": "Feature", "id": "way/138143511", "geometry": {"type": "LineString", "coordinates": [[18.078848, 59.343477], [18.078978, 59.343609]]}, "properties": {"@id": "way/138143511", "foot": "no", "highway": "secondary", "maxspeed": "50", "name": "Liding\u00f6v\u00e4gen", "oneway": "yes", "source": "survey", "surface": "asphalt", "wikidata": "Q10561376", "wikipedia": "sv:Liding\u00f6v\u00e4gen"}}, {"type": "Feature", "id": "way/138481209", "geometry": {"type": "LineString", "coordinates": [[18.042501, 59.342678], [18.042715, 59.342685], [18.04403, 59.342732], [18.044163, 59.342737], [18.044577, 59.342752]]}, "properties": {"@id": "way/138481209", "cycleway:right": "lane", "foot": "no", "highway": "secondary", "maxspeed": "30", "name": "Karlbergsv\u00e4gen", "oneway": "yes", "sidewalk": "separate", "surface": "asphalt", "wikidata": "Q10543777", "wikipedia": "sv:Karlbergsv\u00e4gen"}}, {"type": "Feature", "id": "way/138481211", "geometry": {"type": "LineString", "coordinates": [[18.042491, 59.342761], [18.042397, 59.342758], [18.04096, 59.342705], [18.040788, 59.342698], [18.040544, 59.342689], [18.04031, 59.34268], [18.039045, 59.342634], [18.03894, 59.34263], [18.038845, 59.342627], [18.038737, 59.342625]]}, "properties": {"@id": "way/138481211", "check_date": "2019-12-09", "cycleway:right": "lane", "foot": "no", "highway": "secondary", "maxspeed": "50", "name": "Karlbergsv\u00e4gen", "oneway": "yes", "surface": "asphalt", "wikidata": "Q10543777", "wikipedia": "sv:Karlbergsv\u00e4gen"}}, {"type": "Feature", "id": "way/138481214", "geometry": {"type": "LineString", "coordinates": [[18.038687, 59.342509], [18.038785, 59.342514], [18.038918, 59.342523], [18.040213, 59.342581], [18.040322, 59.342586], [18.040563, 59.342596], [18.040676, 59.342601], [18.040803, 59.342607], [18.042367, 59.342672], [18.042434, 59.342675], [18.042501, 59.342678]]}, "properties": {"@id": "way/138481214", "cycleway:right": "lane", "foot": "no", "highway": "secondary", "maxspeed": "50", "name": "Karlbergsv\u00e4gen", "oneway": "yes", "sidewalk": "separate", "surface": "asphalt", "wikidata": "Q10543777", "wikipedia": "sv:Karlbergsv\u00e4gen"}}, {"type": "Feature", "id": "way/138481215", "geometry": {"type": "LineString", "coordinates": [[18.066194, 59.346636], [18.06545, 59.346456]]}, "properties": {"@id": "way/138481215", "cycleway": "share_busway", "foot": "no", "highway": "secondary", "lanes": "4", "maxspeed": "50", "name": "Odengatan", "surface": "asphalt", "wikidata": "Q10606799", "wikipedia": "sv:Odengatan"}}, {"type": "Feature", "id": "way/138481221", "geometry": {"type": "LineString", "coordinates": [[18.060973, 59.345299], [18.061233, 59.345368], [18.062286, 59.345635], [18.062363, 59.345655], [18.062436, 59.345672], [18.062514, 59.345691], [18.062647, 59.345723]]}, "properties": {"@id": "way/138481221", "cycleway:right": "lane", "foot": "no", "highway": "secondary", "maxspeed": "50", "name": "Odengatan", "oneway": "yes", "surface": "asphalt", "wikidata": "Q10606799", "wikipedia": "sv:Odengatan"}}, {"type": "Feature", "id": "way/138481224", "geometry": {"type": "LineString", "coordinates": [[18.066194, 59.346636], [18.066384, 59.346655], [18.066474, 59.346672], [18.066555, 59.34669], [18.066629, 59.346709], [18.066679, 59.346737], [18.066755, 59.346788]]}, "properties": {"@id": "way/138481224", "cycleway:right": "lane", "foot": "no", "highway": "secondary", "maxspeed": "50", "name": "Odengatan", "oneway": "yes", "surface": "asphalt", "wikidata": "Q10606799", "wikipedia": "sv:Odengatan"}}, {"type": "Feature", "id": "way/138481227", "geometry": {"type": "LineString", "coordinates": [[18.055664, 59.343979], [18.05594, 59.344036], [18.056463, 59.344162], [18.056901, 59.344275], [18.057552, 59.344449], [18.057666, 59.344479], [18.057913, 59.344541], [18.058065, 59.344579], [18.059444, 59.344928], [18.059613, 59.344968]]}, "properties": {"@id": "way/138481227", "cycleway:right": "lane", "foot": "no", "highway": "secondary", "lanes": "1", "maxspeed": "50", "name": "Odengatan", "oneway": "yes", "sidewalk": "separate", "surface": "asphalt", "wikidata": "Q10606799", "wikipedia": "sv:Odengatan"}}, {"type": "Feature", "id": "way/138481229", "geometry": {"type": "LineString", "coordinates": [[18.063305, 59.345937], [18.063109, 59.345909], [18.06279, 59.345841], [18.062733, 59.345828], [18.062631, 59.345806], [18.06258, 59.345794], [18.062443, 59.345762]]}, "properties": {"@id": "way/138481229", "cycleway:right": "lane", "foot": "no", "highway": "secondary", "maxspeed": "50", "name": "Odengatan", "oneway": "yes", "surface": "asphalt", "wikidata": "Q10606799", "wikipedia": "sv:Odengatan"}}, {"type": "Feature", "id": "way/139251100", "geometry": {"type": "LineString", "coordinates": [[18.079251, 59.343838], [18.079131, 59.343868], [18.079072, 59.343882], [18.079027, 59.343894], [18.07868, 59.343981]]}, "properties": {"@id": "way/139251100", "foot": "no", "highway": "secondary", "maxspeed": "50", "name": "Valhallav\u00e4gen", "oneway": "yes", "surface": "asphalt", "wikidata": "Q7911587", "wikipedia": "sv:Valhallav\u00e4gen, Stockholm"}}, {"type": "Feature", "id": "way/139251105", "geometry": {"type": "LineString", "coordinates": [[18.079251, 59.343838], [18.079324, 59.343916], [18.079554, 59.344138], [18.080046, 59.344661], [18.080299, 59.344856], [18.080494, 59.34498], [18.08104, 59.345265], [18.081368, 59.345399], [18.081991, 59.34562], [18.082857, 59.345865], [18.082957, 59.345893], [18.083162, 59.345948]]}, "properties": {"@id": "way/139251105", "foot": "no", "highway": "secondary", "maxspeed": "50", "name": "Liding\u00f6v\u00e4gen", "oneway": "yes", "source": "Bing", "surface": "asphalt", "wikidata": "Q10561376", "wikipedia": "sv:Liding\u00f6v\u00e4gen"}}, {"type": "Feature", "id": "way/139253288", "geometry": {"type": "LineString", "coordinates": [[18.071611, 59.345269], [18.071756, 59.345232], [18.072988, 59.344925], [18.073091, 59.3449]]}, "properties": {"@id": "way/139253288", "cycleway:right": "lane", "foot": "no", "highway": "secondary", "maxspeed": "50", "name": "Valhallav\u00e4gen", "oneway": "yes", "surface": "asphalt", "wikidata": "Q7911587", "wikipedia": "sv:Valhallav\u00e4gen, Stockholm"}}, {"type": "Feature", "id": "way/139376493", "geometry": {"type": "LineString", "coordinates": [[18.04921, 59.350217], [18.049934, 59.350176], [18.050051, 59.350172], [18.050168, 59.350168], [18.05031, 59.350164], [18.050548, 59.350181], [18.050726, 59.350207]]}, "properties": {"@id": "way/139376493", "check_date": "2020-01-13", "foot": "no", "highway": "secondary", "lanes": "2", "maxspeed": "50", "name": "Sveaplan", "oneway": "yes", "surface": "asphalt", "wikidata": "Q10684619", "wikipedia": "sv:Sveaplan, Stockholm"}}, {"type": "Feature", "id": "way/139542503", "geometry": {"type": "LineString", "coordinates": [[18.068101, 59.320839], [18.068269, 59.320849], [18.068693, 59.320871], [18.068855, 59.32088]]}, "properties": {"@id": "way/139542503", "foot": "no", "highway": "secondary", "maxheight": "3.5", "maxspeed": "30", "name": "Guldfj\u00e4rdsplan", "oneway": "yes", "ref": "222", "surface": "asphalt", "wikidata": "Q10510512", "wikipedia": "sv:Guldfj\u00e4rdsplan"}}, {"type": "Feature", "id": "way/139542504", "geometry": {"type": "LineString", "coordinates": [[18.083698, 59.317987], [18.083048, 59.318084], [18.082312, 59.318194], [18.081319, 59.318369], [18.080426, 59.318551], [18.077731, 59.319189], [18.077525, 59.319219], [18.077255, 59.319242]]}, "properties": {"@id": "way/139542504", "foot": "no", "highway": "secondary", "lit": "yes", "maxspeed": "30", "name": "Stadsg\u00e5rdsleden", "oneway": "yes", "ref": "222", "surface": "asphalt"}}, {"type": "Feature", "id": "way/139548969", "geometry": {"type": "LineString", "coordinates": [[18.068855, 59.32088], [18.068773, 59.321008]]}, "properties": {"@id": "way/139548969", "bicycle": "no", "foot": "no", "highway": "secondary_link", "lanes": "2", "maxspeed": "30", "name": "Guldfj\u00e4rdsplan", "oneway": "yes", "surface": "asphalt", "wikidata": "Q10510512", "wikipedia": "sv:Guldfj\u00e4rdsplan"}}, {"type": "Feature", "id": "way/144432605", "geometry": {"type": "LineString", "coordinates": [[18.042478, 59.349186], [18.04276, 59.349266], [18.042877, 59.349299], [18.043202, 59.349405], [18.043441, 59.3495], [18.043617, 59.349556]]}, "properties": {"@id": "way/144432605", "check_date": "2019-12-05", "foot": "no", "highway": "secondary", "maxspeed": "50", "name": "Norra Stationsgatan", "oneway": "yes", "surface": "asphalt", "wikidata": "Q10602579", "wikipedia": "sv:Norra Stationsgatan"}}, {"type": "Feature", "id": "way/144432621", "geometry": {"type": "LineString", "coordinates": [[18.041148, 59.348837], [18.041115, 59.348765], [18.041108, 59.348653], [18.040838, 59.348242], [18.040786, 59.348063]]}, "properties": {"@id": "way/144432621", "foot": "no", "highway": "secondary", "maxspeed": "50", "name": "Sankt Eriksgatan", "oneway": "yes", "sidewalk": "separate", "surface": "asphalt", "wikidata": "Q10661346", "wikipedia": "sv:Sankt Eriksgatan"}}, {"type": "Feature", "id": "way/144432625", "geometry": {"type": "LineString", "coordinates": [[18.040786, 59.348063], [18.040977, 59.348216], [18.041233, 59.348632]]}, "properties": {"@id": "way/144432625", "foot": "no", "highway": "secondary", "maxspeed": "50", "name": "Sankt Eriksgatan", "oneway": "yes", "sidewalk": "separate", "surface": "asphalt", "wikidata": "Q10661346", "wikipedia": "sv:Sankt Eriksgatan"}}, {"type": "Feature", "id": "way/144432628", "geometry": {"type": "LineString", "coordinates": [[18.041233, 59.348632], [18.041194, 59.348775], [18.041148, 59.348837]]}, "properties": {"@id": "way/144432628", "check_date": "2020-01-13", "foot": "no", "highway": "secondary", "maxspeed": "50", "name": "Sankt Eriksgatan", "oneway": "yes", "surface": "asphalt", "wikidata": "Q10661346", "wikipedia": "sv:Sankt Eriksgatan"}}, {"type": "Feature", "id": "way/144432633", "geometry": {"type": "LineString", "coordinates": [[18.04475, 59.349946], [18.044883, 59.34996], [18.045393, 59.349998], [18.047134, 59.350133], [18.048315, 59.350221]]}, "properties": {"@id": "way/144432633", "check_date": "2019-12-05", "foot": "no", "highway": "secondary", "lanes": "3", "maxspeed": "50", "name": "Sveav\u00e4gen", "oneway": "yes", "surface": "asphalt", "wikidata": "Q1788276", "wikipedia": "sv:Sveav\u00e4gen"}}, {"type": "Feature", "id": "way/146532699", "geometry": {"type": "LineString", "coordinates": [[18.062294, 59.348761], [18.061528, 59.349097], [18.060256, 59.349653]]}, "properties": {"@id": "way/146532699", "foot": "no", "highway": "secondary", "lanes": "3", "maxspeed": "50", "name": "Valhallav\u00e4gen", "oneway": "yes", "surface": "asphalt", "wikidata": "Q7911587", "wikipedia": "sv:Valhallav\u00e4gen, Stockholm"}}, {"type": "Feature", "id": "way/146532701", "geometry": {"type": "LineString", "coordinates": [[18.060256, 59.349653], [18.05979, 59.34986], [18.059447, 59.350012], [18.059343, 59.350057]]}, "properties": {"@id": "way/146532701", "foot": "no", "highway": "secondary", "maxspeed": "50", "name": "Valhallav\u00e4gen", "oneway": "yes", "surface": "asphalt", "wikidata": "Q7911587", "wikipedia": "sv:Valhallav\u00e4gen, Stockholm"}}, {"type": "Feature", "id": "way/146532703", "geometry": {"type": "LineString", "coordinates": [[18.064753, 59.347671], [18.064551, 59.347761], [18.063499, 59.348231], [18.062382, 59.348722], [18.06233, 59.348745], [18.062294, 59.348761]]}, "properties": {"@id": "way/146532703", "foot": "no", "highway": "secondary", "lanes": "3", "maxspeed": "50", "name": "Valhallav\u00e4gen", "oneway": "yes", "surface": "asphalt", "wikidata": "Q7911587", "wikipedia": "sv:Valhallav\u00e4gen, Stockholm"}}, {"type": "Feature", "id": "way/148002250", "geometry": {"type": "LineString", "coordinates": [[18.061419, 59.329825], [18.060866, 59.329687]]}, "properties": {"@id": "way/148002250", "bicycle": "no", "foot": "no", "highway": "secondary", "maxspeed": "50", "name": "Vattugatan", "oneway": "yes", "surface": "asphalt", "wikidata": "Q10713471", "wikipedia": "sv:Vattugatan"}}, {"type": "Feature", "id": "way/154922221", "geometry": {"type": "LineString", "coordinates": [[18.031379, 59.332237], [18.031211, 59.332223]]}, "properties": {"@id": "way/154922221", "foot": "no", "highway": "secondary", "maxspeed": "40", "name": "Drottningholmsv\u00e4gen", "oneway": "yes", "surface": "asphalt", "wikidata": "Q10477000", "wikipedia": "sv:Drottningholmsv\u00e4gen, Stockholm"}}, {"type": "Feature", "id": "way/154922245", "geometry": {"type": "LineString", "coordinates": [[18.031272, 59.332074], [18.031379, 59.332237]]}, "properties": {"@id": "way/154922245", "cycleway:right": "lane", "foot": "no", "highway": "secondary", "maxspeed": "40", "name": "Sankt Eriksgatan", "oneway": "yes", "surface": "asphalt", "wikidata": "Q10661346", "wikipedia": "sv:Sankt Eriksgatan"}}, {"type": "Feature", "id": "way/154922249", "geometry": {"type": "LineString", "coordinates": [[18.033429, 59.335467], [18.034133, 59.336331], [18.034479, 59.336734]]}, "properties": {"@id": "way/154922249", "foot": "no", "highway": "secondary", "maxspeed": "40", "name": "Sankt Eriksgatan", "oneway": "yes", "surface": "asphalt", "wikidata": "Q10661346", "wikipedia": "sv:Sankt Eriksgatan"}}, {"type": "Feature", "id": "way/154922250", "geometry": {"type": "LineString", "coordinates": [[18.031892, 59.33327], [18.031954, 59.33338], [18.032472, 59.334281], [18.032513, 59.334346], [18.032571, 59.334438]]}, "properties": {"@id": "way/154922250", "cycleway:right": "lane", "foot": "no", "highway": "secondary", "maxspeed": "40", "name": "Sankt Eriksgatan", "oneway": "yes", "sidewalk": "separate", "surface": "asphalt", "wikidata": "Q10661346", "wikipedia": "sv:Sankt Eriksgatan"}}, {"type": "Feature", "id": "way/154922252", "geometry": {"type": "LineString", "coordinates": [[18.034342, 59.336762], [18.034015, 59.336357], [18.033295, 59.335496], [18.033233, 59.335421]]}, "properties": {"@id": "way/154922252", "foot": "no", "highway": "secondary", "maxspeed": "40", "name": "Sankt Eriksgatan", "oneway": "yes", "surface": "asphalt", "wikidata": "Q10661346", "wikipedia": "sv:Sankt Eriksgatan"}}, {"type": "Feature", "id": "way/154922253", "geometry": {"type": "LineString", "coordinates": [[18.032571, 59.334438], [18.032612, 59.334494]]}, "properties": {"@id": "way/154922253", "check_date": "2020-01-06", "cycleway:right": "lane", "foot": "no", "highway": "secondary", "maxspeed": "40", "name": "Sankt Eriksgatan", "oneway": "yes", "surface": "asphalt", "wikidata": "Q10661346", "wikipedia": "sv:Sankt Eriksgatan"}}, {"type": "Feature", "id": "way/154922255", "geometry": {"type": "LineString", "coordinates": [[18.031379, 59.332237], [18.031423, 59.332326], [18.031848, 59.333184], [18.031892, 59.33327]]}, "properties": {"@id": "way/154922255", "cycleway:right": "lane", "foot": "no", "highway": "secondary", "maxspeed": "40", "name": "Sankt Eriksgatan", "oneway": "yes", "surface": "asphalt", "wikidata": "Q10661346", "wikipedia": "sv:Sankt Eriksgatan"}}, {"type": "Feature", "id": "way/155195587", "geometry": {"type": "LineString", "coordinates": [[18.0385, 59.342498], [18.038687, 59.342509]]}, "properties": {"@id": "way/155195587", "foot": "no", "highway": "secondary", "maxspeed": "50", "name": "Karlbergsv\u00e4gen", "oneway": "yes", "surface": "asphalt", "wikidata": "Q10543777", "wikipedia": "sv:Karlbergsv\u00e4gen"}}, {"type": "Feature", "id": "way/155195588", "geometry": {"type": "LineString", "coordinates": [[18.038737, 59.342625], [18.03857, 59.342621]]}, "properties": {"@id": "way/155195588", "foot": "no", "highway": "secondary", "maxspeed": "50", "name": "Karlbergsv\u00e4gen", "oneway": "yes", "surface": "asphalt", "wikidata": "Q10543777", "wikipedia": "sv:Karlbergsv\u00e4gen"}}, {"type": "Feature", "id": "way/155195589", "geometry": {"type": "LineString", "coordinates": [[18.03857, 59.342621], [18.038505, 59.34262], [18.038336, 59.342614], [18.037714, 59.342577]]}, "properties": {"@id": "way/155195589", "foot": "no", "highway": "secondary", "maxspeed": "50", "name": "Karlbergsv\u00e4gen", "oneway": "yes", "surface": "asphalt", "wikidata": "Q10543777", "wikipedia": "sv:Karlbergsv\u00e4gen"}}, {"type": "Feature", "id": "way/155195592", "geometry": {"type": "LineString", "coordinates": [[18.036563, 59.339576], [18.036516, 59.33951]]}, "properties": {"@id": "way/155195592", "foot": "no", "highway": "secondary", "maxspeed": "50", "name": "Sankt Eriksgatan", "oneway": "yes", "surface": "asphalt", "wikidata": "Q10661346", "wikipedia": "sv:Sankt Eriksgatan"}}, {"type": "Feature", "id": "way/155195593", "geometry": {"type": "LineString", "coordinates": [[18.036646, 59.339489], [18.036693, 59.339554]]}, "properties": {"@id": "way/155195593", "foot": "no", "highway": "secondary", "maxspeed": "50", "name": "Sankt Eriksgatan", "oneway": "yes", "surface": "asphalt", "wikidata": "Q10661346", "wikipedia": "sv:Sankt Eriksgatan"}}, {"type": "Feature", "id": "way/155195594", "geometry": {"type": "LineString", "coordinates": [[18.03857, 59.342621], [18.0385, 59.342498]]}, "properties": {"@id": "way/155195594", "foot": "no", "highway": "secondary", "maxspeed": "50", "name": "Sankt Eriksgatan", "oneway": "yes", "surface": "asphalt", "wikidata": "Q10661346", "wikipedia": "sv:Sankt Eriksgatan"}}, {"type": "Feature", "id": "way/155195595", "geometry": {"type": "LineString", "coordinates": [[18.038687, 59.342509], [18.038737, 59.342625]]}, "properties": {"@id": "way/155195595", "foot": "no", "highway": "secondary", "maxspeed": "50", "name": "Sankt Eriksgatan", "oneway": "yes", "surface": "asphalt", "wikidata": "Q10661346", "wikipedia": "sv:Sankt Eriksgatan"}}, {"type": "Feature", "id": "way/155195596", "geometry": {"type": "LineString", "coordinates": [[18.034479, 59.336734], [18.035442, 59.337981]]}, "properties": {"@id": "way/155195596", "bridge": "yes", "check_date": "2019-12-09", "foot": "no", "highway": "secondary", "layer": "2", "maxspeed": "40", "name": "Sankt Eriksbron", "oneway": "yes", "surface": "asphalt", "wikidata": "Q7418754", "wikipedia": "sv:S:t Eriksbron"}}, {"type": "Feature", "id": "way/155195597", "geometry": {"type": "LineString", "coordinates": [[18.039872, 59.345856], [18.03978, 59.345762], [18.039663, 59.345377], [18.039657, 59.345355], [18.039586, 59.345273]]}, "properties": {"@id": "way/155195597", "foot": "no", "highway": "secondary", "maxspeed": "50", "name": "Sankt Eriksgatan", "oneway": "yes", "sidewalk": "separate", "surface": "asphalt", "wikidata": "Q10661346", "wikipedia": "sv:Sankt Eriksgatan"}}, {"type": "Feature", "id": "way/155195598", "geometry": {"type": "LineString", "coordinates": [[18.039856, 59.345259], [18.039821, 59.345344], [18.03982, 59.345369], [18.039814, 59.345429], [18.039902, 59.345759], [18.039872, 59.345856]]}, "properties": {"@id": "way/155195598", "foot": "no", "highway": "secondary", "maxspeed": "50", "name": "Sankt Eriksgatan", "oneway": "yes", "sidewalk": "separate", "surface": "asphalt", "wikidata": "Q10661346", "wikipedia": "sv:Sankt Eriksgatan"}}, {"type": "Feature", "id": "way/155195599", "geometry": {"type": "LineString", "coordinates": [[18.035442, 59.337981], [18.036512, 59.339312], [18.036554, 59.339362], [18.036635, 59.339475], [18.036646, 59.339489]]}, "properties": {"@id": "way/155195599", "check_date": "2019-12-16", "foot": "no", "highway": "secondary", "maxspeed": "50", "name": "Sankt Eriksgatan", "oneway": "yes", "surface": "asphalt", "wikidata": "Q10661346", "wikipedia": "sv:Sankt Eriksgatan"}}, {"type": "Feature", "id": "way/155195601", "geometry": {"type": "LineString", "coordinates": [[18.03778, 59.341278], [18.037794, 59.341295], [18.037933, 59.341474], [18.038508, 59.342239], [18.038575, 59.342335], [18.038619, 59.342397], [18.038687, 59.342509]]}, "properties": {"@id": "way/155195601", "foot": "no", "highway": "secondary", "maxspeed": "50", "name": "Sankt Eriksgatan", "oneway": "yes", "sidewalk": "separate", "surface": "asphalt", "wikidata": "Q10661346", "wikipedia": "sv:Sankt Eriksgatan"}}, {"type": "Feature", "id": "way/155195602", "geometry": {"type": "LineString", "coordinates": [[18.036693, 59.339554], [18.036774, 59.339666], [18.037307, 59.340566], [18.03747, 59.34083], [18.037519, 59.340906], [18.037629, 59.341076], [18.037695, 59.341168], [18.037721, 59.341205]]}, "properties": {"@id": "way/155195602", "foot": "no", "highway": "secondary", "maxspeed": "50", "name": "Sankt Eriksgatan", "oneway": "yes", "sidewalk": "separate", "surface": "asphalt", "wikidata": "Q10661346", "wikipedia": "sv:Sankt Eriksgatan"}}, {"type": "Feature", "id": "way/155195603", "geometry": {"type": "LineString", "coordinates": [[18.039434, 59.344767], [18.039486, 59.344677], [18.039492, 59.344653], [18.039503, 59.344607], [18.039487, 59.344535], [18.039374, 59.344295], [18.038829, 59.343244], [18.038765, 59.343079]]}, "properties": {"@id": "way/155195603", "foot": "no", "highway": "secondary", "maxspeed": "50", "name": "Sankt Eriksgatan", "oneway": "yes", "surface": "asphalt", "wikidata": "Q10661346", "wikipedia": "sv:Sankt Eriksgatan"}}, {"type": "Feature", "id": "way/155195605", "geometry": {"type": "LineString", "coordinates": [[18.038951, 59.339946], [18.038893, 59.340012], [18.03793, 59.341108], [18.037817, 59.341237], [18.03778, 59.341278]]}, "properties": {"@id": "way/155195605", "foot": "no", "highway": "secondary", "maxspeed": "50", "name": "Torsgatan", "oneway": "yes", "sidewalk": "separate", "surface": "asphalt", "wikidata": "Q10700359", "wikipedia": "sv:Torsgatan"}}, {"type": "Feature", "id": "way/155195618", "geometry": {"type": "LineString", "coordinates": [[18.037519, 59.340906], [18.037624, 59.340954], [18.037736, 59.340975], [18.037849, 59.340959], [18.037981, 59.340901]]}, "properties": {"@id": "way/155195618", "foot": "no", "highway": "secondary_link", "maxspeed": "50", "name": "Torsgatan", "oneway": "yes", "surface": "asphalt"}}, {"type": "Feature", "id": "way/161366794", "geometry": {"type": "LineString", "coordinates": [[18.037721, 59.341205], [18.03778, 59.341278]]}, "properties": {"@id": "way/161366794", "foot": "no", "highway": "secondary", "maxspeed": "50", "name": "Sankt Eriksgatan", "oneway": "yes", "surface": "asphalt", "wikidata": "Q10661346", "wikipedia": "sv:Sankt Eriksgatan"}}, {"type": "Feature", "id": "way/161366795", "geometry": {"type": "LineString", "coordinates": [[18.037634, 59.341298], [18.037621, 59.341279], [18.037494, 59.341098], [18.036863, 59.340051], [18.036659, 59.339723], [18.036635, 59.339689], [18.036563, 59.339576]]}, "properties": {"@id": "way/161366795", "foot": "no", "highway": "secondary", "maxspeed": "50", "name": "Sankt Eriksgatan", "oneway": "yes", "surface": "asphalt", "wikidata": "Q10661346", "wikipedia": "sv:Sankt Eriksgatan"}}, {"type": "Feature", "id": "way/161366797", "geometry": {"type": "LineString", "coordinates": [[18.038883, 59.339852], [18.03896, 59.339771], [18.039003, 59.339725], [18.039524, 59.339158], [18.039595, 59.339079], [18.039962, 59.338691], [18.040164, 59.338472], [18.040328, 59.338322], [18.040478, 59.338211], [18.040583, 59.338133], [18.040759, 59.338072]]}, "properties": {"@id": "way/161366797", "foot": "no", "highway": "secondary", "maxspeed": "50", "name": "Torsgatan", "oneway": "yes", "surface": "asphalt", "wikidata": "Q10700359", "wikipedia": "sv:Torsgatan"}}, {"type": "Feature", "id": "way/161366798", "geometry": {"type": "LineString", "coordinates": [[18.035235, 59.344089], [18.035355, 59.343954], [18.036456, 59.342681], [18.036507, 59.342621], [18.036583, 59.342533]]}, "properties": {"@id": "way/161366798", "foot": "no", "highway": "secondary", "maxspeed": "50", "name": "Torsgatan", "oneway": "yes", "surface": "asphalt", "wikidata": "Q10700359", "wikipedia": "sv:Torsgatan"}}, {"type": "Feature", "id": "way/161366799", "geometry": {"type": "LineString", "coordinates": [[18.040759, 59.338072], [18.04091, 59.337997]]}, "properties": {"@id": "way/161366799", "foot": "no", "highway": "secondary", "maxspeed": "30", "name": "Torsgatan", "surface": "asphalt", "wikidata": "Q10700359", "wikipedia": "sv:Torsgatan"}}, {"type": "Feature", "id": "way/161366800", "geometry": {"type": "LineString", "coordinates": [[18.038833, 59.339904], [18.038883, 59.339852]]}, "properties": {"@id": "way/161366800", "foot": "no", "highway": "secondary", "maxspeed": "50", "name": "Torsgatan", "oneway": "yes", "surface": "asphalt", "wikidata": "Q10700359", "wikipedia": "sv:Torsgatan"}}, {"type": "Feature", "id": "way/161366801", "geometry": {"type": "LineString", "coordinates": [[18.037634, 59.341298], [18.037721, 59.341205]]}, "properties": {"@id": "way/161366801", "foot": "no", "highway": "secondary", "maxspeed": "50", "name": "Torsgatan", "oneway": "yes", "surface": "asphalt", "wikidata": "Q10700359", "wikipedia": "sv:Torsgatan"}}, {"type": "Feature", "id": "way/161366802", "geometry": {"type": "LineString", "coordinates": [[18.035356, 59.344113], [18.035301, 59.344171]]}, "properties": {"@id": "way/161366802", "foot": "no", "highway": "secondary", "maxspeed": "50", "name": "Torsgatan", "oneway": "yes", "surface": "asphalt", "wikidata": "Q10700359", "wikipedia": "sv:Torsgatan"}}, {"type": "Feature", "id": "way/161366803", "geometry": {"type": "LineString", "coordinates": [[18.037721, 59.341205], [18.037754, 59.341166], [18.037825, 59.341084], [18.037981, 59.340901], [18.038723, 59.340033], [18.038767, 59.339981], [18.038833, 59.339904]]}, "properties": {"@id": "way/161366803", "foot": "no", "highway": "secondary", "maxspeed": "50", "name": "Torsgatan", "oneway": "yes", "sidewalk": "separate", "surface": "asphalt", "wikidata": "Q10700359", "wikipedia": "sv:Torsgatan"}}, {"type": "Feature", "id": "way/161366805", "geometry": {"type": "LineString", "coordinates": [[18.049639, 59.335954], [18.049997, 59.33588], [18.050239, 59.33583], [18.05124, 59.335621], [18.051611, 59.335544], [18.052989, 59.335257]]}, "properties": {"@id": "way/161366805", "cycleway": "track", "foot": "no", "highway": "secondary", "maxspeed": "50", "name": "Torsgatan", "surface": "asphalt", "wikidata": "Q10700359", "wikipedia": "sv:Torsgatan"}}, {"type": "Feature", "id": "way/162177597", "geometry": {"type": "LineString", "coordinates": [[18.061032, 59.328794], [18.060938, 59.328904], [18.060839, 59.329017], [18.060728, 59.329136], [18.060266, 59.329665]]}, "properties": {"@id": "way/162177597", "cycleway:right": "track", "foot": "no", "highway": "secondary", "lanes": "3", "lcn": "yes", "maxspeed": "50", "name": "Vasagatan", "oneway": "yes", "surface": "asphalt", "turn:lanes": "left|through|through", "wikidata": "Q679282", "wikipedia": "sv:Vasagatan, Stockholm"}}, {"type": "Feature", "id": "way/167514878", "geometry": {"type": "LineString", "coordinates": [[18.061074, 59.32859], [18.061226, 59.328522]]}, "properties": {"@id": "way/167514878", "foot": "no", "highway": "secondary", "maxspeed": "50", "name": "Vasagatan", "oneway": "yes", "surface": "asphalt", "wikidata": "Q679282", "wikipedia": "sv:Vasagatan, Stockholm"}}, {"type": "Feature", "id": "way/167816638", "geometry": {"type": "LineString", "coordinates": [[18.050911, 59.332457], [18.04985, 59.332281]]}, "properties": {"@id": "way/167816638", "bridge": "yes", "cycleway:right": "track", "foot": "no", "highway": "secondary", "layer": "2", "material": "concrete", "maxspeed": "40", "name": "Kungsbron", "oneway": "yes", "surface": "asphalt", "wikidata": "Q6444547", "wikipedia": "sv:Kungsbron"}}, {"type": "Feature", "id": "way/167816640", "geometry": {"type": "LineString", "coordinates": [[18.049393, 59.332116], [18.049378, 59.332059], [18.049382, 59.332011], [18.049404, 59.331973], [18.049434, 59.331937], [18.049478, 59.331908], [18.04953, 59.331884], [18.0496, 59.331861], [18.049675, 59.331843], [18.049757, 59.331837], [18.049829, 59.331837]]}, "properties": {"@id": "way/167816640", "foot": "no", "highway": "secondary", "maxspeed": "40", "name": "Kungsbroplan", "oneway": "yes", "surface": "asphalt", "wikidata": "Q10550278", "wikipedia": "sv:Kungsbroplan, Stockholm"}}, {"type": "Feature", "id": "way/176240973", "geometry": {"type": "LineString", "coordinates": [[18.030452, 59.332053], [18.030864, 59.332066]]}, "properties": {"@id": "way/176240973", "foot": "no", "highway": "secondary", "maxspeed": "40", "name": "Drottningholmsv\u00e4gen", "oneway": "yes", "source": "survey", "surface": "asphalt", "wikidata": "Q10477000", "wikipedia": "sv:Drottningholmsv\u00e4gen, Stockholm"}}, {"type": "Feature", "id": "way/176555519", "geometry": {"type": "LineString", "coordinates": [[18.045544, 59.342785], [18.046138, 59.342802], [18.046254, 59.342805], [18.046382, 59.342807], [18.046453, 59.342799], [18.046498, 59.342791], [18.046533, 59.342782], [18.046563, 59.342773]]}, "properties": {"@id": "way/176555519", "cycleway:right": "lane", "foot": "no", "highway": "secondary", "maxspeed": "50", "name": "Karlbergsv\u00e4gen", "oneway": "yes", "sidewalk": "separate", "surface": "asphalt", "wikidata": "Q10543777", "wikipedia": "sv:Karlbergsv\u00e4gen"}}, {"type": "Feature", "id": "way/176751892", "geometry": {"type": "LineString", "coordinates": [[18.096966, 59.339488], [18.096553, 59.339572]]}, "properties": {"@id": "way/176751892", "foot": "no", "highway": "secondary", "maxspeed": "50", "name": "Valhallav\u00e4gen", "oneway": "yes", "surface": "asphalt"}}, {"type": "Feature", "id": "way/176751894", "geometry": {"type": "LineString", "coordinates": [[18.100385, 59.33872], [18.099933, 59.338821], [18.098921, 59.33905], [18.098825, 59.339072], [18.098093, 59.339235], [18.097105, 59.339458], [18.096966, 59.339488]]}, "properties": {"@id": "way/176751894", "foot": "no", "highway": "secondary", "maxspeed": "30", "name": "Valhallav\u00e4gen", "oneway": "yes", "surface": "asphalt", "wikidata": "Q7911587", "wikipedia": "sv:Valhallav\u00e4gen, Stockholm"}}, {"type": "Feature", "id": "way/176751975", "geometry": {"type": "LineString", "coordinates": [[18.087267, 59.341808], [18.087199, 59.341747], [18.087099, 59.341658], [18.087038, 59.341603], [18.086886, 59.341468]]}, "properties": {"@id": "way/176751975", "foot": "no", "highway": "secondary_link", "maxspeed": "50", "name": "Artillerigatan", "oneway": "yes", "surface": "asphalt", "wikidata": "Q4801129", "wikipedia": "sv:Artillerigatan"}}, {"type": "Feature", "id": "way/177035830", "geometry": {"type": "LineString", "coordinates": [[18.066584, 59.346844], [18.066464, 59.346769], [18.066383, 59.346716], [18.066194, 59.346636]]}, "properties": {"@id": "way/177035830", "cycleway:right": "shared_lane", "foot": "no", "highway": "secondary", "maxspeed": "50", "name": "Odengatan", "oneway": "yes", "surface": "asphalt", "wikidata": "Q10606799", "wikipedia": "sv:Odengatan"}}, {"type": "Feature", "id": "way/178016689", "geometry": {"type": "LineString", "coordinates": [[18.073543, 59.345271], [18.073442, 59.345296], [18.072912, 59.345427], [18.072084, 59.34563], [18.071969, 59.345658], [18.071907, 59.345673], [18.071717, 59.34572], [18.071196, 59.345845], [18.070663, 59.345976], [18.070234, 59.346079], [18.070161, 59.346099], [18.069844, 59.346198], [18.067515, 59.347008], [18.067428, 59.34704], [18.067152, 59.347128]]}, "properties": {"@id": "way/178016689", "cycleway:right": "lane", "foot": "no", "highway": "secondary", "lanes": "3", "maxspeed": "50", "name": "Valhallav\u00e4gen", "oneway": "yes", "surface": "asphalt", "wikidata": "Q7911587", "wikipedia": "sv:Valhallav\u00e4gen, Stockholm"}}, {"type": "Feature", "id": "way/178016693", "geometry": {"type": "LineString", "coordinates": [[18.073091, 59.3449], [18.073312, 59.344845]]}, "properties": {"@id": "way/178016693", "foot": "no", "highway": "secondary", "maxspeed": "50", "name": "Valhallav\u00e4gen", "oneway": "yes", "surface": "asphalt", "wikidata": "Q7911587", "wikipedia": "sv:Valhallav\u00e4gen, Stockholm"}}, {"type": "Feature", "id": "way/178016695", "geometry": {"type": "LineString", "coordinates": [[18.073312, 59.344845], [18.073537, 59.344789], [18.074256, 59.344611]]}, "properties": {"@id": "way/178016695", "cycleway:right": "lane", "foot": "no", "highway": "secondary", "maxspeed": "50", "name": "Valhallav\u00e4gen", "oneway": "yes", "surface": "asphalt", "wikidata": "Q7911587", "wikipedia": "sv:Valhallav\u00e4gen, Stockholm"}}, {"type": "Feature", "id": "way/178204656", "geometry": {"type": "LineString", "coordinates": [[18.047403, 59.341979], [18.047558, 59.342024], [18.048616, 59.342286], [18.048838, 59.342341]]}, "properties": {"@id": "way/178204656", "check_date": "2019-12-09", "cycleway:right": "lane", "foot": "no", "highway": "secondary", "maxspeed": "50", "name": "Odengatan", "oneway": "yes", "surface": "asphalt", "wikidata": "Q10606799", "wikipedia": "sv:Odengatan"}}, {"type": "Feature", "id": "way/178204657", "geometry": {"type": "LineString", "coordinates": [[18.066755, 59.346788], [18.066844, 59.346848]]}, "properties": {"@id": "way/178204657", "foot": "no", "highway": "secondary", "maxspeed": "50", "name": "Odengatan", "oneway": "yes", "surface": "asphalt", "wikidata": "Q10606799", "wikipedia": "sv:Odengatan"}}, {"type": "Feature", "id": "way/178204663", "geometry": {"type": "LineString", "coordinates": [[18.096482, 59.339172], [18.096673, 59.339132]]}, "properties": {"@id": "way/178204663", "foot": "no", "highway": "secondary", "maxspeed": "50", "name": "Valhallav\u00e4gen", "oneway": "yes", "surface": "asphalt"}}, {"type": "Feature", "id": "way/178204664", "geometry": {"type": "LineString", "coordinates": [[18.066755, 59.346788], [18.066875, 59.346742], [18.06709, 59.346663]]}, "properties": {"@id": "way/178204664", "cycleway:right": "lane", "foot": "no", "highway": "secondary", "maxspeed": "50", "name": "Valhallav\u00e4gen", "oneway": "yes", "surface": "asphalt", "wikidata": "Q7911587", "wikipedia": "sv:Valhallav\u00e4gen, Stockholm"}}, {"type": "Feature", "id": "way/178204665", "geometry": {"type": "LineString", "coordinates": [[18.096673, 59.339132], [18.096794, 59.339104], [18.097948, 59.338842], [18.098527, 59.33871], [18.098626, 59.338688], [18.099202, 59.338557], [18.09989, 59.338404], [18.10032, 59.338303], [18.100566, 59.338247]]}, "properties": {"@id": "way/178204665", "foot": "no", "highway": "secondary", "maxspeed": "50", "name": "Valhallav\u00e4gen", "oneway": "yes", "surface": "asphalt", "wikidata": "Q7911587", "wikipedia": "sv:Valhallav\u00e4gen, Stockholm"}}, {"type": "Feature", "id": "way/179695148", "geometry": {"type": "LineString", "coordinates": [[18.04985, 59.332281], [18.049619, 59.332228]]}, "properties": {"@id": "way/179695148", "bridge": "yes", "cycleway:right": "track", "foot": "no", "highway": "secondary", "layer": "2", "maxspeed": "40", "name": "Kungsbroplan", "oneway": "yes", "surface": "asphalt", "wikidata": "Q10550278", "wikipedia": "sv:Kungsbroplan, Stockholm"}}, {"type": "Feature", "id": "way/179695149", "geometry": {"type": "LineString", "coordinates": [[18.032612, 59.334494], [18.032694, 59.334597], [18.032954, 59.33491]]}, "properties": {"@id": "way/179695149", "cycleway:right": "lane", "foot": "no", "highway": "secondary", "maxspeed": "40", "name": "Sankt Eriksgatan", "oneway": "yes", "sidewalk": "separate", "surface": "asphalt", "wikidata": "Q10661346", "wikipedia": "sv:Sankt Eriksgatan"}}, {"type": "Feature", "id": "way/189936526", "geometry": {"type": "LineString", "coordinates": [[18.052492, 59.332801], [18.052361, 59.332769], [18.051496, 59.33256], [18.051177, 59.332507]]}, "properties": {"@id": "way/189936526", "bridge": "yes", "cycleway:right": "track", "foot": "no", "highway": "secondary", "layer": "1", "maxspeed": "50", "name": "Kungsbron", "oneway": "yes", "surface": "asphalt", "wikidata": "Q6444547", "wikipedia": "sv:Kungsbron"}}, {"type": "Feature", "id": "way/189936531", "geometry": {"type": "LineString", "coordinates": [[18.052361, 59.332769], [18.05245, 59.332673]]}, "properties": {"@id": "way/189936531", "bridge": "yes", "foot": "no", "highway": "secondary_link", "layer": "1", "maxspeed": "50", "oneway": "yes", "surface": "asphalt"}}, {"type": "Feature", "id": "way/189936532", "geometry": {"type": "LineString", "coordinates": [[18.052492, 59.332801], [18.052435, 59.332861]]}, "properties": {"@id": "way/189936532", "bridge": "yes", "foot": "no", "highway": "secondary_link", "layer": "1", "maxspeed": "50", "oneway": "yes", "surface": "asphalt"}}, {"type": "Feature", "id": "way/193846782", "geometry": {"type": "LineString", "coordinates": [[18.056196, 59.35158], [18.055865, 59.351746], [18.055509, 59.351936], [18.05531, 59.352066]]}, "properties": {"@id": "way/193846782", "foot": "no", "highway": "primary", "lanes": "2", "lit": "yes", "maxspeed": "50", "name": "Roslagsv\u00e4gen", "oneway": "yes", "surface": "asphalt"}}, {"type": "Feature", "id": "way/200149905", "geometry": {"type": "LineString", "coordinates": [[18.055617, 59.34403], [18.055562, 59.344089]]}, "properties": {"@id": "way/200149905", "cycleway:right": "shared_lane", "foot": "no", "highway": "secondary", "lit": "yes", "maxspeed": "50", "name": "Sveav\u00e4gen", "oneway": "yes", "sidewalk": "separate", "surface": "asphalt", "wikidata": "Q1788276", "wikipedia": "sv:Sveav\u00e4gen"}}, {"type": "Feature", "id": "way/203006966", "geometry": {"type": "LineString", "coordinates": [[18.037565, 59.34139], [18.037634, 59.341298]]}, "properties": {"@id": "way/203006966", "foot": "no", "highway": "secondary", "maxspeed": "50", "name": "Torsgatan", "oneway": "yes", "surface": "asphalt"}}, {"type": "Feature", "id": "way/203006967", "geometry": {"type": "LineString", "coordinates": [[18.035301, 59.344171], [18.03514, 59.344363], [18.034381, 59.345219]]}, "properties": {"@id": "way/203006967", "foot": "no", "highway": "secondary", "maxspeed": "50", "name": "Torsgatan", "oneway": "yes", "surface": "asphalt", "wikidata": "Q10700359", "wikipedia": "sv:Torsgatan"}}, {"type": "Feature", "id": "way/203006969", "geometry": {"type": "LineString", "coordinates": [[18.052989, 59.335257], [18.053054, 59.335233], [18.053075, 59.335227], [18.05312, 59.335216], [18.05322, 59.335197]]}, "properties": {"@id": "way/203006969", "cycleway:right": "track", "foot": "no", "highway": "secondary", "maxspeed": "50", "name": "Torsgatan", "note": "Korsningen har byggts om och satellitbilden st\u00e4mmer inte", "oneway": "yes", "surface": "asphalt"}}, {"type": "Feature", "id": "way/212456661", "geometry": {"type": "LineString", "coordinates": [[18.051779, 59.348087], [18.051666, 59.348216], [18.050426, 59.349525], [18.050345, 59.349628], [18.050323, 59.349686], [18.05032, 59.34972], [18.050321, 59.349751], [18.050359, 59.349894]]}, "properties": {"@id": "way/212456661", "foot": "no", "highway": "secondary", "maxspeed": "50", "name": "Sveav\u00e4gen", "oneway": "yes", "sidewalk": "separate", "surface": "asphalt", "wikidata": "Q1788276", "wikipedia": "sv:Sveav\u00e4gen"}}, {"type": "Feature", "id": "way/212472718", "geometry": {"type": "LineString", "coordinates": [[18.054446, 59.351059], [18.053525, 59.350929], [18.053237, 59.350883], [18.052925, 59.350819], [18.052509, 59.35072], [18.050955, 59.350336]]}, "properties": {"@id": "way/212472718", "foot": "no", "highway": "secondary", "lanes": "3", "maxspeed": "50", "name": "Cedersdalsgatan", "oneway": "yes", "surface": "asphalt", "wikidata": "Q10444377", "wikipedia": "sv:Cedersdalsgatan"}}, {"type": "Feature", "id": "way/212472723", "geometry": {"type": "LineString", "coordinates": [[18.055029, 59.351578], [18.055086, 59.351522], [18.055188, 59.351415], [18.055249, 59.351323]]}, "properties": {"@id": "way/212472723", "foot": "no", "highway": "primary", "lanes": "2", "lit": "yes", "maxspeed": "50", "name": "Roslagsv\u00e4gen", "oneway": "yes", "surface": "asphalt"}}, {"type": "Feature", "id": "way/212472724", "geometry": {"type": "LineString", "coordinates": [[18.049634, 59.350361], [18.049418, 59.350377], [18.049222, 59.350374], [18.048949, 59.350363]]}, "properties": {"@id": "way/212472724", "check_date": "2020-01-13", "foot": "no", "highway": "secondary", "maxspeed": "50", "name": "Sveaplan", "oneway": "yes", "surface": "asphalt", "wikidata": "Q10684619", "wikipedia": "sv:Sveaplan, Stockholm"}}, {"type": "Feature", "id": "way/212472725", "geometry": {"type": "LineString", "coordinates": [[18.049321, 59.350282], [18.049258, 59.350259], [18.04921, 59.350217], [18.049175, 59.350166], [18.049171, 59.350119], [18.049204, 59.350061]]}, "properties": {"@id": "way/212472725", "check_date": "2020-01-13", "cycleway:right": "no", "foot": "no", "highway": "secondary", "maxspeed": "50", "name": "Sveaplan", "oneway": "yes", "surface": "asphalt", "wikidata": "Q10684619", "wikipedia": "sv:Sveaplan, Stockholm"}}, {"type": "Feature", "id": "way/212472726", "geometry": {"type": "LineString", "coordinates": [[18.051618, 59.348043], [18.051736, 59.347919], [18.05231, 59.347321], [18.052601, 59.347009], [18.052696, 59.346907], [18.053129, 59.346439], [18.053201, 59.346362], [18.053276, 59.346291], [18.053941, 59.345591], [18.054075, 59.345458], [18.054697, 59.34481], [18.054731, 59.344774], [18.054798, 59.344704], [18.054859, 59.344639], [18.055291, 59.344164], [18.05533, 59.344122]]}, "properties": {"@id": "way/212472726", "check_date": "2019-12-15", "foot": "no", "highway": "secondary", "lanes": "2", "maxspeed": "50", "name": "Sveav\u00e4gen", "oneway": "yes", "surface": "asphalt", "wikidata": "Q1788276", "wikipedia": "sv:Sveav\u00e4gen"}}, {"type": "Feature", "id": "way/213170929", "geometry": {"type": "LineString", "coordinates": [[18.056201, 59.36114], [18.056217, 59.361097], [18.056231, 59.361003], [18.056221, 59.360908], [18.056183, 59.360798], [18.056123, 59.360686], [18.055993, 59.360482], [18.055899, 59.360295], [18.055864, 59.360138], [18.055863, 59.360014], [18.055915, 59.359779], [18.055983, 59.359639], [18.056356, 59.359128], [18.056484, 59.35891], [18.056566, 59.358692], [18.056612, 59.358478], [18.056631, 59.358264], [18.056614, 59.358014], [18.05656, 59.357764], [18.056434, 59.357483], [18.056288, 59.357203], [18.056083, 59.356949], [18.055929, 59.356807], [18.055763, 59.356667], [18.055116, 59.356035], [18.054645, 59.355587], [18.053235, 59.354233], [18.053107, 59.354047], [18.053067, 59.353949], [18.053049, 59.353837], [18.053065, 59.353699], [18.053123, 59.353567], [18.0532, 59.353438], [18.053301, 59.353315], [18.053636, 59.353014], [18.054038, 59.35273], [18.054271, 59.352549], [18.054499, 59.352358], [18.054801, 59.351946], [18.054902, 59.351797], [18.054932, 59.351753], [18.055029, 59.351578]]}, "properties": {"@id": "way/213170929", "foot": "no", "highway": "primary", "lanes": "3", "lit": "yes", "maxspeed": "50", "name": "Roslagsv\u00e4gen", "oneway": "yes", "surface": "asphalt"}}, {"type": "Feature", "id": "way/213548269", "geometry": {"type": "LineString", "coordinates": [[18.04569, 59.341619], [18.045464, 59.34156], [18.044795, 59.341392], [18.044494, 59.341302], [18.044022, 59.341191], [18.043792, 59.341134], [18.043546, 59.34107], [18.042504, 59.34082], [18.042312, 59.340776], [18.040788, 59.34039], [18.040608, 59.340346], [18.039244, 59.340014], [18.039131, 59.339988], [18.039018, 59.339962], [18.038951, 59.339946]]}, "properties": {"@id": "way/213548269", "cycleway:right": "lane", "foot": "no", "highway": "secondary", "maxspeed": "50", "name": "Odengatan", "oneway": "yes", "sidewalk": "separate", "surface": "asphalt", "wikidata": "Q10606799", "wikipedia": "sv:Odengatan"}}, {"type": "Feature", "id": "way/213548270", "geometry": {"type": "LineString", "coordinates": [[18.04576, 59.341548], [18.04601, 59.341607], [18.047251, 59.341928], [18.047403, 59.341979]]}, "properties": {"@id": "way/213548270", "check_date": "2019-12-09", "cycleway:right": "lane", "foot": "no", "highway": "secondary", "maxspeed": "50", "name": "Odengatan", "oneway": "yes", "surface": "asphalt", "wikidata": "Q10606799", "wikipedia": "sv:Odengatan"}}, {"type": "Feature", "id": "way/214237342", "geometry": {"type": "LineString", "coordinates": [[18.08303, 59.346036], [18.082859, 59.345985], [18.081988, 59.345728], [18.080953, 59.345357], [18.08073, 59.345269], [18.08049, 59.345158], [18.080282, 59.345036], [18.080033, 59.344863], [18.079834, 59.344689], [18.07965, 59.344479]]}, "properties": {"@id": "way/214237342", "foot": "no", "highway": "secondary", "lit": "yes", "maxspeed": "50", "name": "Liding\u00f6v\u00e4gen", "oneway": "yes", "source": "Bing", "surface": "asphalt", "wikidata": "Q10561376", "wikipedia": "sv:Liding\u00f6v\u00e4gen"}}, {"type": "Feature", "id": "way/214237343", "geometry": {"type": "LineString", "coordinates": [[18.083162, 59.345948], [18.083394, 59.346008], [18.084442, 59.346303], [18.085394, 59.346585], [18.085801, 59.346694], [18.087059, 59.347052], [18.087146, 59.347077], [18.087421, 59.347153], [18.08992, 59.347868], [18.090754, 59.348101], [18.091539, 59.348273], [18.092326, 59.348475], [18.092412, 59.348497], [18.092582, 59.348541], [18.092707, 59.348573], [18.092819, 59.348602], [18.092971, 59.348645]]}, "properties": {"@id": "way/214237343", "foot": "no", "highway": "secondary", "maxspeed": "50", "name": "Liding\u00f6v\u00e4gen", "oneway": "yes", "source": "Bing", "surface": "asphalt", "wikidata": "Q10561376", "wikipedia": "sv:Liding\u00f6v\u00e4gen"}}, {"type": "Feature", "id": "way/214237345", "geometry": {"type": "LineString", "coordinates": [[18.07965, 59.344479], [18.079286, 59.344114], [18.079221, 59.344076], [18.079145, 59.344042], [18.079061, 59.344017], [18.078988, 59.344], [18.0789, 59.34399], [18.07868, 59.343981]]}, "properties": {"@id": "way/214237345", "foot": "no", "highway": "secondary", "lit": "yes", "maxspeed": "50", "name": "Liding\u00f6v\u00e4gen", "oneway": "yes", "source": "Bing", "surface": "asphalt", "wikidata": "Q10561376", "wikipedia": "sv:Liding\u00f6v\u00e4gen"}}, {"type": "Feature", "id": "way/220845361", "geometry": {"type": "LineString", "coordinates": [[18.054878, 59.335596], [18.054699, 59.335607], [18.054561, 59.335605], [18.05443, 59.335576]]}, "properties": {"@id": "way/220845361", "cycleway:right": "lane", "foot": "no", "highway": "secondary", "maxspeed": "50", "name": "Vasagatan", "oneway": "yes", "surface": "asphalt", "wikidata": "Q679282", "wikipedia": "sv:Vasagatan, Stockholm"}}, {"type": "Feature", "id": "way/229076589", "geometry": {"type": "LineString", "coordinates": [[18.05509, 59.35131], [18.055068, 59.35125], [18.055045, 59.351227], [18.055019, 59.35121], [18.054995, 59.351196], [18.054933, 59.351175], [18.054872, 59.351159], [18.054668, 59.351107], [18.054446, 59.351059]]}, "properties": {"@id": "way/229076589", "foot": "no", "highway": "secondary", "lanes": "1", "maxspeed": "50", "name": "Cedersdalsgatan", "oneway": "yes", "surface": "asphalt", "wikidata": "Q10444377", "wikipedia": "sv:Cedersdalsgatan"}}, {"type": "Feature", "id": "way/233545458", "geometry": {"type": "LineString", "coordinates": [[18.058311, 59.331797], [18.058204, 59.331908]]}, "properties": {"@id": "way/233545458", "cycleway:right": "lane", "foot": "no", "highway": "secondary", "lcn": "yes", "maxspeed": "50", "name": "Vasagatan", "oneway": "yes", "surface": "asphalt", "wikidata": "Q679282", "wikipedia": "sv:Vasagatan, Stockholm"}}, {"type": "Feature", "id": "way/233545459", "geometry": {"type": "LineString", "coordinates": [[18.058136, 59.331752], [18.058204, 59.331673], [18.058542, 59.331306], [18.058615, 59.331224]]}, "properties": {"@id": "way/233545459", "cycleway:right": "lane", "foot": "no", "highway": "secondary", "lcn": "yes", "maxspeed": "50", "name": "Vasagatan", "oneway": "yes", "surface": "asphalt", "wikidata": "Q679282", "wikipedia": "sv:Vasagatan, Stockholm"}}, {"type": "Feature", "id": "way/237399470", "geometry": {"type": "LineString", "coordinates": [[18.056196, 59.35158], [18.056058, 59.351596], [18.055905, 59.351613], [18.055779, 59.351618], [18.055662, 59.351607], [18.055545, 59.35158], [18.055471, 59.351557], [18.055387, 59.351519], [18.055334, 59.351481], [18.055315, 59.351451], [18.055282, 59.351413], [18.055267, 59.351375], [18.055249, 59.351323]]}, "properties": {"@id": "way/237399470", "foot": "no", "highway": "secondary", "junction": "roundabout", "lanes": "2", "maxspeed": "50", "name": "Roslagstull", "surface": "asphalt"}}, {"type": "Feature", "id": "way/237399472", "geometry": {"type": "LineString", "coordinates": [[18.055249, 59.351323], [18.055256, 59.351284]]}, "properties": {"@id": "way/237399472", "foot": "no", "highway": "secondary", "junction": "roundabout", "lanes": "2", "maxspeed": "50", "name": "Roslagstull", "surface": "asphalt"}}, {"type": "Feature", "id": "way/237824047", "geometry": {"type": "LineString", "coordinates": [[18.036713, 59.34254], [18.036583, 59.342533]]}, "properties": {"@id": "way/237824047", "highway": "secondary", "maxspeed": "50", "name": "Karlbergsv\u00e4gen", "oneway": "yes", "surface": "asphalt", "wikidata": "Q10543777", "wikipedia": "sv:Karlbergsv\u00e4gen"}}, {"type": "Feature", "id": "way/238062140", "geometry": {"type": "LineString", "coordinates": [[18.036645, 59.342453], [18.036788, 59.34245], [18.036857, 59.34245], [18.037027, 59.34245], [18.038177, 59.34248], [18.038287, 59.342486], [18.038429, 59.342493], [18.0385, 59.342498]]}, "properties": {"@id": "way/238062140", "foot": "no", "highway": "secondary", "maxspeed": "50", "name": "Karlbergsv\u00e4gen", "oneway": "yes", "surface": "asphalt", "wikidata": "Q10543777", "wikipedia": "sv:Karlbergsv\u00e4gen"}}, {"type": "Feature", "id": "way/238062142", "geometry": {"type": "LineString", "coordinates": [[18.055453, 59.343991], [18.055498, 59.343941]]}, "properties": {"@id": "way/238062142", "check_date": "2019-12-18", "cycleway:right": "shared_lane", "foot": "no", "highway": "secondary", "lit": "yes", "maxspeed": "50", "name": "Sveav\u00e4gen", "oneway": "yes", "sidewalk": "separate", "surface": "asphalt", "wikidata": "Q1788276", "wikipedia": "sv:Sveav\u00e4gen"}}, {"type": "Feature", "id": "way/238062143", "geometry": {"type": "LineString", "coordinates": [[18.036645, 59.342453], [18.036734, 59.342338], [18.037485, 59.34148], [18.037517, 59.341441], [18.037565, 59.34139]]}, "properties": {"@id": "way/238062143", "foot": "no", "highway": "secondary", "maxspeed": "50", "name": "Torsgatan", "oneway": "yes", "surface": "asphalt", "wikidata": "Q10700359", "wikipedia": "sv:Torsgatan"}}, {"type": "Feature", "id": "way/244237993", "geometry": {"type": "LineString", "coordinates": [[18.032449, 59.334516], [18.032419, 59.334457]]}, "properties": {"@id": "way/244237993", "cycleway:right": "lane", "foot": "no", "highway": "secondary", "maxspeed": "40", "name": "Sankt Eriksgatan", "oneway": "yes", "sidewalk": "separate", "surface": "asphalt", "wikidata": "Q10661346", "wikipedia": "sv:Sankt Eriksgatan"}}, {"type": "Feature", "id": "way/251962175", "geometry": {"type": "LineString", "coordinates": [[18.057478, 59.332495], [18.057986, 59.331921], [18.058035, 59.331868]]}, "properties": {"@id": "way/251962175", "cycleway:right": "track", "foot": "no", "highway": "secondary", "maxspeed": "50", "name": "Vasagatan", "oneway": "yes", "surface": "asphalt", "wikidata": "Q679282", "wikipedia": "sv:Vasagatan, Stockholm"}}, {"type": "Feature", "id": "way/251977332", "geometry": {"type": "LineString", "coordinates": [[18.028804, 59.332121], [18.028539, 59.332109]]}, "properties": {"@id": "way/251977332", "foot": "no", "highway": "secondary", "maxspeed": "40", "name": "Drottningholmsv\u00e4gen", "oneway": "yes", "surface": "asphalt", "wikidata": "Q10477000", "wikipedia": "sv:Drottningholmsv\u00e4gen, Stockholm"}}, {"type": "Feature", "id": "way/251977333", "geometry": {"type": "LineString", "coordinates": [[18.028803, 59.331994], [18.028898, 59.331998], [18.030452, 59.332053]]}, "properties": {"@id": "way/251977333", "foot": "no", "highway": "secondary", "maxspeed": "40", "name": "Drottningholmsv\u00e4gen", "oneway": "yes", "source": "survey", "surface": "asphalt", "wikidata": "Q10477000", "wikipedia": "sv:Drottningholmsv\u00e4gen, Stockholm"}}, {"type": "Feature", "id": "way/251977336", "geometry": {"type": "LineString", "coordinates": [[18.032954, 59.33491], [18.033429, 59.335467]]}, "properties": {"@id": "way/251977336", "foot": "no", "highway": "secondary", "maxspeed": "40", "name": "Sankt Eriksgatan", "oneway": "yes", "sidewalk": "separate", "surface": "asphalt", "wikidata": "Q10661346", "wikipedia": "sv:Sankt Eriksgatan"}}, {"type": "Feature", "id": "way/252124517", "geometry": {"type": "LineString", "coordinates": [[18.065198, 59.347553], [18.065133, 59.347557], [18.06507, 59.347563], [18.06499, 59.347581], [18.06492, 59.347602], [18.064753, 59.347671]]}, "properties": {"@id": "way/252124517", "foot": "no", "highway": "secondary", "maxspeed": "50", "name": "Valhallav\u00e4gen", "oneway": "yes", "surface": "asphalt", "wikidata": "Q7911587", "wikipedia": "sv:Valhallav\u00e4gen, Stockholm"}}, {"type": "Feature", "id": "way/252133165", "geometry": {"type": "LineString", "coordinates": [[18.094658, 59.339773], [18.094698, 59.339839], [18.094697, 59.339884], [18.094685, 59.339913], [18.094642, 59.339985]]}, "properties": {"@id": "way/252133165", "foot": "no", "highway": "secondary_link", "maxspeed": "50", "name": "V\u00e4rtav\u00e4gen", "oneway": "yes", "surface": "asphalt", "wikidata": "Q10717752", "wikipedia": "sv:V\u00e4rtav\u00e4gen"}}, {"type": "Feature", "id": "way/252133166", "geometry": {"type": "LineString", "coordinates": [[18.093942, 59.339928], [18.093916, 59.339853], [18.093921, 59.339798], [18.093948, 59.339721]]}, "properties": {"@id": "way/252133166", "foot": "no", "highway": "secondary_link", "maxspeed": "50", "name": "V\u00e4rtav\u00e4gen", "oneway": "yes", "surface": "asphalt", "wikidata": "Q10717752", "wikipedia": "sv:V\u00e4rtav\u00e4gen"}}, {"type": "Feature", "id": "way/252133177", "geometry": {"type": "LineString", "coordinates": [[18.094321, 59.340063], [18.094012, 59.34014], [18.093926, 59.340159], [18.092934, 59.340409], [18.092438, 59.340527], [18.092393, 59.340538], [18.092185, 59.340589], [18.091175, 59.340838], [18.090798, 59.34093], [18.090671, 59.340962], [18.090565, 59.340988], [18.090516, 59.341], [18.090378, 59.341035]]}, "properties": {"@id": "way/252133177", "foot": "no", "highway": "secondary", "maxspeed": "50", "name": "Valhallav\u00e4gen", "oneway": "yes", "surface": "asphalt", "wikidata": "Q7911587", "wikipedia": "sv:Valhallav\u00e4gen, Stockholm"}}, {"type": "Feature", "id": "way/252592785", "geometry": {"type": "LineString", "coordinates": [[18.066688, 59.346912], [18.066584, 59.346844]]}, "properties": {"@id": "way/252592785", "cycleway:right": "shared_lane", "foot": "no", "highway": "secondary", "maxspeed": "50", "name": "Odengatan", "oneway": "yes", "surface": "asphalt", "wikidata": "Q10606799", "wikipedia": "sv:Odengatan"}}, {"type": "Feature", "id": "way/252592791", "geometry": {"type": "LineString", "coordinates": [[18.038883, 59.339852], [18.039019, 59.33988]]}, "properties": {"@id": "way/252592791", "check_date": "2019-12-09", "foot": "no", "highway": "secondary", "maxspeed": "50", "name": "Odengatan", "oneway": "yes", "surface": "asphalt", "wikidata": "Q10606799", "wikipedia": "sv:Odengatan"}}, {"type": "Feature", "id": "way/252592792", "geometry": {"type": "LineString", "coordinates": [[18.066844, 59.346848], [18.067052, 59.346975], [18.067086, 59.347], [18.067101, 59.347011]]}, "properties": {"@id": "way/252592792", "foot": "no", "highway": "secondary", "lanes": "2", "maxspeed": "50", "name": "Odengatan", "oneway": "yes", "surface": "asphalt", "wikidata": "Q10606799", "wikipedia": "sv:Odengatan"}}, {"type": "Feature", "id": "way/252599077", "geometry": {"type": "LineString", "coordinates": [[18.073391, 59.344926], [18.073312, 59.344845]]}, "properties": {"@id": "way/252599077", "foot": "no", "highway": "secondary_link", "maxspeed": "50", "oneway": "yes", "surface": "asphalt"}}, {"type": "Feature", "id": "way/252693052", "geometry": {"type": "LineString", "coordinates": [[18.056967, 59.333121], [18.056985, 59.33304], [18.057032, 59.332968], [18.057355, 59.332629], [18.057406, 59.332574], [18.057478, 59.332495]]}, "properties": {"@id": "way/252693052", "cycleway:right": "shared_lane", "foot": "no", "highway": "secondary", "maxspeed": "50", "name": "Vasagatan", "oneway": "yes", "surface": "asphalt", "wikidata": "Q679282", "wikipedia": "sv:Vasagatan, Stockholm"}}, {"type": "Feature", "id": "way/261818774", "geometry": {"type": "LineString", "coordinates": [[18.068855, 59.32088], [18.069043, 59.320909], [18.069272, 59.320954], [18.069377, 59.32097], [18.069437, 59.320978], [18.069527, 59.320979], [18.069673, 59.320956], [18.069861, 59.320923], [18.070297, 59.32086]]}, "properties": {"@id": "way/261818774", "foot": "no", "highway": "secondary", "lanes": "2", "maxheight": "3.5", "maxspeed": "30", "name": "Guldfj\u00e4rdsplan", "oneway": "yes", "ref": "222", "surface": "asphalt", "wikidata": "Q10510512", "wikipedia": "sv:Guldfj\u00e4rdsplan"}}, {"type": "Feature", "id": "way/261818776", "geometry": {"type": "LineString", "coordinates": [[18.052584, 59.332705], [18.052651, 59.332721], [18.053715, 59.332987]]}, "properties": {"@id": "way/261818776", "bridge": "yes", "cycleway:right": "lane", "foot": "no", "highway": "secondary", "layer": "1", "maxspeed": "50", "name": "Kungsbron", "oneway": "yes", "surface": "asphalt", "wikidata": "Q6444547", "wikipedia": "sv:Kungsbron"}}, {"type": "Feature", "id": "way/265948016", "geometry": {"type": "LineString", "coordinates": [[18.062647, 59.345723], [18.062709, 59.345738], [18.0628, 59.345761], [18.063183, 59.345876], [18.063305, 59.345937]]}, "properties": {"@id": "way/265948016", "cycleway:right": "lane", "foot": "no", "highway": "secondary", "maxspeed": "50", "name": "Odengatan", "oneway": "yes", "surface": "asphalt", "wikidata": "Q10606799", "wikipedia": "sv:Odengatan"}}, {"type": "Feature", "id": "way/291464493", "geometry": {"type": "LineString", "coordinates": [[18.037714, 59.342577], [18.037054, 59.342557], [18.036969, 59.342554], [18.036781, 59.342543], [18.036713, 59.34254]]}, "properties": {"@id": "way/291464493", "foot": "no", "highway": "secondary", "maxspeed": "50", "name": "Karlbergsv\u00e4gen", "oneway": "yes", "surface": "asphalt", "wikidata": "Q10543777", "wikipedia": "sv:Karlbergsv\u00e4gen"}}, {"type": "Feature", "id": "way/291464494", "geometry": {"type": "LineString", "coordinates": [[18.036583, 59.342533], [18.036513, 59.342529], [18.036368, 59.342519], [18.036213, 59.342505], [18.036113, 59.342478]]}, "properties": {"@id": "way/291464494", "highway": "secondary", "maxspeed": "50", "name": "Karlbergsv\u00e4gen", "oneway": "yes", "surface": "asphalt", "wikidata": "Q10543777", "wikipedia": "sv:Karlbergsv\u00e4gen"}}, {"type": "Feature", "id": "way/291464501", "geometry": {"type": "LineString", "coordinates": [[18.038765, 59.343079], [18.038637, 59.342766], [18.038619, 59.342722], [18.03857, 59.342621]]}, "properties": {"@id": "way/291464501", "foot": "no", "highway": "secondary", "maxspeed": "50", "name": "Sankt Eriksgatan", "oneway": "yes", "surface": "asphalt", "wikidata": "Q10661346", "wikipedia": "sv:Sankt Eriksgatan"}}, {"type": "Feature", "id": "way/291464503", "geometry": {"type": "LineString", "coordinates": [[18.036583, 59.342533], [18.036645, 59.342453]]}, "properties": {"@id": "way/291464503", "foot": "no", "highway": "secondary", "maxspeed": "50", "name": "Torsgatan", "oneway": "yes", "surface": "asphalt", "wikidata": "Q10700359", "wikipedia": "sv:Torsgatan"}}, {"type": "Feature", "id": "way/291464515", "geometry": {"type": "LineString", "coordinates": [[18.040196, 59.344954], [18.040167, 59.34503], [18.040128, 59.34509]]}, "properties": {"@id": "way/291464515", "foot": "no", "highway": "secondary", "junction": "roundabout", "maxspeed": "50", "name": "Vanadisplan", "sidewalk": "separate", "surface": "asphalt", "wikidata": "Q10712558", "wikipedia": "sv:Vanadisplan"}}, {"type": "Feature", "id": "way/291464516", "geometry": {"type": "LineString", "coordinates": [[18.039586, 59.345273], [18.039497, 59.345259], [18.039347, 59.345219]]}, "properties": {"@id": "way/291464516", "foot": "no", "highway": "secondary", "junction": "roundabout", "maxspeed": "50", "name": "Vanadisplan", "sidewalk": "separate", "surface": "asphalt", "wikidata": "Q10712558", "wikipedia": "sv:Vanadisplan"}}, {"type": "Feature", "id": "way/291464517", "geometry": {"type": "LineString", "coordinates": [[18.039434, 59.344767], [18.039522, 59.34475], [18.039643, 59.344739], [18.039747, 59.344735]]}, "properties": {"@id": "way/291464517", "foot": "no", "highway": "secondary", "junction": "roundabout", "maxspeed": "50", "name": "Vanadisplan", "sidewalk": "separate", "surface": "asphalt", "wikidata": "Q10712558", "wikipedia": "sv:Vanadisplan"}}, {"type": "Feature", "id": "way/291464518", "geometry": {"type": "LineString", "coordinates": [[18.039856, 59.345259], [18.039715, 59.345278], [18.039586, 59.345273]]}, "properties": {"@id": "way/291464518", "foot": "no", "highway": "secondary", "junction": "roundabout", "maxspeed": "50", "name": "Vanadisplan", "sidewalk": "separate", "surface": "asphalt", "wikidata": "Q10712558", "wikipedia": "sv:Vanadisplan"}}, {"type": "Feature", "id": "way/291464520", "geometry": {"type": "LineString", "coordinates": [[18.040106, 59.344839], [18.040152, 59.34488], [18.040181, 59.344913], [18.040196, 59.344954]]}, "properties": {"@id": "way/291464520", "foot": "no", "highway": "secondary", "junction": "roundabout", "maxspeed": "50", "name": "Vanadisplan", "sidewalk": "separate", "surface": "asphalt", "wikidata": "Q10712558", "wikipedia": "sv:Vanadisplan"}}, {"type": "Feature", "id": "way/291464521", "geometry": {"type": "LineString", "coordinates": [[18.040128, 59.34509], [18.040075, 59.34514], [18.039983, 59.345201], [18.039856, 59.345259]]}, "properties": {"@id": "way/291464521", "foot": "no", "highway": "secondary", "junction": "roundabout", "maxspeed": "50", "name": "Vanadisplan", "sidewalk": "separate", "surface": "asphalt", "wikidata": "Q10712558", "wikipedia": "sv:Vanadisplan"}}, {"type": "Feature", "id": "way/291464522", "geometry": {"type": "LineString", "coordinates": [[18.039747, 59.344735], [18.039889, 59.344762], [18.040035, 59.344808], [18.040106, 59.344839]]}, "properties": {"@id": "way/291464522", "foot": "no", "highway": "secondary", "junction": "roundabout", "maxspeed": "50", "name": "Vanadisplan", "sidewalk": "separate", "surface": "asphalt", "wikidata": "Q10712558", "wikipedia": "sv:Vanadisplan"}}, {"type": "Feature", "id": "way/291464524", "geometry": {"type": "LineString", "coordinates": [[18.039155, 59.345005], [18.039169, 59.34496], [18.03921, 59.344905], [18.039308, 59.344821], [18.039434, 59.344767]]}, "properties": {"@id": "way/291464524", "foot": "no", "highway": "secondary", "junction": "roundabout", "maxspeed": "50", "name": "Vanadisplan", "sidewalk": "separate", "surface": "asphalt", "wikidata": "Q10712558", "wikipedia": "sv:Vanadisplan"}}, {"type": "Feature", "id": "way/291464526", "geometry": {"type": "LineString", "coordinates": [[18.060032, 59.329686], [18.060274, 59.32942]]}, "properties": {"@id": "way/291464526", "cycleway:right": "track", "foot": "no", "highway": "secondary", "maxspeed": "50", "name": "Vasagatan", "oneway": "yes", "surface": "asphalt"}}, {"type": "Feature", "id": "way/291464527", "geometry": {"type": "LineString", "coordinates": [[18.060266, 59.329665], [18.060133, 59.329831], [18.059764, 59.330239]]}, "properties": {"@id": "way/291464527", "cycleway:right": "track", "foot": "no", "highway": "secondary", "lcn": "yes", "maxspeed": "50", "name": "Vasagatan", "oneway": "yes", "surface": "asphalt", "wikidata": "Q679282", "wikipedia": "sv:Vasagatan, Stockholm"}}, {"type": "Feature", "id": "way/292346304", "geometry": {"type": "LineString", "coordinates": [[18.070297, 59.32086], [18.070563, 59.320799], [18.070782, 59.320785]]}, "properties": {"@id": "way/292346304", "foot": "no", "highway": "secondary", "maxspeed": "30", "name": "Guldfj\u00e4rdsplan", "oneway": "yes", "ref": "222", "surface": "asphalt", "wikidata": "Q10510512", "wikipedia": "sv:Guldfj\u00e4rdsplan"}}, {"type": "Feature", "id": "way/292346306", "geometry": {"type": "LineString", "coordinates": [[18.060274, 59.32942], [18.060838, 59.328794]]}, "properties": {"@id": "way/292346306", "cycleway:right": "track", "foot": "no", "highway": "secondary", "lanes": "2", "maxspeed": "50", "name": "Vasagatan", "oneway": "yes", "surface": "asphalt", "wikidata": "Q679282", "wikipedia": "sv:Vasagatan, Stockholm"}}, {"type": "Feature", "id": "way/304085544", "geometry": {"type": "LineString", "coordinates": [[18.055562, 59.344089], [18.055493, 59.34416]]}, "properties": {"@id": "way/304085544", "cycleway:right": "shared_lane", "foot": "no", "highway": "secondary", "lit": "yes", "maxspeed": "50", "name": "Sveav\u00e4gen", "oneway": "yes", "sidewalk": "separate", "surface": "asphalt", "wikidata": "Q1788276", "wikipedia": "sv:Sveav\u00e4gen"}}, {"type": "Feature", "id": "way/304229693", "geometry": {"type": "LineString", "coordinates": [[18.062443, 59.345762], [18.062372, 59.345744], [18.062295, 59.345725], [18.061154, 59.345452], [18.060879, 59.345397]]}, "properties": {"@id": "way/304229693", "cycleway:right": "shared_lane", "foot": "no", "highway": "secondary", "maxspeed": "50", "name": "Odengatan", "oneway": "yes", "surface": "asphalt", "wikidata": "Q10606799", "wikipedia": "sv:Odengatan"}}, {"type": "Feature", "id": "way/327609647", "geometry": {"type": "LineString", "coordinates": [[18.056425, 59.333777], [18.056286, 59.33374], [18.055045, 59.333416]]}, "properties": {"@id": "way/327609647", "cycleway:right": "lane", "foot": "no", "highway": "secondary", "maxspeed": "30", "name": "Kungsgatan", "oneway": "yes", "sidewalk": "separate", "surface": "asphalt", "wikidata": "Q836909", "wikipedia": "sv:Kungsgatan, Stockholm"}}, {"type": "Feature", "id": "way/336125356", "geometry": {"type": "LineString", "coordinates": [[18.050986, 59.342865], [18.051069, 59.342884], [18.052275, 59.343147]]}, "properties": {"@id": "way/336125356", "check_date": "2019-12-09", "cycleway:right": "lane", "foot": "no", "highway": "secondary", "maxspeed": "50", "name": "Odengatan", "oneway": "yes", "surface": "asphalt", "wikidata": "Q10606799", "wikipedia": "sv:Odengatan"}}, {"type": "Feature", "id": "way/336125357", "geometry": {"type": "LineString", "coordinates": [[18.054158, 59.343735], [18.053601, 59.343591], [18.053486, 59.343562], [18.053323, 59.343519], [18.052375, 59.343284], [18.052195, 59.343241]]}, "properties": {"@id": "way/336125357", "check_date": "2019-12-10", "cycleway:right": "lane", "foot": "no", "highway": "secondary", "maxspeed": "50", "name": "Odengatan", "oneway": "yes", "surface": "asphalt", "wikidata": "Q10606799", "wikipedia": "sv:Odengatan"}}, {"type": "Feature", "id": "way/356897484", "geometry": {"type": "LineString", "coordinates": [[18.05769, 59.3507], [18.059214, 59.350032], [18.059396, 59.349942]]}, "properties": {"@id": "way/356897484", "foot": "no", "highway": "secondary", "maxspeed": "50", "name": "Valhallav\u00e4gen", "oneway": "yes", "surface": "asphalt", "wikidata": "Q7911587", "wikipedia": "sv:Valhallav\u00e4gen, Stockholm"}}, {"type": "Feature", "id": "way/388606453", "geometry": {"type": "LineString", "coordinates": [[18.077702, 59.319096], [18.080326, 59.318466], [18.081198, 59.318279], [18.082202, 59.318102], [18.082587, 59.318047], [18.083642, 59.317897]]}, "properties": {"@id": "way/388606453", "foot": "no", "highway": "secondary", "lit": "yes", "maxspeed": "30", "name": "Stadsg\u00e5rdsleden", "oneway": "yes", "ref": "222", "surface": "asphalt"}}, {"type": "Feature", "id": "way/427926628", "geometry": {"type": "LineString", "coordinates": [[18.058615, 59.331224], [18.058678, 59.33116]]}, "properties": {"@id": "way/427926628", "cycleway:right": "lane", "foot": "no", "highway": "secondary", "lcn": "yes", "maxspeed": "50", "name": "Vasagatan", "oneway": "yes", "surface": "asphalt"}}, {"type": "Feature", "id": "way/427926629", "geometry": {"type": "LineString", "coordinates": [[18.059312, 59.330746], [18.058916, 59.331179], [18.058857, 59.33124]]}, "properties": {"@id": "way/427926629", "cycleway:right": "lane", "foot": "no", "highway": "secondary", "lcn": "yes", "maxspeed": "50", "name": "Vasagatan", "oneway": "yes", "surface": "asphalt", "wikidata": "Q679282", "wikipedia": "sv:Vasagatan, Stockholm"}}, {"type": "Feature", "id": "way/430408054", "geometry": {"type": "LineString", "coordinates": [[18.077255, 59.319242], [18.077702, 59.319096]]}, "properties": {"@id": "way/430408054", "highway": "secondary", "maxspeed": "30", "maxspeed:type": "sign", "name": "Stadsg\u00e5rdsleden", "oneway": "yes", "ref": "222", "surface": "asphalt"}}, {"type": "Feature", "id": "way/430408055", "geometry": {"type": "LineString", "coordinates": [[18.077255, 59.319242], [18.07715, 59.319289], [18.077052, 59.319334], [18.076971, 59.319381], [18.076895, 59.319443], [18.076805, 59.319583], [18.076753, 59.319672], [18.076711, 59.319716], [18.076646, 59.31976], [18.076483, 59.319811], [18.076125, 59.319896], [18.075806, 59.319966], [18.075343, 59.32007], [18.074952, 59.320141], [18.074793, 59.320166], [18.074511, 59.320246], [18.074351, 59.320299], [18.074059, 59.320378], [18.07384, 59.320422], [18.073406, 59.320496], [18.073155, 59.320554]]}, "properties": {"@id": "way/430408055", "bicycle": "no", "foot": "no", "highway": "secondary", "lit": "yes", "maxspeed": "30", "name": "Stadsg\u00e5rdsleden", "ref": "222", "surface": "asphalt"}}, {"type": "Feature", "id": "way/432147270", "geometry": {"type": "LineString", "coordinates": [[18.070016, 59.334251], [18.069985, 59.334359], [18.069887, 59.334465], [18.069801, 59.334527], [18.069679, 59.334597], [18.069511, 59.33464], [18.069354, 59.334672], [18.069168, 59.334678], [18.068976, 59.334674], [18.066994, 59.334572], [18.066788, 59.33456], [18.06656, 59.334525]]}, "properties": {"@id": "way/432147270", "bicycle": "no", "foot": "no", "highway": "secondary", "layer": "-1", "maxheight": "3", "maxspeed": "50", "name": "Klaratunneln", "oneway": "yes", "surface": "asphalt", "tunnel": "yes", "wikidata": "Q10546062", "wikipedia": "sv:Klaratunneln"}}, {"type": "Feature", "id": "way/432147271", "geometry": {"type": "LineString", "coordinates": [[18.069954, 59.334151], [18.070016, 59.334251]]}, "properties": {"@id": "way/432147271", "bicycle": "no", "foot": "no", "highway": "secondary", "maxspeed": "50", "name": "Klaratunneln", "oneway": "yes", "surface": "asphalt", "wikidata": "Q10546062", "wikipedia": "sv:Klaratunneln"}}, {"type": "Feature", "id": "way/432147272", "geometry": {"type": "LineString", "coordinates": [[18.06403, 59.330374], [18.062636, 59.330008]]}, "properties": {"@id": "way/432147272", "bicycle": "no", "foot": "no", "highway": "secondary", "layer": "-1", "lit": "24/7", "maxheight": "3", "maxspeed": "50", "name": "Klaratunneln", "oneway": "yes", "surface": "asphalt", "tunnel": "yes", "wikidata": "Q10546062", "wikipedia": "sv:Klaratunneln"}}, {"type": "Feature", "id": "way/432147273", "geometry": {"type": "LineString", "coordinates": [[18.06656, 59.334525], [18.066372, 59.334492], [18.066181, 59.334438], [18.065841, 59.334304], [18.06562, 59.334176], [18.065426, 59.334017], [18.065267, 59.333843], [18.065157, 59.333688], [18.065086, 59.333534], [18.065045, 59.333391], [18.065036, 59.333285], [18.065057, 59.333177], [18.065099, 59.333069], [18.065244, 59.332827], [18.065455, 59.332495], [18.065703, 59.332211]]}, "properties": {"@id": "way/432147273", "bicycle": "no", "foot": "no", "highway": "secondary", "lanes": "1", "layer": "-2", "maxheight": "3", "maxspeed": "50", "name": "Klaratunneln", "oneway": "yes", "surface": "asphalt", "tunnel": "yes", "wikidata": "Q10546062", "wikipedia": "sv:Klaratunneln"}}, {"type": "Feature", "id": "way/467760758", "geometry": {"type": "LineString", "coordinates": [[18.05245, 59.332673], [18.052584, 59.332705]]}, "properties": {"@id": "way/467760758", "bridge": "yes", "cycleway:right": "lane", "foot": "no", "highway": "secondary", "layer": "1", "maxspeed": "50", "name": "Kungsbron", "oneway": "yes", "surface": "asphalt", "wikidata": "Q6444547", "wikipedia": "sv:Kungsbron"}}, {"type": "Feature", "id": "way/476017363", "geometry": {"type": "LineString", "coordinates": [[18.050242, 59.350231], [18.050209, 59.350231], [18.050067, 59.350239], [18.04955, 59.350285], [18.049321, 59.350282]]}, "properties": {"@id": "way/476017363", "foot": "no", "highway": "secondary", "lanes": "1", "maxspeed": "50", "name": "Sveaplan", "oneway": "yes", "surface": "asphalt", "wikidata": "Q10684619", "wikipedia": "sv:Sveaplan, Stockholm"}}, {"type": "Feature", "id": "way/493752030", "geometry": {"type": "LineString", "coordinates": [[18.057692, 59.33247], [18.057632, 59.332535], [18.057565, 59.332611], [18.057143, 59.333042], [18.057039, 59.333229], [18.05668, 59.333659]]}, "properties": {"@id": "way/493752030", "cycleway:right": "lane", "foot": "no", "highway": "secondary", "maxspeed": "50", "name": "Vasagatan", "oneway": "yes", "sidewalk": "separate", "surface": "asphalt", "wikidata": "Q679282", "wikipedia": "sv:Vasagatan, Stockholm"}}, {"type": "Feature", "id": "way/493752031", "geometry": {"type": "LineString", "coordinates": [[18.059764, 59.330239], [18.059392, 59.330655], [18.059312, 59.330746]]}, "properties": {"@id": "way/493752031", "cycleway:right": "shared_lane", "foot": "no", "highway": "secondary", "lcn": "yes", "maxspeed": "50", "name": "Vasagatan", "oneway": "yes", "surface": "asphalt", "wikidata": "Q679282", "wikipedia": "sv:Vasagatan, Stockholm"}}, {"type": "Feature", "id": "way/495264789", "geometry": {"type": "LineString", "coordinates": [[18.030864, 59.332066], [18.030948, 59.332069], [18.031112, 59.332073]]}, "properties": {"@id": "way/495264789", "cycleway:right": "lane", "foot": "no", "highway": "secondary", "maxspeed": "40", "name": "Drottningholmsv\u00e4gen", "oneway": "yes", "source": "survey", "surface": "asphalt", "wikidata": "Q10477000", "wikipedia": "sv:Drottningholmsv\u00e4gen, Stockholm"}}, {"type": "Feature", "id": "way/497479643", "geometry": {"type": "LineString", "coordinates": [[18.064207, 59.335031], [18.063837, 59.335408], [18.063681, 59.33556]]}, "properties": {"@id": "way/497479643", "cycleway:right": "lane", "foot": "no", "highway": "secondary", "maxspeed": "50", "name": "Sveav\u00e4gen", "oneway": "yes", "sidewalk": "separate", "surface": "asphalt", "wikidata": "Q1788276", "wikipedia": "sv:Sveav\u00e4gen"}}, {"type": "Feature", "id": "way/504583461", "geometry": {"type": "LineString", "coordinates": [[18.06545, 59.346456], [18.065223, 59.346401], [18.065049, 59.34636]]}, "properties": {"@id": "way/504583461", "cycleway": "lane", "foot": "no", "highway": "secondary", "lanes": "4", "maxspeed": "50", "name": "Odengatan", "surface": "asphalt", "wikidata": "Q10606799", "wikipedia": "sv:Odengatan"}}, {"type": "Feature", "id": "way/504583463", "geometry": {"type": "LineString", "coordinates": [[18.065049, 59.34636], [18.064367, 59.346194], [18.064206, 59.346155], [18.063305, 59.345937]]}, "properties": {"@id": "way/504583463", "cycleway:left": "lane", "cycleway:right": "track", "foot": "no", "highway": "secondary", "lanes": "4", "maxspeed": "50", "name": "Odengatan", "surface": "asphalt", "wikidata": "Q10606799", "wikipedia": "sv:Odengatan"}}, {"type": "Feature", "id": "way/515526714", "geometry": {"type": "LineString", "coordinates": [[18.069705, 59.320994], [18.069645, 59.321015], [18.069546, 59.321047], [18.069495, 59.321058], [18.069371, 59.321071], [18.068925, 59.321022], [18.068884, 59.321017], [18.068773, 59.321008]]}, "properties": {"@id": "way/515526714", "foot": "no", "highway": "secondary", "lanes": "3", "maxheight": "3.5", "maxspeed": "30", "name": "Guldfj\u00e4rdsplan", "oneway": "yes", "ref": "222", "surface": "asphalt", "turn:lanes": "left|through|through|", "wikidata": "Q10510512", "wikipedia": "sv:Guldfj\u00e4rdsplan"}}, {"type": "Feature", "id": "way/515526717", "geometry": {"type": "LineString", "coordinates": [[18.068773, 59.321008], [18.068163, 59.320978], [18.068041, 59.320971]]}, "properties": {"@id": "way/515526717", "foot": "no", "highway": "secondary", "maxheight": "3.5", "maxspeed": "30", "name": "Guldfj\u00e4rdsplan", "oneway": "yes", "ref": "222", "surface": "asphalt", "wikidata": "Q10510512", "wikipedia": "sv:Guldfj\u00e4rdsplan"}}, {"type": "Feature", "id": "way/520217664", "geometry": {"type": "LineString", "coordinates": [[18.062455, 59.329792], [18.062556, 59.329685]]}, "properties": {"@id": "way/520217664", "bicycle": "no", "foot": "no", "highway": "secondary_link", "maxspeed": "50", "name": "R\u00f6dbodgatan", "oneway": "yes", "surface": "asphalt"}}, {"type": "Feature", "id": "way/520217665", "geometry": {"type": "LineString", "coordinates": [[18.062455, 59.329792], [18.06277, 59.329875], [18.062782, 59.32988]]}, "properties": {"@id": "way/520217665", "bicycle": "no", "foot": "no", "highway": "secondary", "lanes": "2", "maxspeed": "50", "name": "Herkulesgatan", "oneway": "yes", "surface": "asphalt"}}, {"type": "Feature", "id": "way/521623482", "geometry": {"type": "LineString", "coordinates": [[18.06955, 59.345788], [18.069717, 59.34574], [18.069793, 59.34572], [18.069969, 59.345675], [18.071334, 59.345338], [18.071401, 59.345321], [18.071513, 59.345293], [18.071611, 59.345269]]}, "properties": {"@id": "way/521623482", "cycleway:right": "track", "foot": "no", "highway": "secondary", "maxspeed": "30", "name": "Valhallav\u00e4gen", "oneway": "yes", "surface": "asphalt", "wikidata": "Q7911587", "wikipedia": "sv:Valhallav\u00e4gen, Stockholm"}}, {"type": "Feature", "id": "way/522170443", "geometry": {"type": "LineString", "coordinates": [[18.067101, 59.347011], [18.067115, 59.347022], [18.067134, 59.34705], [18.067152, 59.347128]]}, "properties": {"@id": "way/522170443", "foot": "no", "highway": "secondary", "lanes": "2", "maxspeed": "50", "name": "Odengatan", "oneway": "yes", "surface": "asphalt", "wikidata": "Q10606799", "wikipedia": "sv:Odengatan"}}, {"type": "Feature", "id": "way/565568122", "geometry": {"type": "LineString", "coordinates": [[18.041233, 59.348632], [18.041402, 59.348801], [18.04159, 59.348907]]}, "properties": {"@id": "way/565568122", "check_date": "2020-01-13", "foot": "no", "highway": "secondary", "maxspeed": "50", "name": "Sankt Eriksgatan", "oneway": "yes", "surface": "asphalt", "wikidata": "Q10661346", "wikipedia": "sv:Sankt Eriksgatan"}}, {"type": "Feature", "id": "way/571062828", "geometry": {"type": "LineString", "coordinates": [[18.066849, 59.347012], [18.066728, 59.346938], [18.066688, 59.346912]]}, "properties": {"@id": "way/571062828", "foot": "no", "highway": "secondary", "lanes": "2", "maxspeed": "50", "name": "Odengatan", "oneway": "yes", "surface": "asphalt", "wikidata": "Q10606799", "wikipedia": "sv:Odengatan"}}, {"type": "Feature", "id": "way/571942797", "geometry": {"type": "LineString", "coordinates": [[18.05531, 59.352066], [18.055117, 59.352199], [18.054862, 59.35236], [18.054629, 59.352529], [18.053897, 59.35304], [18.053545, 59.353313], [18.053413, 59.353487], [18.053302, 59.353667], [18.053256, 59.353768], [18.053252, 59.353866], [18.053284, 59.354006], [18.053326, 59.354128], [18.053417, 59.354257], [18.053824, 59.35462], [18.054805, 59.355534], [18.055852, 59.356438], [18.056034, 59.356593], [18.056155, 59.356739], [18.056302, 59.356901], [18.056548, 59.357188], [18.056738, 59.357501], [18.05681, 59.357667], [18.056861, 59.357833], [18.0569, 59.358082], [18.056895, 59.358368], [18.056859, 59.358603], [18.056772, 59.358874], [18.056623, 59.359153], [18.056236, 59.359633], [18.056217, 59.35966], [18.05615, 59.359803], [18.056105, 59.359938], [18.056093, 59.360071], [18.056095, 59.360174], [18.056119, 59.360275], [18.056179, 59.360437], [18.056273, 59.360576], [18.056362, 59.360677], [18.056471, 59.360776], [18.056769, 59.361004], [18.056871, 59.3611], [18.056939, 59.361209], [18.056953, 59.361298], [18.056955, 59.361347]]}, "properties": {"@id": "way/571942797", "foot": "no", "highway": "primary", "lanes": "3", "lit": "yes", "maxspeed": "50", "name": "Roslagsv\u00e4gen", "oneway": "yes", "surface": "asphalt"}}, {"type": "Feature", "id": "way/577180797", "geometry": {"type": "LineString", "coordinates": [[18.078846, 59.343599], [18.078917, 59.343602], [18.078978, 59.343609]]}, "properties": {"@id": "way/577180797", "foot": "no", "highway": "secondary", "maxspeed": "50", "name": "Valhallav\u00e4gen", "oneway": "yes", "surface": "asphalt", "wikidata": "Q7911587", "wikipedia": "sv:Valhallav\u00e4gen, Stockholm"}}, {"type": "Feature", "id": "way/577180798", "geometry": {"type": "LineString", "coordinates": [[18.078848, 59.343477], [18.078992, 59.343441], [18.080422, 59.343083], [18.081293, 59.342864]]}, "properties": {"@id": "way/577180798", "cycleway:right": "lane", "foot": "no", "highway": "secondary", "maxspeed": "50", "name": "Valhallav\u00e4gen", "oneway": "yes", "surface": "asphalt", "wikidata": "Q7911587", "wikipedia": "sv:Valhallav\u00e4gen, Stockholm"}}, {"type": "Feature", "id": "way/614377593", "geometry": {"type": "LineString", "coordinates": [[18.049829, 59.331837], [18.049917, 59.331849], [18.049982, 59.331868]]}, "properties": {"@id": "way/614377593", "cycleway:right": "lane", "foot": "no", "highway": "secondary", "maxspeed": "40", "name": "Kungsbroplan", "oneway": "yes", "surface": "asphalt", "wikidata": "Q10550278", "wikipedia": "sv:Kungsbroplan, Stockholm"}}, {"type": "Feature", "id": "way/621715886", "geometry": {"type": "LineString", "coordinates": [[18.094418, 59.34004], [18.094321, 59.340063]]}, "properties": {"@id": "way/621715886", "foot": "no", "highway": "secondary", "maxspeed": "50", "name": "Valhallav\u00e4gen", "oneway": "yes", "surface": "asphalt", "wikidata": "Q7911587", "wikipedia": "sv:Valhallav\u00e4gen, Stockholm"}}, {"type": "Feature", "id": "way/658171257", "geometry": {"type": "LineString", "coordinates": [[18.029073, 59.339229], [18.029089, 59.339214], [18.0291, 59.339193], [18.029106, 59.339167], [18.029094, 59.339143]]}, "properties": {"@id": "way/658171257", "bicycle": "no", "foot": "no", "highway": "secondary", "maxspeed": "70", "name": "Pampasl\u00e4nken", "oneway": "yes", "surface": "asphalt"}}, {"type": "Feature", "id": "way/676101236", "geometry": {"type": "LineString", "coordinates": [[18.065703, 59.332211], [18.065918, 59.331864], [18.066032, 59.33161], [18.066034, 59.331405], [18.066007, 59.331271], [18.065947, 59.33118], [18.065864, 59.331076], [18.065678, 59.330912], [18.065479, 59.330792], [18.065296, 59.330712], [18.065063, 59.330631], [18.064849, 59.330573], [18.06403, 59.330374], [18.062589, 59.330062]]}, "properties": {"@id": "way/676101236", "bicycle": "no", "foot": "no", "highway": "secondary", "lanes": "2", "layer": "-1", "lit": "24/7", "maxheight": "3", "maxspeed": "50", "name": "Klaratunneln", "oneway": "yes", "surface": "asphalt", "tunnel": "yes", "wikidata": "Q10546062", "wikipedia": "sv:Klaratunneln"}}, {"type": "Feature", "id": "way/676101237", "geometry": {"type": "LineString", "coordinates": [[18.061187, 59.32936], [18.062048, 59.329556], [18.062556, 59.329685]]}, "properties": {"@id": "way/676101237", "bicycle": "no", "foot": "no", "highway": "secondary", "maxspeed": "50", "name": "Herkulesgatan", "oneway": "yes", "surface": "asphalt", "wikidata": "Q10522357", "wikipedia": "sv:Herkulesgatan"}}, {"type": "Feature", "id": "way/676101238", "geometry": {"type": "LineString", "coordinates": [[18.065969, 59.332251], [18.065244, 59.333262]]}, "properties": {"@id": "way/676101238", "bicycle": "no", "foot": "no", "highway": "secondary", "lanes": "1", "layer": "-1", "lit": "24/7", "maxheight": "3", "maxspeed": "50", "name": "Klaratunneln", "oneway": "yes", "surface": "asphalt", "tunnel": "yes", "wikidata": "Q10546062", "wikipedia": "sv:Klaratunneln"}}, {"type": "Feature", "id": "way/682365805", "geometry": {"type": "LineString", "coordinates": [[18.081293, 59.342864], [18.081408, 59.342836], [18.081524, 59.342807], [18.081563, 59.342797], [18.083199, 59.342386], [18.083298, 59.342362], [18.084547, 59.342047], [18.084698, 59.34201], [18.084846, 59.341974]]}, "properties": {"@id": "way/682365805", "foot": "no", "highway": "secondary", "maxspeed": "50", "name": "Valhallav\u00e4gen", "oneway": "yes", "surface": "asphalt", "wikidata": "Q7911587", "wikipedia": "sv:Valhallav\u00e4gen, Stockholm"}}, {"type": "Feature", "id": "way/689217946", "geometry": {"type": "LineString", "coordinates": [[18.069724, 59.334239], [18.069696, 59.334207], [18.069584, 59.334132]]}, "properties": {"@id": "way/689217946", "bicycle": "no", "foot": "no", "highway": "secondary", "lanes": "1", "maxheight": "3", "maxspeed": "50", "name": "Klaratunneln", "oneway": "yes", "surface": "asphalt", "wikidata": "Q10546062", "wikipedia": "sv:Klaratunneln"}}, {"type": "Feature", "id": "way/689217947", "geometry": {"type": "LineString", "coordinates": [[18.069811, 59.334379], [18.069782, 59.33431], [18.069754, 59.334274], [18.069724, 59.334239]]}, "properties": {"@id": "way/689217947", "bicycle": "no", "foot": "no", "highway": "secondary", "lanes": "1", "layer": "-1", "lit": "24/7", "maxheight": "3", "maxspeed": "50", "name": "Klaratunneln", "oneway": "yes", "surface": "asphalt", "tunnel": "yes", "wikidata": "Q10546062", "wikipedia": "sv:Klaratunneln"}}, {"type": "Feature", "id": "way/722684487", "geometry": {"type": "LineString", "coordinates": [[18.036713, 59.34254], [18.036623, 59.342647], [18.035448, 59.343995], [18.035356, 59.344113]]}, "properties": {"@id": "way/722684487", "cycleway:right": "track", "foot": "no", "highway": "secondary", "maxspeed": "50", "name": "Torsgatan", "oneway": "yes", "surface": "asphalt", "wikidata": "Q10700359", "wikipedia": "sv:Torsgatan"}}, {"type": "Feature", "id": "way/724521707", "geometry": {"type": "LineString", "coordinates": [[18.062633, 59.33658], [18.062567, 59.336651], [18.061707, 59.337564], [18.061639, 59.337635], [18.061536, 59.337744], [18.061363, 59.337928]]}, "properties": {"@id": "way/724521707", "cycleway:right": "track", "foot": "no", "highway": "secondary", "lit": "yes", "maxspeed": "50", "name": "Sveav\u00e4gen", "oneway": "yes", "sidewalk": "separate", "surface": "asphalt", "wikidata": "Q1788276", "wikipedia": "sv:Sveav\u00e4gen"}}, {"type": "Feature", "id": "way/739526722", "geometry": {"type": "LineString", "coordinates": [[18.053932, 59.334387], [18.054152, 59.334439], [18.055373, 59.334734], [18.055543, 59.334775]]}, "properties": {"@id": "way/739526722", "cycleway:right": "lane", "foot": "no", "highway": "secondary", "maxspeed": "50", "name": "Olof Palmes Gata", "oneway": "yes", "surface": "asphalt", "wikidata": "Q10609262", "wikipedia": "sv:Olof Palmes gata, Stockholm"}}, {"type": "Feature", "id": "way/739526725", "geometry": {"type": "LineString", "coordinates": [[18.053264, 59.335237], [18.05319, 59.335256], [18.053106, 59.335266], [18.053075, 59.335268], [18.052989, 59.335257]]}, "properties": {"@id": "way/739526725", "cycleway:right": "track", "foot": "no", "highway": "secondary", "maxspeed": "50", "name": "Torsgatan", "note": "Korsningen har byggts om och satellitbilden st\u00e4mmer inte", "oneway": "yes", "surface": "asphalt"}}, {"type": "Feature", "id": "way/739526726", "geometry": {"type": "LineString", "coordinates": [[18.05322, 59.335197], [18.053208, 59.335173], [18.053207, 59.335145], [18.053833, 59.334487], [18.053932, 59.334387]]}, "properties": {"@id": "way/739526726", "cycleway:right": "track", "foot": "no", "highway": "secondary", "maxspeed": "50", "name": "\u00d6stra J\u00e4rnv\u00e4gsgatan", "oneway": "yes", "surface": "asphalt"}}, {"type": "Feature", "id": "way/739526730", "geometry": {"type": "LineString", "coordinates": [[18.04091, 59.337997], [18.041143, 59.337883], [18.041555, 59.337698], [18.042071, 59.337472], [18.042623, 59.337266], [18.043061, 59.337138], [18.043464, 59.337042], [18.044382, 59.33685], [18.045447, 59.336673], [18.045829, 59.336609], [18.046631, 59.336479], [18.048528, 59.33617], [18.048812, 59.336106], [18.049639, 59.335954]]}, "properties": {"@id": "way/739526730", "cycleway": "track", "foot": "no", "highway": "secondary", "maxspeed": "30", "name": "Torsgatan", "surface": "asphalt", "wikidata": "Q10700359", "wikipedia": "sv:Torsgatan"}}, {"type": "Feature", "id": "way/739526731", "geometry": {"type": "LineString", "coordinates": [[18.039646, 59.340041], [18.040653, 59.3403], [18.040829, 59.340345], [18.042356, 59.34073], [18.042554, 59.340771], [18.043838, 59.341082], [18.044075, 59.34114], [18.045525, 59.341492], [18.04576, 59.341548]]}, "properties": {"@id": "way/739526731", "check_date": "2019-12-09", "cycleway:right": "lane", "foot": "no", "highway": "secondary", "maxspeed": "50", "name": "Odengatan", "oneway": "yes", "surface": "asphalt", "wikidata": "Q10606799", "wikipedia": "sv:Odengatan"}}, {"type": "Feature", "id": "way/759406502", "geometry": {"type": "LineString", "coordinates": [[18.047294, 59.342017], [18.047187, 59.34199], [18.045937, 59.341681], [18.04569, 59.341619]]}, "properties": {"@id": "way/759406502", "foot": "no", "highway": "secondary", "maxspeed": "50", "name": "Odengatan", "oneway": "yes", "sidewalk": "separate", "surface": "asphalt", "wikidata": "Q10606799", "wikipedia": "sv:Odengatan"}}, {"type": "Feature", "id": "way/765215210", "geometry": {"type": "LineString", "coordinates": [[18.073155, 59.320554], [18.072807, 59.320638], [18.072618, 59.320693], [18.072465, 59.320733], [18.072342, 59.320746], [18.07229, 59.320746], [18.072207, 59.320737], [18.072073, 59.320704], [18.072011, 59.320675], [18.071947, 59.320655], [18.071875, 59.320642], [18.071801, 59.320635], [18.071678, 59.320627], [18.071558, 59.320641]]}, "properties": {"@id": "way/765215210", "bicycle": "no", "foot": "no", "highway": "secondary", "lit": "yes", "maxheight": "3.4", "maxspeed": "30", "name": "S\u00f6dra J\u00e4rngraven", "ref": "222", "surface": "asphalt", "wikidata": "Q18613081", "wikipedia": "sv:J\u00e4rngraven"}}, {"type": "Feature", "id": "way/765215211", "geometry": {"type": "LineString", "coordinates": [[18.070782, 59.320785], [18.070591, 59.320837], [18.070463, 59.32087]]}, "properties": {"@id": "way/765215211", "foot": "no", "highway": "secondary", "maxspeed": "30", "name": "Guldfj\u00e4rdsplan", "oneway": "yes", "ref": "222", "surface": "asphalt", "wikidata": "Q10510512", "wikipedia": "sv:Guldfj\u00e4rdsplan"}}, {"type": "Feature", "id": "way/765215212", "geometry": {"type": "LineString", "coordinates": [[18.071558, 59.320641], [18.071425, 59.320655], [18.071277, 59.320687], [18.070782, 59.320785]]}, "properties": {"@id": "way/765215212", "bicycle": "no", "foot": "no", "highway": "secondary", "layer": "-3", "lit": "yes", "maxheight": "3.4", "maxspeed": "30", "name": "S\u00f6dra J\u00e4rngraven", "ref": "222", "surface": "asphalt", "tunnel": "yes", "wikidata": "Q18613081", "wikipedia": "sv:J\u00e4rngraven"}}]}