{"type": "FeatureCollection", "features": [{"type": "Feature", "id": "way/1976", "geometry": {"type": "LineString", "coordinates": [[18.073315, 59.329626], [18.073281, 59.329492], [18.073264, 59.329439], [18.073259, 59.329422]]}, "properties": {"@id": "way/1976", "foot": "no", "highway": "tertiary", "maxspeed": "50", "name": "Str\u00f6mbron", "surface": "asphalt"}}, {"type": "Feature", "id": "way/4490202", "geometry": {"type": "LineString", "coordinates": [[18.065896, 59.332475], [18.066185, 59.33249], [18.067853, 59.332562], [18.068081, 59.332572]]}, "properties": {"@id": "way/4490202", "cycleway:right": "lane", "foot": "no", "highway": "tertiary", "maxspeed": "30", "name": "Hamngatan", "oneway": "yes", "source": "survey", "surface": "asphalt", "wikidata": "Q839619", "wikipedia": "sv:Hamngatan, Stockholm"}}, {"type": "Feature", "id": "way/4490262", "geometry": {"type": "LineString", "coordinates": [[18.075049, 59.333742], [18.075161, 59.333643]]}, "properties": {"@id": "way/4490262", "cycleway:right": "lane", "foot": "no", "highway": "tertiary", "maxspeed": "50", "name": "Birger Jarlsgatan", "oneway": "yes", "source": "survey", "surface": "asphalt", "wikidata": "Q2523030", "wikipedia": "sv:Birger Jarlsgatan"}}, {"type": "Feature", "id": "way/4491308", "geometry": {"type": "LineString", "coordinates": [[18.055669, 59.334805], [18.055829, 59.334844]]}, "properties": {"@id": "way/4491308", "highway": "tertiary", "maxspeed": "50", "name": "Olof Palmes Gata", "sidewalk": "separate", "surface": "asphalt", "wikidata": "Q10609262", "wikipedia": "sv:Olof Palmes gata, Stockholm"}}, {"type": "Feature", "id": "way/4647958", "geometry": {"type": "LineString", "coordinates": [[18.057278, 59.328283], [18.055861, 59.328151]]}, "properties": {"@id": "way/4647958", "bridge": "yes", "foot": "no", "highway": "tertiary", "layer": "1", "maxspeed": "40", "name": "Stadshusbron", "oneway": "yes", "surface": "asphalt"}}, {"type": "Feature", "id": "way/4695860", "geometry": {"type": "LineString", "coordinates": [[18.068541, 59.330197], [18.067533, 59.329974], [18.067444, 59.329946], [18.067341, 59.329912]]}, "properties": {"@id": "way/4695860", "highway": "tertiary", "maxspeed": "30", "name": "Jakobsgatan", "oneway": "yes", "surface": "asphalt", "wikidata": "Q10539314", "wikipedia": "sv:Jakobsgatan"}}, {"type": "Feature", "id": "way/4700212", "geometry": {"type": "LineString", "coordinates": [[18.068775, 59.329623], [18.068595, 59.329574], [18.068277, 59.329477], [18.068222, 59.32944]]}, "properties": {"@id": "way/4700212", "foot": "no", "highway": "tertiary", "maxspeed": "30", "name": "Gustav Adolfs Torg", "name:de": "Gustav-Adolf-Platz", "oneway": "yes", "surface": "asphalt", "wikidata": "Q2854887", "wikipedia": "sv:Gustav Adolfs torg, Stockholm"}}, {"type": "Feature", "id": "way/4700213", "geometry": {"type": "LineString", "coordinates": [[18.069515, 59.329249], [18.071653, 59.329468], [18.07178, 59.329477], [18.072761, 59.329559], [18.072907, 59.329574], [18.073315, 59.329626]]}, "properties": {"@id": "way/4700213", "foot": "no", "highway": "tertiary", "maxspeed": "50", "name": "Str\u00f6mgatan", "surface": "asphalt", "wikidata": "Q10682193", "wikipedia": "sv:Str\u00f6mgatan"}}, {"type": "Feature", "id": "way/4706304", "geometry": {"type": "LineString", "coordinates": [[18.063481, 59.335515], [18.063681, 59.33556]]}, "properties": {"@id": "way/4706304", "check_date": "2019-12-19", "highway": "tertiary", "maxspeed": "50", "name": "Kungsgatan", "surface": "asphalt", "wikidata": "Q836909", "wikipedia": "sv:Kungsgatan, Stockholm"}}, {"type": "Feature", "id": "way/4742643", "geometry": {"type": "LineString", "coordinates": [[18.067341, 59.329912], [18.067372, 59.329857], [18.067717, 59.329532], [18.067745, 59.329506], [18.067819, 59.329436]]}, "properties": {"@id": "way/4742643", "cycleway:right": "lane", "highway": "tertiary", "maxspeed": "30", "name": "Malmtorgsgatan", "oneway": "yes", "surface": "asphalt"}}, {"type": "Feature", "id": "way/4968750", "geometry": {"type": "LineString", "coordinates": [[18.074576, 59.329743], [18.074411, 59.329773], [18.074252, 59.329774], [18.07371, 59.32971], [18.073572, 59.329697], [18.073315, 59.329626]]}, "properties": {"@id": "way/4968750", "foot": "no", "highway": "tertiary", "maxspeed": "50", "name": "S\u00f6dra Blasieholmshamnen", "oneway": "yes", "surface": "asphalt", "wikidata": "Q10688870", "wikipedia": "sv:S\u00f6dra Blasieholmshamnen"}}, {"type": "Feature", "id": "way/5173752", "geometry": {"type": "LineString", "coordinates": [[18.057613, 59.328249], [18.05786, 59.328275], [18.057939, 59.328287], [18.058025, 59.328309]]}, "properties": {"@id": "way/5173752", "foot": "no", "highway": "tertiary", "maxspeed": "50", "name": "Klarastrandsleden", "oneway": "yes", "surface": "asphalt"}}, {"type": "Feature", "id": "way/8021809", "geometry": {"type": "LineString", "coordinates": [[18.053401, 59.329981], [18.05343, 59.3299]]}, "properties": {"@id": "way/8021809", "bridge": "yes", "highway": "tertiary_link", "layer": "2", "maxspeed": "50", "surface": "asphalt"}}, {"type": "Feature", "id": "way/8048436", "geometry": {"type": "LineString", "coordinates": [[18.063806, 59.328518], [18.063811, 59.328579], [18.063779, 59.328655], [18.063595, 59.328831], [18.063544, 59.328879], [18.063492, 59.32894]]}, "properties": {"@id": "way/8048436", "foot": "no", "highway": "tertiary", "lanes": "2", "maxspeed": "50", "name": "R\u00f6dbodtorget", "oneway": "yes", "surface": "asphalt", "wikidata": "Q10658887", "wikipedia": "sv:R\u00f6dbodtorget"}}, {"type": "Feature", "id": "way/8178434", "geometry": {"type": "LineString", "coordinates": [[18.075848, 59.332982], [18.075868, 59.33294], [18.075898, 59.332879], [18.075911, 59.33279]]}, "properties": {"@id": "way/8178434", "foot": "no", "highway": "tertiary", "maxspeed": "50", "name": "Nybroplan", "oneway": "yes", "surface": "asphalt", "wikidata": "Q716848", "wikipedia": "sv:Nybroplan"}}, {"type": "Feature", "id": "way/17404377", "geometry": {"type": "LineString", "coordinates": [[18.071103, 59.334866], [18.071221, 59.334327], [18.071244, 59.334232]]}, "properties": {"@id": "way/17404377", "bicycle": "yes", "cycleway:left": "lane", "highway": "tertiary", "maxspeed": "30", "name": "Norrlandsgatan", "oneway": "yes", "surface": "asphalt", "wikidata": "Q10602871", "wikipedia": "sv:Norrlandsgatan"}}, {"type": "Feature", "id": "way/20151422", "geometry": {"type": "LineString", "coordinates": [[18.064327, 59.334505], [18.064523, 59.334187], [18.064728, 59.333845]]}, "properties": {"@id": "way/20151422", "cycleway:right": "lane", "foot": "no", "highway": "tertiary", "maxspeed": "50", "name": "Sveav\u00e4gen", "oneway": "yes", "sidewalk": "separate", "surface": "asphalt", "wikidata": "Q1788276", "wikipedia": "sv:Sveav\u00e4gen"}}, {"type": "Feature", "id": "way/22884865", "geometry": {"type": "LineString", "coordinates": [[18.04809, 59.336429], [18.048192, 59.336472], [18.048333, 59.336517], [18.048717, 59.336637], [18.050091, 59.336971], [18.050265, 59.337013]]}, "properties": {"@id": "way/22884865", "cycleway:left": "track", "cycleway:right": "lane", "highway": "tertiary", "maxspeed": "50", "name": "Tegn\u00e9rgatan", "sidewalk": "separate", "surface": "asphalt"}}, {"type": "Feature", "id": "way/23088918", "geometry": {"type": "LineString", "coordinates": [[18.063034, 59.328265], [18.063104, 59.328267], [18.063175, 59.328275], [18.063728, 59.328385]]}, "properties": {"@id": "way/23088918", "foot": "no", "highway": "tertiary", "maxspeed": "50", "name": "Fredsgatan", "oneway": "yes", "surface": "asphalt", "wikidata": "Q10498797", "wikipedia": "sv:Fredsgatan, Stockholm"}}, {"type": "Feature", "id": "way/23088942", "geometry": {"type": "LineString", "coordinates": [[18.061226, 59.328522], [18.061054, 59.328471], [18.060905, 59.328428], [18.060703, 59.328374], [18.060499, 59.328331]]}, "properties": {"@id": "way/23088942", "foot": "no", "highway": "tertiary", "maxspeed": "50", "name": "Tegelbacken", "oneway": "yes", "surface": "asphalt", "wikidata": "Q10691825", "wikipedia": "sv:Tegelbacken"}}, {"type": "Feature", "id": "way/23088947", "geometry": {"type": "LineString", "coordinates": [[18.061226, 59.328522], [18.061508, 59.32844]]}, "properties": {"@id": "way/23088947", "foot": "no", "highway": "tertiary", "maxspeed": "50", "name": "Tegelbacken", "oneway": "yes", "surface": "asphalt", "wikidata": "Q10691825", "wikipedia": "sv:Tegelbacken"}}, {"type": "Feature", "id": "way/23089329", "geometry": {"type": "LineString", "coordinates": [[18.063492, 59.32894], [18.063415, 59.32904], [18.063317, 59.329182], [18.063246, 59.329294], [18.06286, 59.329706], [18.062826, 59.329742]]}, "properties": {"@id": "way/23089329", "foot": "no", "highway": "tertiary", "maxspeed": "30", "name": "R\u00f6dbodgatan", "oneway": "yes", "surface": "asphalt"}}, {"type": "Feature", "id": "way/24225426", "geometry": {"type": "LineString", "coordinates": [[18.065514, 59.340786], [18.065795, 59.340662], [18.066274, 59.34047]]}, "properties": {"@id": "way/24225426", "cycleway:right": "track", "foot": "no", "highway": "tertiary", "maxspeed": "50", "name": "Birger Jarlsgatan", "oneway": "yes", "source": "survey", "surface": "asphalt", "wikidata": "Q2523030", "wikipedia": "sv:Birger Jarlsgatan"}}, {"type": "Feature", "id": "way/27344331", "geometry": {"type": "LineString", "coordinates": [[18.063492, 59.32894], [18.06309, 59.328895]]}, "properties": {"@id": "way/27344331", "foot": "no", "highway": "tertiary", "maxspeed": "50", "name": "Tegelbacken", "oneway": "yes", "surface": "asphalt"}}, {"type": "Feature", "id": "way/28345891", "geometry": {"type": "LineString", "coordinates": [[18.062979, 59.328139], [18.064324, 59.327305], [18.065286, 59.326703]]}, "properties": {"@id": "way/28345891", "bridge": "yes", "foot": "no", "highway": "tertiary", "lanes": "1", "layer": "1", "maxspeed": "50", "maxweight": "12", "name": "Vasabron", "oneway": "yes", "surface": "asphalt", "wikidata": "Q7916304", "wikipedia": "sv:Vasabron, Stockholm"}}, {"type": "Feature", "id": "way/30628863", "geometry": {"type": "LineString", "coordinates": [[18.070979, 59.337013], [18.071007, 59.336895], [18.070974, 59.336844], [18.070946, 59.336807], [18.070886, 59.336725], [18.070958, 59.336223], [18.070985, 59.336127]]}, "properties": {"@id": "way/30628863", "highway": "tertiary", "maxspeed": "30", "name": "Norrlandsgatan", "oneway": "yes", "surface": "asphalt", "wikidata": "Q10602871", "wikipedia": "sv:Norrlandsgatan"}}, {"type": "Feature", "id": "way/31585900", "geometry": {"type": "LineString", "coordinates": [[18.058044, 59.328336], [18.058059, 59.328368], [18.058056, 59.328407], [18.058024, 59.328528], [18.057704, 59.328707], [18.057641, 59.328743], [18.057434, 59.328815], [18.056945, 59.328967]]}, "properties": {"@id": "way/31585900", "foot": "no", "highway": "tertiary", "maxspeed": "50", "name": "Blekholmsgatan", "oneway": "yes", "surface": "asphalt"}}, {"type": "Feature", "id": "way/35003962", "geometry": {"type": "LineString", "coordinates": [[18.069583, 59.337795], [18.06999, 59.33761], [18.070136, 59.337533], [18.07028, 59.337444], [18.070979, 59.337013]]}, "properties": {"@id": "way/35003962", "cycleway:right": "track", "foot": "no", "highway": "tertiary", "maxspeed": "50", "name": "Birger Jarlsgatan", "oneway": "yes", "source": "survey", "surface": "asphalt", "wikidata": "Q2523030", "wikipedia": "sv:Birger Jarlsgatan"}}, {"type": "Feature", "id": "way/35205843", "geometry": {"type": "LineString", "coordinates": [[18.059857, 59.339528], [18.060001, 59.339566], [18.061099, 59.339857], [18.061218, 59.339889], [18.062238, 59.340165], [18.062377, 59.340203], [18.062505, 59.340236], [18.063812, 59.340571], [18.063949, 59.340607], [18.064979, 59.340879], [18.065081, 59.340906], [18.065253, 59.340938]]}, "properties": {"@id": "way/35205843", "highway": "tertiary", "maxspeed": "30", "name": "Tegn\u00e9rgatan", "oneway": "yes", "surface": "asphalt", "wikidata": "Q10691873", "wikipedia": "sv:Tegn\u00e9rgatan"}}, {"type": "Feature", "id": "way/35263420", "geometry": {"type": "LineString", "coordinates": [[18.05404, 59.329717], [18.054762, 59.329379], [18.055019, 59.329268], [18.057175, 59.328652], [18.05729, 59.328605], [18.057452, 59.328534], [18.057607, 59.328477], [18.057738, 59.328424], [18.057815, 59.32839], [18.057936, 59.328343]]}, "properties": {"@id": "way/35263420", "bicycle": "no", "foot": "no", "highway": "tertiary", "lanes": "1", "maxspeed": "50", "name": "Klarastrandsleden", "oneway": "yes", "surface": "asphalt"}}, {"type": "Feature", "id": "way/35263421", "geometry": {"type": "LineString", "coordinates": [[18.058025, 59.328309], [18.058044, 59.328336]]}, "properties": {"@id": "way/35263421", "highway": "tertiary", "maxspeed": "50", "name": "Klarastrandsleden", "oneway": "yes", "surface": "asphalt"}}, {"type": "Feature", "id": "way/35263422", "geometry": {"type": "LineString", "coordinates": [[18.057452, 59.328534], [18.057581, 59.328542], [18.057641, 59.328548], [18.057682, 59.328559], [18.057724, 59.328586], [18.057734, 59.328622], [18.057731, 59.328665], [18.057704, 59.328707]]}, "properties": {"@id": "way/35263422", "foot": "no", "highway": "tertiary_link", "maxspeed": "50", "oneway": "yes", "surface": "asphalt"}}, {"type": "Feature", "id": "way/35263424", "geometry": {"type": "LineString", "coordinates": [[18.057936, 59.328343], [18.058025, 59.328309]]}, "properties": {"@id": "way/35263424", "foot": "no", "highway": "tertiary", "maxspeed": "50", "name": "Klarastrandsleden", "oneway": "yes", "surface": "asphalt"}}, {"type": "Feature", "id": "way/35551366", "geometry": {"type": "LineString", "coordinates": [[18.060056, 59.328155], [18.060564, 59.328217]]}, "properties": {"@id": "way/35551366", "foot": "no", "highway": "tertiary", "maxheight": "4.4", "maxspeed": "50", "name": "Tegelbacken", "oneway": "yes", "surface": "asphalt"}}, {"type": "Feature", "id": "way/35551367", "geometry": {"type": "LineString", "coordinates": [[18.059973, 59.328251], [18.059139, 59.328171]]}, "properties": {"@id": "way/35551367", "foot": "no", "highway": "tertiary", "maxheight": "4.4", "maxspeed": "50", "name": "Klarastrandsleden", "oneway": "yes", "surface": "asphalt"}}, {"type": "Feature", "id": "way/35551368", "geometry": {"type": "LineString", "coordinates": [[18.057324, 59.328239], [18.057491, 59.328249], [18.057613, 59.328249], [18.057782, 59.328241], [18.057934, 59.328223], [18.05803, 59.328207], [18.058094, 59.328195], [18.058298, 59.328159], [18.058607, 59.328121], [18.058796, 59.328093], [18.05894, 59.328081], [18.059062, 59.328077], [18.059201, 59.328079], [18.05936, 59.328088]]}, "properties": {"@id": "way/35551368", "foot": "no", "highway": "tertiary", "maxspeed": "50", "name": "Klarastrandsleden", "oneway": "yes", "surface": "asphalt"}}, {"type": "Feature", "id": "way/35551369", "geometry": {"type": "LineString", "coordinates": [[18.058044, 59.328336], [18.05801, 59.32834], [18.057977, 59.328343], [18.057936, 59.328343]]}, "properties": {"@id": "way/35551369", "foot": "no", "highway": "tertiary", "maxspeed": "50", "name": "Klarastrandsleden", "oneway": "yes", "surface": "asphalt"}}, {"type": "Feature", "id": "way/37988913", "geometry": {"type": "LineString", "coordinates": [[18.063681, 59.33556], [18.06393, 59.335624], [18.064091, 59.335666], [18.064468, 59.335752], [18.06483, 59.335809], [18.065284, 59.335856], [18.065737, 59.335882], [18.066665, 59.335925], [18.068533, 59.336012], [18.070789, 59.336117], [18.070985, 59.336127]]}, "properties": {"@id": "way/37988913", "cycleway": "none", "highway": "tertiary", "lit": "yes", "maxspeed": "50", "name": "Kungsgatan", "sidewalk": "both", "surface": "asphalt", "wikidata": "Q836909", "wikipedia": "sv:Kungsgatan, Stockholm"}}, {"type": "Feature", "id": "way/39691469", "geometry": {"type": "LineString", "coordinates": [[18.070985, 59.336127], [18.07101, 59.336042]]}, "properties": {"@id": "way/39691469", "highway": "tertiary", "maxspeed": "30", "name": "Norrlandsgatan", "oneway": "yes", "surface": "asphalt", "wikidata": "Q10602871", "wikipedia": "sv:Norrlandsgatan"}}, {"type": "Feature", "id": "way/39691470", "geometry": {"type": "LineString", "coordinates": [[18.070985, 59.336127], [18.071124, 59.336136], [18.07168, 59.336163]]}, "properties": {"@id": "way/39691470", "highway": "tertiary", "maxspeed": "50", "name": "Kungsgatan", "surface": "asphalt", "wikidata": "Q836909", "wikipedia": "sv:Kungsgatan, Stockholm"}}, {"type": "Feature", "id": "way/40009278", "geometry": {"type": "LineString", "coordinates": [[18.073315, 59.329626], [18.073514, 59.329631], [18.073586, 59.329636], [18.07397, 59.32967]]}, "properties": {"@id": "way/40009278", "cycleway:right": "track", "foot": "no", "highway": "tertiary", "lanes:forward": "3", "maxspeed": "50", "name": "S\u00f6dra Blasieholmshamnen", "oneway": "yes", "surface": "asphalt", "wikidata": "Q10688870", "wikipedia": "sv:S\u00f6dra Blasieholmshamnen"}}, {"type": "Feature", "id": "way/40802594", "geometry": {"type": "LineString", "coordinates": [[18.070404, 59.341247], [18.070036, 59.340759], [18.069965, 59.340637], [18.069945, 59.340576], [18.069929, 59.339888], [18.069931, 59.339769], [18.069929, 59.339459], [18.069907, 59.338539], [18.069906, 59.338414], [18.069889, 59.338041], [18.069852, 59.337973], [18.069787, 59.337914]]}, "properties": {"@id": "way/40802594", "cycleway:right": "shared_lane", "foot": "no", "highway": "tertiary", "lanes": "2", "maxspeed": "50", "name": "Engelbrektsgatan", "oneway": "yes", "surface": "asphalt", "wikidata": "Q15113428", "wikipedia": "sv:Engelbrektsgatan, Stockholm"}}, {"type": "Feature", "id": "way/40802595", "geometry": {"type": "LineString", "coordinates": [[18.066274, 59.34047], [18.066494, 59.340365], [18.066684, 59.340252], [18.066815, 59.340167]]}, "properties": {"@id": "way/40802595", "cycleway:right": "track", "foot": "no", "highway": "tertiary", "maxspeed": "50", "name": "Birger Jarlsgatan", "oneway": "yes", "source": "survey", "surface": "asphalt", "wikidata": "Q2523030", "wikipedia": "sv:Birger Jarlsgatan"}}, {"type": "Feature", "id": "way/40802915", "geometry": {"type": "LineString", "coordinates": [[18.076207, 59.340385], [18.07615, 59.340313], [18.075514, 59.339506], [18.075443, 59.339416], [18.075032, 59.338894], [18.074627, 59.33838]]}, "properties": {"@id": "way/40802915", "bicycle": "yes", "cycleway:right": "share_busway", "highway": "tertiary", "maxspeed": "50", "motor_vehicle": "no", "name": "Sturegatan", "oneway": "yes", "psv": "yes", "source": "survey", "surface": "asphalt", "wikidata": "Q7628957", "wikipedia": "sv:Sturegatan, Stockholm"}}, {"type": "Feature", "id": "way/40859308", "geometry": {"type": "LineString", "coordinates": [[18.060564, 59.328217], [18.061189, 59.328305], [18.0614, 59.328327], [18.061899, 59.328358]]}, "properties": {"@id": "way/40859308", "foot": "no", "highway": "tertiary", "maxspeed": "50", "name": "Tegelbacken", "oneway": "yes", "surface": "asphalt", "wikidata": "Q10691825", "wikipedia": "sv:Tegelbacken"}}, {"type": "Feature", "id": "way/40859309", "geometry": {"type": "LineString", "coordinates": [[18.060499, 59.328331], [18.059973, 59.328251]]}, "properties": {"@id": "way/40859309", "bicycle": "yes", "foot": "no", "highway": "tertiary", "maxheight": "4.4", "maxspeed": "50", "name": "Tegelbacken", "oneway": "yes", "surface": "asphalt"}}, {"type": "Feature", "id": "way/40859310", "geometry": {"type": "LineString", "coordinates": [[18.059139, 59.328171], [18.058959, 59.328179], [18.05886, 59.328189], [18.058553, 59.328231], [18.058343, 59.328277], [18.058193, 59.328311], [18.058119, 59.328325], [18.058044, 59.328336]]}, "properties": {"@id": "way/40859310", "foot": "no", "highway": "tertiary", "maxspeed": "50", "name": "Klarastrandsleden", "oneway": "yes", "surface": "asphalt"}}, {"type": "Feature", "id": "way/40859311", "geometry": {"type": "LineString", "coordinates": [[18.05936, 59.328088], [18.060056, 59.328155]]}, "properties": {"@id": "way/40859311", "foot": "no", "highway": "tertiary", "maxheight": "4.4", "maxspeed": "50", "name": "Klarastrandsleden", "oneway": "yes", "surface": "asphalt"}}, {"type": "Feature", "id": "way/41274654", "geometry": {"type": "LineString", "coordinates": [[18.062556, 59.329685], [18.062599, 59.329643], [18.063098, 59.329132], [18.063144, 59.329055], [18.063148, 59.329015], [18.06309, 59.328895]]}, "properties": {"@id": "way/41274654", "foot": "no", "highway": "tertiary", "lanes": "3", "maxspeed": "30", "name": "R\u00f6dbodgatan", "oneway": "yes", "surface": "asphalt"}}, {"type": "Feature", "id": "way/41486460", "geometry": {"type": "LineString", "coordinates": [[18.068884, 59.329161], [18.069021, 59.329181], [18.069106, 59.329195]]}, "properties": {"@id": "way/41486460", "cycleway:right": "lane", "foot": "no", "highway": "tertiary", "maxspeed": "30", "name": "Gustav Adolfs Torg", "name:de": "Gustav-Adolf-Platz", "oneway": "yes", "surface": "asphalt", "wikidata": "Q2854887", "wikipedia": "sv:Gustav Adolfs torg, Stockholm"}}, {"type": "Feature", "id": "way/41516156", "geometry": {"type": "LineString", "coordinates": [[18.071377, 59.333562], [18.071481, 59.332999], [18.071487, 59.332967], [18.071518, 59.332862]]}, "properties": {"@id": "way/41516156", "bicycle": "yes", "highway": "tertiary", "maxspeed": "30", "name": "Norrlandsgatan", "surface": "asphalt", "wikidata": "Q10602871", "wikipedia": "sv:Norrlandsgatan"}}, {"type": "Feature", "id": "way/41516158", "geometry": {"type": "LineString", "coordinates": [[18.073672, 59.333009], [18.073426, 59.333025], [18.0727, 59.332999], [18.072496, 59.332992], [18.071875, 59.332913], [18.071786, 59.332901]]}, "properties": {"@id": "way/41516158", "cycleway:right": "track", "foot": "no", "highway": "tertiary", "maxspeed": "30", "name": "Hamngatan", "oneway": "yes", "source": "survey", "wikidata": "Q839619", "wikipedia": "sv:Hamngatan, Stockholm"}}, {"type": "Feature", "id": "way/41517359", "geometry": {"type": "LineString", "coordinates": [[18.061899, 59.328358], [18.062303, 59.328317]]}, "properties": {"@id": "way/41517359", "foot": "no", "highway": "tertiary", "maxspeed": "50", "name": "Tegelbacken", "oneway": "yes", "surface": "asphalt", "wikidata": "Q10691825", "wikipedia": "sv:Tegelbacken"}}, {"type": "Feature", "id": "way/41568973", "geometry": {"type": "LineString", "coordinates": [[18.067341, 59.329912], [18.067257, 59.329876], [18.065858, 59.329502], [18.065786, 59.329491], [18.065448, 59.329423], [18.064462, 59.329166], [18.063787, 59.328996], [18.063657, 59.328963], [18.063492, 59.32894]]}, "properties": {"@id": "way/41568973", "highway": "tertiary", "maxspeed": "30", "name": "Jakobsgatan", "oneway": "yes", "surface": "asphalt", "wikidata": "Q10539314", "wikipedia": "sv:Jakobsgatan"}}, {"type": "Feature", "id": "way/41568974", "geometry": {"type": "LineString", "coordinates": [[18.067819, 59.329436], [18.067929, 59.329373], [18.068058, 59.329304], [18.068189, 59.32925]]}, "properties": {"@id": "way/41568974", "cycleway:right": "lane", "highway": "tertiary", "maxspeed": "30", "name": "Gustav Adolfs Torg", "name:de": "Gustav-Adolf-Platz", "oneway": "yes", "surface": "asphalt"}}, {"type": "Feature", "id": "way/41568977", "geometry": {"type": "LineString", "coordinates": [[18.069146, 59.329318], [18.069152, 59.329382], [18.069139, 59.329439], [18.069053, 59.329525]]}, "properties": {"@id": "way/41568977", "cycleway:right": "track", "foot": "no", "highway": "tertiary", "maxspeed": "30", "name": "Gustav Adolfs Torg", "name:de": "Gustav-Adolf-Platz", "oneway": "yes", "surface": "asphalt", "wikidata": "Q2854887", "wikipedia": "sv:Gustav Adolfs torg, Stockholm"}}, {"type": "Feature", "id": "way/41568980", "geometry": {"type": "LineString", "coordinates": [[18.064265, 59.341907], [18.064374, 59.341806], [18.065082, 59.341088], [18.065117, 59.341053], [18.065253, 59.340938]]}, "properties": {"@id": "way/41568980", "cycleway:right": "track", "foot": "no", "highway": "tertiary", "maxspeed": "50", "name": "Birger Jarlsgatan", "oneway": "yes", "source": "survey", "surface": "asphalt", "wikidata": "Q2523030", "wikipedia": "sv:Birger Jarlsgatan"}}, {"type": "Feature", "id": "way/41568985", "geometry": {"type": "LineString", "coordinates": [[18.068775, 59.329623], [18.068693, 59.329727], [18.068601, 59.330111], [18.068541, 59.330197]]}, "properties": {"@id": "way/41568985", "highway": "tertiary", "maxspeed": "30", "name": "Regeringsgatan", "oneway": "yes", "surface": "asphalt", "wikidata": "Q10650487", "wikipedia": "sv:Regeringsgatan, Stockholm"}}, {"type": "Feature", "id": "way/41679291", "geometry": {"type": "LineString", "coordinates": [[18.063728, 59.328385], [18.063795, 59.328438], [18.063813, 59.328477], [18.063806, 59.328518]]}, "properties": {"@id": "way/41679291", "foot": "no", "highway": "tertiary", "maxspeed": "50", "name": "R\u00f6dbodtorget", "oneway": "yes", "surface": "asphalt", "wikidata": "Q10658887", "wikipedia": "sv:R\u00f6dbodtorget"}}, {"type": "Feature", "id": "way/41869017", "geometry": {"type": "LineString", "coordinates": [[18.075848, 59.332982], [18.075793, 59.332987]]}, "properties": {"@id": "way/41869017", "foot": "no", "highway": "tertiary", "maxspeed": "50", "name": "Hamngatan", "oneway": "yes", "source": "survey", "surface": "asphalt", "wikidata": "Q839619", "wikipedia": "sv:Hamngatan, Stockholm"}}, {"type": "Feature", "id": "way/42500883", "geometry": {"type": "LineString", "coordinates": [[18.070979, 59.337013], [18.071162, 59.336906], [18.072017, 59.336331], [18.07208, 59.336289], [18.072168, 59.33622]]}, "properties": {"@id": "way/42500883", "cycleway:right": "track", "foot": "no", "highway": "tertiary", "maxspeed": "50", "name": "Birger Jarlsgatan", "oneway": "yes", "surface": "asphalt", "wikidata": "Q2523030", "wikipedia": "sv:Birger Jarlsgatan"}}, {"type": "Feature", "id": "way/42559625", "geometry": {"type": "LineString", "coordinates": [[18.064863, 59.33276], [18.064821, 59.332738], [18.064781, 59.33271], [18.064738, 59.332667], [18.06471, 59.332616], [18.064704, 59.332566], [18.064719, 59.33251], [18.064763, 59.332454], [18.064812, 59.332416]]}, "properties": {"@id": "way/42559625", "bicycle": "yes", "check_date": "2020-01-05", "cycleway:right": "track", "foot": "no", "highway": "tertiary", "junction": "roundabout", "maxspeed": "50", "name": "Sergels Torg", "sidewalk": "separate", "surface": "asphalt"}}, {"type": "Feature", "id": "way/42978106", "geometry": {"type": "LineString", "coordinates": [[18.06309, 59.328895], [18.062602, 59.328828], [18.062282, 59.328781], [18.062066, 59.328779], [18.061707, 59.32872], [18.061588, 59.3287]]}, "properties": {"@id": "way/42978106", "foot": "no", "highway": "tertiary", "maxspeed": "50", "name": "Tegelbacken", "oneway": "yes", "surface": "asphalt", "wikidata": "Q10691825", "wikipedia": "sv:Tegelbacken"}}, {"type": "Feature", "id": "way/43054916", "geometry": {"type": "LineString", "coordinates": [[18.072168, 59.33622], [18.07224, 59.336161]]}, "properties": {"@id": "way/43054916", "cycleway": "lane", "foot": "no", "highway": "tertiary", "maxspeed": "50", "name": "Birger Jarlsgatan", "oneway": "yes", "source": "survey", "surface": "asphalt"}}, {"type": "Feature", "id": "way/101246888", "geometry": {"type": "LineString", "coordinates": [[18.068189, 59.32925], [18.068289, 59.329224], [18.068392, 59.329198], [18.068576, 59.32916], [18.068726, 59.32915], [18.068884, 59.329161]]}, "properties": {"@id": "way/101246888", "cycleway:right": "lane", "foot": "no", "highway": "tertiary", "maxspeed": "30", "name": "Gustav Adolfs Torg", "name:de": "Gustav-Adolf-Platz", "oneway": "yes", "surface": "asphalt", "wikidata": "Q2854887", "wikipedia": "sv:Gustav Adolfs torg, Stockholm"}}, {"type": "Feature", "id": "way/121752189", "geometry": {"type": "LineString", "coordinates": [[18.063962, 59.33507], [18.06399, 59.335002], [18.064023, 59.334948], [18.064062, 59.334879], [18.064095, 59.334828], [18.064327, 59.334505]]}, "properties": {"@id": "way/121752189", "cycleway:right": "lane", "foot": "no", "highway": "tertiary", "maxspeed": "50", "name": "Sveav\u00e4gen", "oneway": "yes", "sidewalk": "separate", "surface": "asphalt", "wikidata": "Q1788276", "wikipedia": "sv:Sveav\u00e4gen"}}, {"type": "Feature", "id": "way/124626938", "geometry": {"type": "LineString", "coordinates": [[18.068081, 59.332572], [18.068332, 59.332583], [18.069524, 59.33263], [18.070006, 59.332643], [18.070078, 59.332645], [18.071243, 59.332707], [18.071344, 59.332712], [18.07161, 59.332761]]}, "properties": {"@id": "way/124626938", "cycleway:right": "track", "foot": "no", "highway": "tertiary", "lanes": "1", "maxspeed": "30", "name": "Hamngatan", "oneway": "yes", "source": "survey", "surface": "asphalt", "wikidata": "Q839619", "wikipedia": "sv:Hamngatan, Stockholm"}}, {"type": "Feature", "id": "way/124626942", "geometry": {"type": "LineString", "coordinates": [[18.071518, 59.332862], [18.071278, 59.332842], [18.070128, 59.332791], [18.070055, 59.332788], [18.068317, 59.332691], [18.068071, 59.332646]]}, "properties": {"@id": "way/124626942", "cycleway:right": "track", "foot": "no", "highway": "tertiary", "lanes": "1", "maxspeed": "30", "name": "Hamngatan", "oneway": "yes", "parking:lane:both": "no_stopping", "source": "survey", "surface": "asphalt", "wikidata": "Q839619", "wikipedia": "sv:Hamngatan, Stockholm"}}, {"type": "Feature", "id": "way/124626943", "geometry": {"type": "LineString", "coordinates": [[18.068071, 59.332646], [18.068077, 59.332601], [18.068081, 59.332572]]}, "properties": {"@id": "way/124626943", "highway": "tertiary", "maxspeed": "30", "name": "Regeringsgatan", "surface": "asphalt", "wikidata": "Q10650487", "wikipedia": "sv:Regeringsgatan, Stockholm"}}, {"type": "Feature", "id": "way/124626946", "geometry": {"type": "LineString", "coordinates": [[18.068081, 59.332572], [18.068093, 59.332483], [18.068285, 59.331275], [18.068379, 59.330768]]}, "properties": {"@id": "way/124626946", "highway": "tertiary", "maxspeed": "30", "name": "Regeringsgatan", "surface": "asphalt", "wikidata": "Q10650487", "wikipedia": "sv:Regeringsgatan, Stockholm"}}, {"type": "Feature", "id": "way/124653872", "geometry": {"type": "LineString", "coordinates": [[18.075191, 59.333752], [18.074973, 59.333938], [18.074923, 59.333981], [18.074783, 59.334073], [18.074089, 59.334703], [18.073838, 59.334932], [18.073199, 59.33552], [18.073034, 59.335681], [18.072999, 59.335714], [18.072561, 59.336081], [18.072522, 59.336113], [18.072429, 59.33618]]}, "properties": {"@id": "way/124653872", "cycleway:right": "lane", "foot": "no", "highway": "tertiary", "maxspeed": "50", "name": "Birger Jarlsgatan", "oneway": "yes", "surface": "asphalt", "wikidata": "Q2523030", "wikipedia": "sv:Birger Jarlsgatan"}}, {"type": "Feature", "id": "way/124653875", "geometry": {"type": "LineString", "coordinates": [[18.076199, 59.332957], [18.076027, 59.333046]]}, "properties": {"@id": "way/124653875", "foot": "no", "highway": "tertiary", "maxspeed": "50", "name": "Birger Jarlsgatan", "oneway": "yes", "source": "survey", "surface": "asphalt"}}, {"type": "Feature", "id": "way/124653878", "geometry": {"type": "LineString", "coordinates": [[18.075513, 59.333329], [18.075619, 59.333195], [18.075639, 59.333148], [18.075641, 59.333118], [18.075625, 59.333083], [18.075562, 59.333047], [18.075436, 59.333019]]}, "properties": {"@id": "way/124653878", "cycleway:right": "shared_lane", "foot": "no", "highway": "tertiary", "maxspeed": "50", "name": "Birger Jarlsgatan", "oneway": "yes", "surface": "asphalt", "wikidata": "Q2523030", "wikipedia": "sv:Birger Jarlsgatan"}}, {"type": "Feature", "id": "way/125521915", "geometry": {"type": "LineString", "coordinates": [[18.072342, 59.336236], [18.072235, 59.336302]]}, "properties": {"@id": "way/125521915", "cycleway:right": "lane", "foot": "no", "highway": "tertiary", "maxspeed": "50", "name": "Birger Jarlsgatan", "oneway": "yes", "source": "survey", "surface": "asphalt"}}, {"type": "Feature", "id": "way/125521916", "geometry": {"type": "LineString", "coordinates": [[18.072235, 59.336302], [18.072084, 59.336397]]}, "properties": {"@id": "way/125521916", "cycleway:right": "lane", "foot": "no", "highway": "tertiary", "maxspeed": "50", "name": "Birger Jarlsgatan", "oneway": "yes", "surface": "asphalt", "wikidata": "Q2523030", "wikipedia": "sv:Birger Jarlsgatan"}}, {"type": "Feature", "id": "way/125521917", "geometry": {"type": "LineString", "coordinates": [[18.071207, 59.336965], [18.070869, 59.337184], [18.070517, 59.337451], [18.070342, 59.337558], [18.070204, 59.337632], [18.070014, 59.33771], [18.069671, 59.337844]]}, "properties": {"@id": "way/125521917", "cycleway:right": "track", "foot": "no", "highway": "tertiary", "maxspeed": "50", "name": "Birger Jarlsgatan", "oneway": "yes", "surface": "asphalt", "wikidata": "Q2523030", "wikipedia": "sv:Birger Jarlsgatan"}}, {"type": "Feature", "id": "way/125521925", "geometry": {"type": "LineString", "coordinates": [[18.070342, 59.337558], [18.070243, 59.337568], [18.070181, 59.337556], [18.070136, 59.337533]]}, "properties": {"@id": "way/125521925", "foot": "no", "highway": "tertiary", "name": "Birger Jarlsgatan", "oneway": "yes", "wikidata": "Q2523030", "wikipedia": "sv:Birger Jarlsgatan"}}, {"type": "Feature", "id": "way/125910435", "geometry": {"type": "LineString", "coordinates": [[18.05886, 59.328189], [18.058662, 59.328248], [18.058463, 59.328315], [18.058263, 59.328412], [18.058238, 59.328424], [18.058227, 59.328431], [18.058114, 59.328485], [18.058024, 59.328528]]}, "properties": {"@id": "way/125910435", "foot": "no", "highway": "tertiary", "maxspeed": "50", "name": "Blekholmsgatan", "oneway": "yes", "surface": "asphalt"}}, {"type": "Feature", "id": "way/125910436", "geometry": {"type": "LineString", "coordinates": [[18.05729, 59.328605], [18.05743, 59.328508], [18.057473, 59.32846], [18.05749, 59.328408], [18.057486, 59.328394], [18.057482, 59.328379], [18.057458, 59.328332], [18.057408, 59.328295]]}, "properties": {"@id": "way/125910436", "foot": "no", "highway": "tertiary", "maxspeed": "50", "name": "Klarastrandsleden", "oneway": "yes", "surface": "asphalt"}}, {"type": "Feature", "id": "way/129019106", "geometry": {"type": "LineString", "coordinates": [[18.07161, 59.332761], [18.071825, 59.332833]]}, "properties": {"@id": "way/129019106", "cycleway:right": "track", "foot": "no", "highway": "tertiary", "maxspeed": "30", "name": "Hamngatan", "oneway": "yes", "source": "survey", "surface": "asphalt", "wikidata": "Q839619", "wikipedia": "sv:Hamngatan, Stockholm"}}, {"type": "Feature", "id": "way/129019108", "geometry": {"type": "LineString", "coordinates": [[18.07161, 59.332761], [18.071583, 59.332785], [18.071537, 59.332831]]}, "properties": {"@id": "way/129019108", "highway": "tertiary", "maxspeed": "30", "name": "Kungstr\u00e4dg\u00e5rdsgatan", "surface": "asphalt"}}, {"type": "Feature", "id": "way/135299048", "geometry": {"type": "LineString", "coordinates": [[18.069671, 59.337844], [18.06949, 59.337924], [18.06926, 59.338025], [18.069051, 59.338156], [18.068843, 59.338371], [18.068345, 59.33886], [18.067876, 59.339325], [18.067776, 59.339421], [18.067465, 59.339711]]}, "properties": {"@id": "way/135299048", "cycleway:right": "track", "foot": "no", "highway": "tertiary", "maxspeed": "50", "name": "Birger Jarlsgatan", "oneway": "yes", "source": "survey", "surface": "asphalt", "wikidata": "Q2523030", "wikipedia": "sv:Birger Jarlsgatan"}}, {"type": "Feature", "id": "way/135299053", "geometry": {"type": "LineString", "coordinates": [[18.065253, 59.340938], [18.065514, 59.340786]]}, "properties": {"@id": "way/135299053", "cycleway": "track", "cycleway:right": "track", "foot": "no", "highway": "tertiary", "maxspeed": "50", "name": "Birger Jarlsgatan", "oneway": "yes", "source": "survey", "surface": "asphalt"}}, {"type": "Feature", "id": "way/137504572", "geometry": {"type": "LineString", "coordinates": [[18.063806, 59.328518], [18.063569, 59.328728], [18.063475, 59.32879], [18.063393, 59.328832], [18.063246, 59.32887], [18.06309, 59.328895]]}, "properties": {"@id": "way/137504572", "foot": "no", "highway": "tertiary", "lanes": "3", "maxspeed": "50", "name": "R\u00f6dbodtorget", "oneway": "yes", "surface": "asphalt", "wikidata": "Q10658887", "wikipedia": "sv:R\u00f6dbodtorget"}}, {"type": "Feature", "id": "way/138007081", "geometry": {"type": "LineString", "coordinates": [[18.065431, 59.340945], [18.065265, 59.341088], [18.065116, 59.341242], [18.064555, 59.34185], [18.064447, 59.341966], [18.064311, 59.342081], [18.063738, 59.342627], [18.063663, 59.342712], [18.063588, 59.342795], [18.06351, 59.342894]]}, "properties": {"@id": "way/138007081", "foot": "no", "highway": "tertiary", "maxspeed": "50", "name": "Birger Jarlsgatan", "oneway": "yes", "surface": "asphalt", "wikidata": "Q2523030", "wikipedia": "sv:Birger Jarlsgatan"}}, {"type": "Feature", "id": "way/161451893", "geometry": {"type": "LineString", "coordinates": [[18.07168, 59.336163], [18.071904, 59.336155], [18.072006, 59.336156], [18.07224, 59.336161]]}, "properties": {"@id": "way/161451893", "highway": "tertiary", "maxspeed": "50", "name": "Kungsgatan", "oneway": "yes", "surface": "asphalt", "wikidata": "Q836909", "wikipedia": "sv:Kungsgatan, Stockholm"}}, {"type": "Feature", "id": "way/161451894", "geometry": {"type": "LineString", "coordinates": [[18.07224, 59.336161], [18.072292, 59.336166]]}, "properties": {"@id": "way/161451894", "cycleway:right": "lane", "foot": "no", "highway": "tertiary", "maxspeed": "50", "name": "Sturegatan", "oneway": "yes", "source": "survey", "surface": "asphalt", "wikidata": "Q7628957", "wikipedia": "sv:Sturegatan, Stockholm"}}, {"type": "Feature", "id": "way/162142149", "geometry": {"type": "LineString", "coordinates": [[18.062282, 59.328781], [18.062089, 59.328722], [18.061712, 59.328661], [18.061638, 59.328643]]}, "properties": {"@id": "way/162142149", "foot": "no", "highway": "tertiary", "maxspeed": "50", "name": "Tegelbacken", "oneway": "yes", "surface": "asphalt", "wikidata": "Q10691825", "wikipedia": "sv:Tegelbacken"}}, {"type": "Feature", "id": "way/162142150", "geometry": {"type": "LineString", "coordinates": [[18.061638, 59.328643], [18.061548, 59.32862], [18.061356, 59.328563]]}, "properties": {"@id": "way/162142150", "foot": "no", "highway": "tertiary", "maxspeed": "50", "name": "Tegelbacken", "oneway": "yes", "surface": "asphalt"}}, {"type": "Feature", "id": "way/162142151", "geometry": {"type": "LineString", "coordinates": [[18.062303, 59.328317], [18.062435, 59.328322], [18.062639, 59.328299], [18.062708, 59.328292], [18.062819, 59.328279], [18.062909, 59.328267]]}, "properties": {"@id": "way/162142151", "foot": "no", "highway": "tertiary", "maxspeed": "50", "name": "Tegelbacken", "oneway": "yes", "surface": "asphalt", "wikidata": "Q10691825", "wikipedia": "sv:Tegelbacken"}}, {"type": "Feature", "id": "way/162142152", "geometry": {"type": "LineString", "coordinates": [[18.062602, 59.328828], [18.062466, 59.328738], [18.061969, 59.328658], [18.061863, 59.32864], [18.0618, 59.328626], [18.061746, 59.328605], [18.061718, 59.328582], [18.061699, 59.328556], [18.061693, 59.328511], [18.061702, 59.328485], [18.061726, 59.328461], [18.061899, 59.328358]]}, "properties": {"@id": "way/162142152", "foot": "no", "highway": "tertiary", "maxspeed": "50", "name": "Tegelbacken", "oneway": "yes", "surface": "asphalt", "wikidata": "Q10691825", "wikipedia": "sv:Tegelbacken"}}, {"type": "Feature", "id": "way/162142153", "geometry": {"type": "LineString", "coordinates": [[18.063086, 59.328158], [18.063057, 59.328207]]}, "properties": {"@id": "way/162142153", "foot": "no", "highway": "tertiary", "maxspeed": "50", "name": "Vasabron", "oneway": "yes", "surface": "asphalt"}}, {"type": "Feature", "id": "way/162142154", "geometry": {"type": "LineString", "coordinates": [[18.065353, 59.326732], [18.06421, 59.327448], [18.063268, 59.328029], [18.063106, 59.328139], [18.063086, 59.328158]]}, "properties": {"@id": "way/162142154", "bridge": "yes", "foot": "no", "highway": "tertiary", "lanes": "2", "layer": "1", "maxspeed": "50", "maxweight": "12", "name": "Vasabron", "oneway": "yes", "surface": "asphalt", "wikidata": "Q7916304", "wikipedia": "sv:Vasabron, Stockholm"}}, {"type": "Feature", "id": "way/162222847", "geometry": {"type": "LineString", "coordinates": [[18.076546, 59.332601], [18.076613, 59.332513], [18.076632, 59.332464], [18.076625, 59.332417], [18.076587, 59.332369], [18.076335, 59.332164]]}, "properties": {"@id": "way/162222847", "foot": "no", "highway": "tertiary", "maxspeed": "50", "name": "Nybrokajen", "oneway": "yes", "surface": "asphalt", "wikidata": "Q10604376", "wikipedia": "sv:Nybrokajen"}}, {"type": "Feature", "id": "way/162222850", "geometry": {"type": "LineString", "coordinates": [[18.076335, 59.332164], [18.076503, 59.332249], [18.076688, 59.332319], [18.076778, 59.332343], [18.076842, 59.332361], [18.076976, 59.332399]]}, "properties": {"@id": "way/162222850", "cycleway:right": "track", "foot": "no", "highway": "tertiary", "maxspeed": "50", "name": "Nybrokajen", "oneway": "yes", "surface": "asphalt", "wikidata": "Q10604376", "wikipedia": "sv:Nybrokajen"}}, {"type": "Feature", "id": "way/163860783", "geometry": {"type": "LineString", "coordinates": [[18.075161, 59.333643], [18.075513, 59.333329]]}, "properties": {"@id": "way/163860783", "cycleway:right": "lane", "electrified": "contact_line", "foot": "no", "frequency": "0", "gauge": "1435", "highway": "tertiary", "maxspeed": "50", "name": "Birger Jarlsgatan", "oneway": "yes", "railway": "tram", "source": "survey", "surface": "asphalt", "tracks": "1", "voltage": "750", "wikidata": "Q2523030", "wikipedia": "sv:Birger Jarlsgatan"}}, {"type": "Feature", "id": "way/167514876", "geometry": {"type": "LineString", "coordinates": [[18.062909, 59.328267], [18.062973, 59.328265], [18.063034, 59.328265]]}, "properties": {"@id": "way/167514876", "foot": "no", "highway": "tertiary", "maxspeed": "50", "name": "Tegelbacken", "oneway": "yes", "surface": "asphalt"}}, {"type": "Feature", "id": "way/167816643", "geometry": {"type": "LineString", "coordinates": [[18.064812, 59.332416], [18.064856, 59.332391], [18.064901, 59.332371], [18.06491, 59.332368], [18.064957, 59.332353], [18.065042, 59.332333], [18.065116, 59.332324], [18.065193, 59.33232], [18.065283, 59.332324], [18.06534, 59.33233], [18.065435, 59.33235], [18.065496, 59.33237]]}, "properties": {"@id": "way/167816643", "bicycle": "yes", "cycleway:right": "track", "foot": "no", "highway": "tertiary", "junction": "roundabout", "maxspeed": "50", "name": "Sergels Torg", "railway": "tram", "surface": "asphalt"}}, {"type": "Feature", "id": "way/167816644", "geometry": {"type": "LineString", "coordinates": [[18.065006, 59.332808], [18.064952, 59.332794], [18.064909, 59.332779], [18.064863, 59.33276]]}, "properties": {"@id": "way/167816644", "bicycle": "yes", "foot": "no", "highway": "tertiary", "junction": "roundabout", "maxspeed": "50", "name": "Sergels Torg", "surface": "asphalt"}}, {"type": "Feature", "id": "way/167816645", "geometry": {"type": "LineString", "coordinates": [[18.074627, 59.33838], [18.074531, 59.338262], [18.074021, 59.337634], [18.073629, 59.337188], [18.0736, 59.337155], [18.073529, 59.337082]]}, "properties": {"@id": "way/167816645", "bicycle": "yes", "cycleway:right": "share_busway", "foot": "no", "highway": "tertiary", "maxspeed": "50", "motor_vehicle": "no", "name": "Sturegatan", "oneway": "yes", "psv": "yes", "source": "survey", "surface": "asphalt", "wikidata": "Q7628957", "wikipedia": "sv:Sturegatan, Stockholm"}}, {"type": "Feature", "id": "way/168024440", "geometry": {"type": "LineString", "coordinates": [[18.072168, 59.33622], [18.071955, 59.336198], [18.07168, 59.336163]]}, "properties": {"@id": "way/168024440", "highway": "tertiary", "maxspeed": "50", "name": "Kungsgatan", "oneway": "yes", "surface": "asphalt", "wikidata": "Q836909", "wikipedia": "sv:Kungsgatan, Stockholm"}}, {"type": "Feature", "id": "way/168024442", "geometry": {"type": "LineString", "coordinates": [[18.074704, 59.338364], [18.074955, 59.338674]]}, "properties": {"@id": "way/168024442", "cycleway:right": "share_busway", "foot": "no", "highway": "tertiary", "maxspeed": "50", "name": "Sturegatan", "oneway": "yes", "source": "survey", "surface": "asphalt", "wikidata": "Q7628957", "wikipedia": "sv:Sturegatan, Stockholm"}}, {"type": "Feature", "id": "way/176240974", "geometry": {"type": "LineString", "coordinates": [[18.075964, 59.332775], [18.076546, 59.332601], [18.076814, 59.33251], [18.076862, 59.332493], [18.077051, 59.332444]]}, "properties": {"@id": "way/176240974", "foot": "no", "highway": "tertiary", "maxspeed": "50", "name": "Nybroplan", "oneway": "yes", "surface": "asphalt", "wikidata": "Q716848", "wikipedia": "sv:Nybroplan"}}, {"type": "Feature", "id": "way/176356748", "geometry": {"type": "LineString", "coordinates": [[18.077131, 59.33271], [18.076248, 59.332944], [18.076199, 59.332957], [18.07597, 59.332973], [18.075848, 59.332982]]}, "properties": {"@id": "way/176356748", "foot": "no", "highway": "tertiary", "maxspeed": "50", "name": "Nybroplan", "oneway": "yes", "surface": "asphalt", "wikidata": "Q716848", "wikipedia": "sv:Nybroplan"}}, {"type": "Feature", "id": "way/176356751", "geometry": {"type": "LineString", "coordinates": [[18.061356, 59.328563], [18.061311, 59.32855], [18.061226, 59.328522]]}, "properties": {"@id": "way/176356751", "foot": "no", "highway": "tertiary", "maxspeed": "50", "name": "Tegelbacken", "oneway": "yes", "surface": "asphalt"}}, {"type": "Feature", "id": "way/177035828", "geometry": {"type": "LineString", "coordinates": [[18.065592, 59.340871], [18.065431, 59.340945]]}, "properties": {"@id": "way/177035828", "foot": "no", "highway": "tertiary", "maxspeed": "50", "name": "Birger Jarlsgatan", "oneway": "yes", "source": "survey", "surface": "asphalt", "wikidata": "Q2523030", "wikipedia": "sv:Birger Jarlsgatan"}}, {"type": "Feature", "id": "way/177560532", "geometry": {"type": "LineString", "coordinates": [[18.075406, 59.332953], [18.075592, 59.332889], [18.075616, 59.33288], [18.07567, 59.332863], [18.075831, 59.332814], [18.075856, 59.332806]]}, "properties": {"@id": "way/177560532", "cycleway:right": "track", "foot": "no", "highway": "tertiary", "maxspeed": "50", "name": "Hamngatan", "oneway": "yes", "source": "survey", "surface": "asphalt", "wikidata": "Q839619", "wikipedia": "sv:Hamngatan, Stockholm"}}, {"type": "Feature", "id": "way/177560535", "geometry": {"type": "LineString", "coordinates": [[18.075698, 59.332998], [18.075641, 59.333004], [18.075562, 59.333014], [18.075436, 59.333019]]}, "properties": {"@id": "way/177560535", "electrified": "contact_line", "foot": "no", "frequency": "0", "gauge": "1435", "highway": "tertiary", "maxspeed": "50", "name": "Hamngatan", "oneway": "yes", "railway": "tram", "source": "survey", "surface": "asphalt", "tracks": "1", "voltage": "750", "wikidata": "Q839619", "wikipedia": "sv:Hamngatan, Stockholm"}}, {"type": "Feature", "id": "way/179043386", "geometry": {"type": "LineString", "coordinates": [[18.062916, 59.328185], [18.062979, 59.328139]]}, "properties": {"@id": "way/179043386", "foot": "no", "highway": "tertiary", "maxspeed": "50", "name": "Tegelbacken", "oneway": "yes", "surface": "asphalt"}}, {"type": "Feature", "id": "way/179043387", "geometry": {"type": "LineString", "coordinates": [[18.063057, 59.328207], [18.063034, 59.328265]]}, "properties": {"@id": "way/179043387", "foot": "no", "highway": "tertiary", "maxspeed": "50", "name": "Vasabron", "oneway": "yes", "surface": "asphalt"}}, {"type": "Feature", "id": "way/190803735", "geometry": {"type": "LineString", "coordinates": [[18.062662, 59.336549], [18.062504, 59.336508], [18.062356, 59.336469], [18.061819, 59.336326], [18.061744, 59.336279]]}, "properties": {"@id": "way/190803735", "highway": "tertiary", "maxspeed": "50", "name": "Olof Palmes Gata", "oneway": "yes", "surface": "asphalt", "wikidata": "Q10609262", "wikipedia": "sv:Olof Palmes gata, Stockholm"}}, {"type": "Feature", "id": "way/190803736", "geometry": {"type": "LineString", "coordinates": [[18.061744, 59.336279], [18.061865, 59.336283], [18.062397, 59.336425], [18.062545, 59.336464], [18.062703, 59.336506]]}, "properties": {"@id": "way/190803736", "highway": "tertiary", "maxspeed": "50", "name": "Olof Palmes Gata", "oneway": "yes", "surface": "asphalt", "wikidata": "Q10609262", "wikipedia": "sv:Olof Palmes gata, Stockholm"}}, {"type": "Feature", "id": "way/212085574", "geometry": {"type": "LineString", "coordinates": [[18.075513, 59.333329], [18.075745, 59.333101], [18.075773, 59.333074]]}, "properties": {"@id": "way/212085574", "cycleway:right": "lane", "electrified": "contact_line", "foot": "no", "frequency": "0", "gauge": "1435", "highway": "tertiary", "maxspeed": "50", "name": "Birger Jarlsgatan", "oneway": "yes", "railway": "tram", "source": "survey", "surface": "asphalt", "tracks": "1", "voltage": "750", "wikidata": "Q2523030", "wikipedia": "sv:Birger Jarlsgatan"}}, {"type": "Feature", "id": "way/212085578", "geometry": {"type": "LineString", "coordinates": [[18.072168, 59.33622], [18.072292, 59.336166]]}, "properties": {"@id": "way/212085578", "access": "no", "highway": "tertiary", "maxspeed": "50", "name": "Birger Jarlsgatan", "oneway": "yes", "psv": "yes", "surface": "asphalt", "wikidata": "Q2523030", "wikipedia": "sv:Birger Jarlsgatan"}}, {"type": "Feature", "id": "way/212085581", "geometry": {"type": "LineString", "coordinates": [[18.071825, 59.332833], [18.072195, 59.332884], [18.072568, 59.332937], [18.07296, 59.332954], [18.073431, 59.332956], [18.073584, 59.332937], [18.073687, 59.332931], [18.074393, 59.33295], [18.075182, 59.332968], [18.075294, 59.332963], [18.075406, 59.332953]]}, "properties": {"@id": "way/212085581", "cycleway:right": "track", "electrified": "contact_line", "foot": "no", "frequency": "0", "gauge": "1435", "highway": "tertiary", "maxspeed": "30", "name": "Hamngatan", "oneway": "yes", "railway": "tram", "source": "survey", "surface": "asphalt", "tracks": "1", "voltage": "750", "wikidata": "Q839619", "wikipedia": "sv:Hamngatan, Stockholm"}}, {"type": "Feature", "id": "way/212085582", "geometry": {"type": "LineString", "coordinates": [[18.071786, 59.332901], [18.071518, 59.332862]]}, "properties": {"@id": "way/212085582", "cycleway:right": "lane", "foot": "no", "highway": "tertiary", "maxspeed": "30", "name": "Hamngatan", "oneway": "yes", "source": "survey", "wikidata": "Q839619", "wikipedia": "sv:Hamngatan, Stockholm"}}, {"type": "Feature", "id": "way/212085585", "geometry": {"type": "LineString", "coordinates": [[18.075436, 59.333019], [18.075116, 59.333013]]}, "properties": {"@id": "way/212085585", "cycleway:right": "lane", "electrified": "contact_line", "foot": "no", "frequency": "0", "gauge": "1435", "highway": "tertiary", "lanes": "1", "maxspeed": "30", "name": "Hamngatan", "oneway": "yes", "railway": "tram", "source": "survey", "surface": "asphalt", "tracks": "1", "voltage": "750", "wikidata": "Q839619", "wikipedia": "sv:Hamngatan, Stockholm"}}, {"type": "Feature", "id": "way/212085591", "geometry": {"type": "LineString", "coordinates": [[18.071537, 59.332831], [18.071518, 59.332862]]}, "properties": {"@id": "way/212085591", "highway": "tertiary", "maxspeed": "30", "name": "Kungstr\u00e4dg\u00e5rdsgatan", "surface": "asphalt"}}, {"type": "Feature", "id": "way/213548272", "geometry": {"type": "LineString", "coordinates": [[18.061508, 59.32844], [18.061899, 59.328358]]}, "properties": {"@id": "way/213548272", "foot": "no", "highway": "tertiary", "maxspeed": "50", "name": "Tegelbacken", "oneway": "yes", "surface": "asphalt", "wikidata": "Q10691825", "wikipedia": "sv:Tegelbacken"}}, {"type": "Feature", "id": "way/214237334", "geometry": {"type": "LineString", "coordinates": [[18.072429, 59.33618], [18.072342, 59.336236]]}, "properties": {"@id": "way/214237334", "cycleway:right": "lane", "foot": "no", "highway": "tertiary", "maxspeed": "50", "name": "Birger Jarlsgatan", "oneway": "yes", "source": "survey", "surface": "asphalt"}}, {"type": "Feature", "id": "way/214237351", "geometry": {"type": "LineString", "coordinates": [[18.072429, 59.33618], [18.072557, 59.336207], [18.072814, 59.336274], [18.072885, 59.3363], [18.072949, 59.336326], [18.072997, 59.336348], [18.073046, 59.336379], [18.073086, 59.336413], [18.073537, 59.336962], [18.073565, 59.336997], [18.073622, 59.337064], [18.073684, 59.337135], [18.073709, 59.337163]]}, "properties": {"@id": "way/214237351", "cycleway:right": "shared_lane", "foot": "no", "highway": "tertiary", "maxspeed": "50", "name": "Sturegatan", "oneway": "yes", "source": "survey", "surface": "asphalt", "wikidata": "Q7628957", "wikipedia": "sv:Sturegatan, Stockholm"}}, {"type": "Feature", "id": "way/242118917", "geometry": {"type": "LineString", "coordinates": [[18.066815, 59.340167], [18.066955, 59.34004], [18.067309, 59.339703], [18.067631, 59.339378], [18.067757, 59.339282]]}, "properties": {"@id": "way/242118917", "cycleway:right": "track", "foot": "no", "highway": "tertiary", "maxspeed": "50", "name": "Birger Jarlsgatan", "oneway": "yes", "source": "survey", "surface": "asphalt", "wikidata": "Q2523030", "wikipedia": "sv:Birger Jarlsgatan"}}, {"type": "Feature", "id": "way/242118920", "geometry": {"type": "LineString", "coordinates": [[18.067757, 59.339282], [18.068144, 59.338927], [18.068245, 59.338832], [18.068749, 59.338339], [18.069011, 59.338102], [18.069198, 59.337997], [18.069412, 59.337884], [18.069583, 59.337795]]}, "properties": {"@id": "way/242118920", "cycleway:right": "track", "foot": "no", "highway": "tertiary", "maxspeed": "50", "name": "Birger Jarlsgatan", "oneway": "yes", "source": "survey", "surface": "asphalt", "wikidata": "Q2523030", "wikipedia": "sv:Birger Jarlsgatan"}}, {"type": "Feature", "id": "way/242118925", "geometry": {"type": "LineString", "coordinates": [[18.069671, 59.337844], [18.069583, 59.337795]]}, "properties": {"@id": "way/242118925", "foot": "no", "highway": "tertiary_link", "maxspeed": "50", "name": "Engelbrektsgatan", "oneway": "yes", "surface": "asphalt", "wikidata": "Q15113428", "wikipedia": "sv:Engelbrektsgatan, Stockholm"}}, {"type": "Feature", "id": "way/242678154", "geometry": {"type": "LineString", "coordinates": [[18.067465, 59.339711], [18.066965, 59.340176], [18.066802, 59.340301], [18.066355, 59.340546], [18.065965, 59.340704], [18.065899, 59.340731], [18.065592, 59.340871]]}, "properties": {"@id": "way/242678154", "foot": "no", "highway": "tertiary", "maxspeed": "50", "name": "Birger Jarlsgatan", "oneway": "yes", "source": "survey", "surface": "asphalt", "wikidata": "Q2523030", "wikipedia": "sv:Birger Jarlsgatan"}}, {"type": "Feature", "id": "way/242994612", "geometry": {"type": "LineString", "coordinates": [[18.07224, 59.336161], [18.072321, 59.336099], [18.072618, 59.335858], [18.072784, 59.335693], [18.072814, 59.335664], [18.07287, 59.335608], [18.073166, 59.335351], [18.073409, 59.335173], [18.073671, 59.334937], [18.073716, 59.334898], [18.074255, 59.334421], [18.074637, 59.334083], [18.074845, 59.333898], [18.075049, 59.333742]]}, "properties": {"@id": "way/242994612", "cycleway:right": "lane", "foot": "no", "highway": "tertiary", "maxspeed": "50", "name": "Birger Jarlsgatan", "oneway": "yes", "source": "survey", "surface": "asphalt", "wikidata": "Q2523030", "wikipedia": "sv:Birger Jarlsgatan"}}, {"type": "Feature", "id": "way/251962195", "geometry": {"type": "LineString", "coordinates": [[18.076027, 59.333046], [18.075923, 59.3331], [18.07585, 59.333141], [18.075277, 59.333673], [18.075191, 59.333752]]}, "properties": {"@id": "way/251962195", "cycleway:right": "lane", "foot": "no", "highway": "tertiary", "maxspeed": "50", "name": "Birger Jarlsgatan", "oneway": "yes", "surface": "asphalt", "wikidata": "Q2523030", "wikipedia": "sv:Birger Jarlsgatan"}}, {"type": "Feature", "id": "way/251997727", "geometry": {"type": "LineString", "coordinates": [[18.069053, 59.329525], [18.068995, 59.329558], [18.068929, 59.329584], [18.068775, 59.329623]]}, "properties": {"@id": "way/251997727", "cycleway:right": "lane", "foot": "no", "highway": "tertiary", "maxspeed": "30", "name": "Gustav Adolfs Torg", "name:de": "Gustav-Adolf-Platz", "oneway": "yes", "surface": "asphalt", "wikidata": "Q2854887", "wikipedia": "sv:Gustav Adolfs torg, Stockholm"}}, {"type": "Feature", "id": "way/252133155", "geometry": {"type": "LineString", "coordinates": [[18.076426, 59.331363], [18.076186, 59.331478], [18.076116, 59.331541], [18.076083, 59.331598], [18.076065, 59.331671], [18.07606, 59.331741], [18.076065, 59.331816], [18.076099, 59.331897], [18.076134, 59.331965], [18.076197, 59.332035], [18.076263, 59.332101], [18.076335, 59.332164]]}, "properties": {"@id": "way/252133155", "cycleway:right": "track", "foot": "no", "highway": "tertiary", "maxspeed": "50", "name": "Nybrokajen", "surface": "asphalt", "wikidata": "Q10604376", "wikipedia": "sv:Nybrokajen"}}, {"type": "Feature", "id": "way/252601104", "geometry": {"type": "LineString", "coordinates": [[18.075856, 59.332806], [18.075911, 59.33279], [18.075964, 59.332775]]}, "properties": {"@id": "way/252601104", "foot": "no", "highway": "tertiary", "maxspeed": "50", "name": "Hamngatan", "oneway": "yes", "source": "survey", "surface": "asphalt"}}, {"type": "Feature", "id": "way/259323892", "geometry": {"type": "LineString", "coordinates": [[18.056945, 59.328967], [18.055051, 59.329531], [18.054598, 59.329734], [18.054445, 59.329851], [18.054354, 59.329989]]}, "properties": {"@id": "way/259323892", "foot": "no", "highway": "tertiary", "maxspeed": "50", "name": "Blekholmsgatan", "surface": "asphalt"}}, {"type": "Feature", "id": "way/259323893", "geometry": {"type": "LineString", "coordinates": [[18.054354, 59.329989], [18.054177, 59.329984]]}, "properties": {"@id": "way/259323893", "highway": "tertiary", "maxspeed": "50", "name": "Blekholmsgatan", "oneway": "yes", "surface": "asphalt"}}, {"type": "Feature", "id": "way/259323894", "geometry": {"type": "LineString", "coordinates": [[18.056945, 59.328967], [18.057283, 59.32872], [18.057452, 59.328534]]}, "properties": {"@id": "way/259323894", "foot": "no", "highway": "tertiary", "maxspeed": "50", "name": "Blekholmsgatan", "oneway": "yes", "surface": "asphalt"}}, {"type": "Feature", "id": "way/265948015", "geometry": {"type": "LineString", "coordinates": [[18.069787, 59.337914], [18.069743, 59.33789], [18.069671, 59.337844]]}, "properties": {"@id": "way/265948015", "cycleway": "lane", "foot": "no", "highway": "tertiary", "maxspeed": "50", "name": "Engelbrektsgatan", "oneway": "yes", "surface": "asphalt", "wikidata": "Q15113428", "wikipedia": "sv:Engelbrektsgatan, Stockholm"}}, {"type": "Feature", "id": "way/265948017", "geometry": {"type": "LineString", "coordinates": [[18.073529, 59.337082], [18.073473, 59.337016], [18.073026, 59.336459], [18.07297, 59.336416], [18.072889, 59.336371], [18.072828, 59.336347], [18.072752, 59.336324], [18.072566, 59.336282], [18.07248, 59.336264], [18.072342, 59.336236]]}, "properties": {"@id": "way/265948017", "cycleway:right": "shared_lane", "foot": "no", "highway": "tertiary", "maxspeed": "50", "name": "Sturegatan", "oneway": "yes", "source": "survey", "surface": "asphalt", "wikidata": "Q7628957", "wikipedia": "sv:Sturegatan, Stockholm"}}, {"type": "Feature", "id": "way/278468172", "geometry": {"type": "LineString", "coordinates": [[18.064728, 59.333845], [18.065147, 59.333119]]}, "properties": {"@id": "way/278468172", "cycleway:right": "lane", "foot": "no", "highway": "tertiary", "lanes": "1", "maxspeed": "50", "name": "Sveav\u00e4gen", "oneway": "yes", "sidewalk": "separate", "surface": "asphalt", "wikidata": "Q1788276", "wikipedia": "sv:Sveav\u00e4gen"}}, {"type": "Feature", "id": "way/280902684", "geometry": {"type": "LineString", "coordinates": [[18.075773, 59.333074], [18.075848, 59.332982]]}, "properties": {"@id": "way/280902684", "electrified": "contact_line", "foot": "no", "frequency": "0", "gauge": "1435", "highway": "tertiary", "maxspeed": "50", "name": "Birger Jarlsgatan", "oneway": "yes", "railway": "tram", "source": "survey", "surface": "asphalt", "tracks": "1", "voltage": "750", "wikidata": "Q2523030", "wikipedia": "sv:Birger Jarlsgatan"}}, {"type": "Feature", "id": "way/328128841", "geometry": {"type": "LineString", "coordinates": [[18.057149, 59.335186], [18.057257, 59.335213], [18.058004, 59.335402], [18.058239, 59.33542], [18.058476, 59.335425], [18.058673, 59.335449], [18.059614, 59.33569]]}, "properties": {"@id": "way/328128841", "highway": "tertiary", "maxspeed": "50", "name": "Olof Palmes Gata", "sidewalk": "separate", "surface": "asphalt", "wikidata": "Q10609262", "wikipedia": "sv:Olof Palmes gata, Stockholm"}}, {"type": "Feature", "id": "way/328128848", "geometry": {"type": "LineString", "coordinates": [[18.055829, 59.334844], [18.056975, 59.335142], [18.057149, 59.335186]]}, "properties": {"@id": "way/328128848", "highway": "tertiary", "maxspeed": "50", "name": "Olof Palmes Gata", "sidewalk": "separate", "surface": "asphalt", "wikidata": "Q10609262", "wikipedia": "sv:Olof Palmes gata, Stockholm"}}, {"type": "Feature", "id": "way/332634804", "geometry": {"type": "LineString", "coordinates": [[18.07101, 59.336042], [18.071109, 59.335482], [18.071094, 59.335451], [18.07111, 59.335288], [18.071052, 59.335133], [18.071089, 59.334926], [18.071103, 59.334866]]}, "properties": {"@id": "way/332634804", "highway": "tertiary", "maxspeed": "30", "name": "Norrlandsgatan", "oneway": "yes", "surface": "asphalt", "wikidata": "Q10602871", "wikipedia": "sv:Norrlandsgatan"}}, {"type": "Feature", "id": "way/332634806", "geometry": {"type": "LineString", "coordinates": [[18.072084, 59.336397], [18.071207, 59.336965]]}, "properties": {"@id": "way/332634806", "cycleway:right": "track", "foot": "no", "highway": "tertiary", "maxspeed": "50", "name": "Birger Jarlsgatan", "oneway": "yes", "surface": "asphalt", "wikidata": "Q2523030", "wikipedia": "sv:Birger Jarlsgatan"}}, {"type": "Feature", "id": "way/356897483", "geometry": {"type": "LineString", "coordinates": [[18.062303, 59.328317], [18.062411, 59.328282], [18.062613, 59.328249], [18.062684, 59.328236], [18.062794, 59.328217], [18.062862, 59.328203], [18.062916, 59.328185]]}, "properties": {"@id": "way/356897483", "foot": "no", "highway": "tertiary", "maxspeed": "50", "name": "Tegelbacken", "oneway": "yes", "surface": "asphalt", "wikidata": "Q10691825", "wikipedia": "sv:Tegelbacken"}}, {"type": "Feature", "id": "way/393797404", "geometry": {"type": "LineString", "coordinates": [[18.072342, 59.336236], [18.072168, 59.33622]]}, "properties": {"@id": "way/393797404", "foot": "no", "highway": "tertiary", "maxspeed": "50", "name": "Sturegatan", "oneway": "yes", "source": "survey", "surface": "asphalt", "wikidata": "Q7628957", "wikipedia": "sv:Sturegatan, Stockholm"}}, {"type": "Feature", "id": "way/444147811", "geometry": {"type": "LineString", "coordinates": [[18.075793, 59.332987], [18.075698, 59.332998]]}, "properties": {"@id": "way/444147811", "cycleway:right": "lane", "foot": "no", "highway": "tertiary", "maxspeed": "50", "name": "Hamngatan", "oneway": "yes", "source": "survey", "surface": "asphalt", "wikidata": "Q839619", "wikipedia": "sv:Hamngatan, Stockholm"}}, {"type": "Feature", "id": "way/542554512", "geometry": {"type": "LineString", "coordinates": [[18.071377, 59.333562], [18.071244, 59.334232]]}, "properties": {"@id": "way/542554512", "bicycle": "yes", "cycleway:left": "opposite_lane", "cycleway:right": "shared_lane", "highway": "tertiary", "maxspeed": "30", "name": "Norrlandsgatan", "note": "V\u00e4garbete till mars 2021. Enligt trafiken.nu. Gatan \u00e4r enkelriktad.", "oneway": "yes", "surface": "asphalt", "wikidata": "Q10602871", "wikipedia": "sv:Norrlandsgatan"}}, {"type": "Feature", "id": "way/561081988", "geometry": {"type": "LineString", "coordinates": [[18.068379, 59.330768], [18.068432, 59.330477], [18.068443, 59.330416], [18.068459, 59.330324], [18.068541, 59.330197]]}, "properties": {"@id": "way/561081988", "highway": "tertiary", "maxspeed": "30", "name": "Regeringsgatan", "surface": "asphalt", "wikidata": "Q10650487", "wikipedia": "sv:Regeringsgatan, Stockholm"}}, {"type": "Feature", "id": "way/566342768", "geometry": {"type": "LineString", "coordinates": [[18.058025, 59.328309], [18.058091, 59.328289], [18.058162, 59.328267], [18.058607, 59.328121]]}, "properties": {"@id": "way/566342768", "foot": "no", "highway": "tertiary", "maxspeed": "50", "name": "Klarastrandsleden", "oneway": "yes", "surface": "asphalt"}}, {"type": "Feature", "id": "way/566342769", "geometry": {"type": "LineString", "coordinates": [[18.057936, 59.328343], [18.057794, 59.328327], [18.057408, 59.328295], [18.057278, 59.328283]]}, "properties": {"@id": "way/566342769", "foot": "no", "highway": "tertiary", "maxspeed": "50", "name": "Klarastrandsleden", "oneway": "yes", "surface": "asphalt"}}, {"type": "Feature", "id": "way/577180790", "geometry": {"type": "LineString", "coordinates": [[18.073709, 59.337163], [18.074095, 59.337621], [18.074614, 59.338247], [18.074704, 59.338364]]}, "properties": {"@id": "way/577180790", "cycleway:right": "track", "foot": "no", "highway": "tertiary", "maxspeed": "50", "name": "Sturegatan", "oneway": "yes", "source": "survey", "surface": "asphalt", "wikidata": "Q7628957", "wikipedia": "sv:Sturegatan, Stockholm"}}, {"type": "Feature", "id": "way/587486395", "geometry": {"type": "LineString", "coordinates": [[18.072292, 59.336166], [18.072429, 59.33618]]}, "properties": {"@id": "way/587486395", "cycleway:right": "lane", "foot": "no", "highway": "tertiary", "maxspeed": "50", "name": "Sturegatan", "oneway": "yes", "source": "survey", "surface": "asphalt", "wikidata": "Q7628957", "wikipedia": "sv:Sturegatan, Stockholm"}}, {"type": "Feature", "id": "way/587486396", "geometry": {"type": "LineString", "coordinates": [[18.072292, 59.336166], [18.072373, 59.336103], [18.072878, 59.335725], [18.072917, 59.335692], [18.073762, 59.334911], [18.074895, 59.333914], [18.075049, 59.333742]]}, "properties": {"@id": "way/587486396", "access": "no", "highway": "tertiary", "maxspeed": "50", "name": "Birger Jarlsgatan", "oneway": "yes", "psv": "yes", "surface": "asphalt", "wikidata": "Q2523030", "wikipedia": "sv:Birger Jarlsgatan"}}, {"type": "Feature", "id": "way/614158963", "geometry": {"type": "LineString", "coordinates": [[18.065147, 59.333119], [18.065169, 59.333053], [18.065171, 59.333001], [18.065152, 59.33295], [18.065116, 59.332898], [18.065064, 59.332845], [18.065006, 59.332808]]}, "properties": {"@id": "way/614158963", "cycleway:right": "track", "foot": "no", "highway": "tertiary", "lanes": "1", "maxspeed": "50", "name": "Sveav\u00e4gen", "oneway": "yes", "sidewalk": "separate", "surface": "asphalt", "wikidata": "Q1788276", "wikipedia": "sv:Sveav\u00e4gen"}}, {"type": "Feature", "id": "way/622465146", "geometry": {"type": "LineString", "coordinates": [[18.068071, 59.332646], [18.067839, 59.332639], [18.066166, 59.332565], [18.066071, 59.332565], [18.065989, 59.332572], [18.065908, 59.332583], [18.065822, 59.332606], [18.065777, 59.332623], [18.065731, 59.33265], [18.065665, 59.332696]]}, "properties": {"@id": "way/622465146", "cycleway:right": "lane", "foot": "no", "highway": "tertiary", "maxspeed": "30", "name": "Hamngatan", "oneway": "yes", "railway": "tram", "surface": "asphalt"}}, {"type": "Feature", "id": "way/622465158", "geometry": {"type": "LineString", "coordinates": [[18.065593, 59.332418], [18.065697, 59.332499], [18.065719, 59.332548], [18.065718, 59.332607], [18.065665, 59.332696]]}, "properties": {"@id": "way/622465158", "cycleway:right": "track", "foot": "no", "highway": "tertiary", "junction": "roundabout", "maxspeed": "50", "name": "Sergels Torg", "sidewalk": "separate", "surface": "asphalt"}}, {"type": "Feature", "id": "way/622465159", "geometry": {"type": "LineString", "coordinates": [[18.065598, 59.332742], [18.065539, 59.332777], [18.065472, 59.332801], [18.065383, 59.332819], [18.065301, 59.332827], [18.065203, 59.332828], [18.065123, 59.332822], [18.06506, 59.332816], [18.065006, 59.332808]]}, "properties": {"@id": "way/622465159", "cycleway:right": "track", "foot": "no", "highway": "tertiary", "junction": "roundabout", "maxspeed": "50", "name": "Sergels Torg", "railway": "tram", "surface": "asphalt"}}, {"type": "Feature", "id": "way/622466357", "geometry": {"type": "LineString", "coordinates": [[18.065593, 59.332418], [18.065896, 59.332475]]}, "properties": {"@id": "way/622466357", "cycleway:right": "lane", "foot": "no", "highway": "tertiary", "maxspeed": "30", "name": "Hamngatan", "oneway": "yes", "source": "survey", "surface": "asphalt", "wikidata": "Q839619", "wikipedia": "sv:Hamngatan, Stockholm"}}, {"type": "Feature", "id": "way/623564885", "geometry": {"type": "LineString", "coordinates": [[18.065665, 59.332696], [18.065598, 59.332742]]}, "properties": {"@id": "way/623564885", "cycleway:right": "lane", "foot": "no", "highway": "tertiary", "junction": "roundabout", "maxspeed": "50", "name": "Sergels Torg", "railway": "tram", "surface": "asphalt"}}, {"type": "Feature", "id": "way/623564886", "geometry": {"type": "LineString", "coordinates": [[18.065598, 59.332742], [18.065563, 59.332889], [18.065449, 59.333089], [18.06467, 59.334385], [18.064559, 59.334471]]}, "properties": {"@id": "way/623564886", "cycleway:right": "lane", "foot": "no", "highway": "tertiary", "maxspeed": "50", "name": "Sveav\u00e4gen", "oneway": "yes", "sidewalk": "separate", "surface": "asphalt"}}, {"type": "Feature", "id": "way/662947705", "geometry": {"type": "LineString", "coordinates": [[18.068222, 59.32944], [18.068203, 59.329418], [18.068187, 59.329368], [18.068189, 59.32925]]}, "properties": {"@id": "way/662947705", "cycleway:right": "lane", "foot": "no", "highway": "tertiary", "maxspeed": "30", "name": "Gustav Adolfs Torg", "name:de": "Gustav-Adolf-Platz", "oneway": "yes", "surface": "asphalt", "wikidata": "Q2854887", "wikipedia": "sv:Gustav Adolfs torg, Stockholm"}}, {"type": "Feature", "id": "way/675055936", "geometry": {"type": "LineString", "coordinates": [[18.075116, 59.333013], [18.073805, 59.332989], [18.073733, 59.332994], [18.073672, 59.333009]]}, "properties": {"@id": "way/675055936", "cycleway:right": "track", "electrified": "contact_line", "foot": "no", "frequency": "0", "gauge": "1435", "highway": "tertiary", "lanes": "1", "maxspeed": "30", "name": "Hamngatan", "oneway": "yes", "railway": "tram", "source": "survey", "surface": "asphalt", "tracks": "1", "voltage": "750", "wikidata": "Q839619", "wikipedia": "sv:Hamngatan, Stockholm"}}, {"type": "Feature", "id": "way/680061607", "geometry": {"type": "LineString", "coordinates": [[18.055885, 59.328105], [18.057324, 59.328239]]}, "properties": {"@id": "way/680061607", "bridge": "yes", "foot": "no", "highway": "tertiary", "layer": "1", "maxspeed": "40", "name": "Stadshusbron", "oneway": "yes", "surface": "asphalt"}}, {"type": "Feature", "id": "way/757994094", "geometry": {"type": "LineString", "coordinates": [[18.059614, 59.33569], [18.060582, 59.335947], [18.06109, 59.336081], [18.061434, 59.336176], [18.061744, 59.336279]]}, "properties": {"@id": "way/757994094", "highway": "tertiary", "maxspeed": "50", "name": "Olof Palmes Gata", "surface": "asphalt", "wikidata": "Q10609262", "wikipedia": "sv:Olof Palmes gata, Stockholm"}}, {"type": "Feature", "id": "way/764157394", "geometry": {"type": "LineString", "coordinates": [[18.065496, 59.33237], [18.065543, 59.33239], [18.065593, 59.332418]]}, "properties": {"@id": "way/764157394", "bicycle": "yes", "cycleway:right": "track", "foot": "no", "highway": "tertiary", "junction": "roundabout", "maxspeed": "50", "name": "Sergels Torg", "surface": "asphalt"}}, {"type": "Feature", "id": "way/777988479", "geometry": {"type": "LineString", "coordinates": [[18.069106, 59.329195], [18.069133, 59.329284], [18.069146, 59.329318]]}, "properties": {"@id": "way/777988479", "cycleway:right": "track", "foot": "no", "highway": "tertiary", "maxspeed": "30", "name": "Gustav Adolfs Torg", "name:de": "Gustav-Adolf-Platz", "oneway": "yes", "surface": "asphalt", "wikidata": "Q2854887", "wikipedia": "sv:Gustav Adolfs torg, Stockholm"}}, {"type": "Feature", "id": "way/777988480", "geometry": {"type": "LineString", "coordinates": [[18.069515, 59.329249], [18.06931, 59.329266], [18.06922, 59.329286], [18.069146, 59.329318]]}, "properties": {"@id": "way/777988480", "foot": "no", "highway": "tertiary", "maxspeed": "50", "name": "Str\u00f6mgatan", "oneway": "yes", "surface": "asphalt", "wikidata": "Q10682193", "wikipedia": "sv:Str\u00f6mgatan"}}, {"type": "Feature", "id": "way/777988481", "geometry": {"type": "LineString", "coordinates": [[18.069106, 59.329195], [18.069303, 59.329209], [18.069416, 59.329221], [18.069515, 59.329249]]}, "properties": {"@id": "way/777988481", "foot": "no", "highway": "tertiary", "maxspeed": "50", "name": "Str\u00f6mgatan", "oneway": "yes", "surface": "asphalt", "wikidata": "Q10682193", "wikipedia": "sv:Str\u00f6mgatan"}}]}