{"type": "FeatureCollection", "features": [{"type": "Feature", "id": "way/4488522", "geometry": {"type": "LineString", "coordinates": [[18.053639, 59.333063], [18.052492, 59.332801]]}, "properties": {"@id": "way/4488522", "bridge": "yes", "cycleway:right": "track", "foot": "no", "highway": "secondary", "layer": "1", "maxspeed": "50", "name": "Kungsbron", "oneway": "yes", "surface": "asphalt", "wikidata": "Q6444547", "wikipedia": "sv:Kungsbron"}}, {"type": "Feature", "id": "way/4488523", "geometry": {"type": "LineString", "coordinates": [[18.051219, 59.332288], [18.051356, 59.332342], [18.051703, 59.332462]]}, "properties": {"@id": "way/4488523", "bridge": "yes", "cycleway:right": "lane", "foot": "no", "highway": "secondary", "layer": "1", "maxspeed": "50", "name": "Kungsbron", "oneway": "yes", "surface": "asphalt", "wikidata": "Q6444547", "wikipedia": "sv:Kungsbron"}}, {"type": "Feature", "id": "way/4488526", "geometry": {"type": "LineString", "coordinates": [[18.051703, 59.332462], [18.052075, 59.332578], [18.05245, 59.332673]]}, "properties": {"@id": "way/4488526", "bridge": "yes", "cycleway:right": "lane", "foot": "no", "highway": "secondary", "layer": "1", "maxspeed": "50", "name": "Kungsbron", "oneway": "yes", "surface": "asphalt", "wikidata": "Q6444547", "wikipedia": "sv:Kungsbron"}}, {"type": "Feature", "id": "way/4491179", "geometry": {"type": "LineString", "coordinates": [[18.051177, 59.332507], [18.051022, 59.332478], [18.050911, 59.332457]]}, "properties": {"@id": "way/4491179", "bridge": "yes", "cycleway:right": "track", "foot": "no", "highway": "secondary", "layer": "2", "maxspeed": "50", "name": "Kungsbron", "oneway": "yes", "surface": "asphalt", "wikidata": "Q6444547", "wikipedia": "sv:Kungsbron"}}, {"type": "Feature", "id": "way/4700199", "geometry": {"type": "LineString", "coordinates": [[18.063962, 59.33507], [18.064064, 59.335002], [18.064146, 59.334921], [18.064199, 59.334845], [18.064543, 59.334285], [18.065169, 59.33325]]}, "properties": {"@id": "way/4700199", "bicycle": "no", "foot": "no", "highway": "secondary", "maxheight": "3", "maxspeed": "50", "name": "Klaratunneln", "oneway": "yes", "sidewalk": "no", "surface": "asphalt", "wikidata": "Q10546062", "wikipedia": "sv:Klaratunneln"}}, {"type": "Feature", "id": "way/4700200", "geometry": {"type": "LineString", "coordinates": [[18.065169, 59.33325], [18.065703, 59.332211]]}, "properties": {"@id": "way/4700200", "bicycle": "no", "foot": "no", "highway": "secondary", "lanes": "1", "layer": "-1", "lit": "24/7", "maxheight": "3", "maxspeed": "50", "name": "Klaratunneln", "oneway": "yes", "surface": "asphalt", "tunnel": "yes", "wikidata": "Q10546062", "wikipedia": "sv:Klaratunneln"}}, {"type": "Feature", "id": "way/4700202", "geometry": {"type": "LineString", "coordinates": [[18.06302, 59.33596], [18.063356, 59.335634], [18.063481, 59.335515]]}, "properties": {"@id": "way/4700202", "cycleway:right": "lane", "foot": "no", "highway": "secondary", "maxspeed": "50", "name": "Sveav\u00e4gen", "oneway": "yes", "sidewalk": "separate", "surface": "asphalt", "wikidata": "Q1788276", "wikipedia": "sv:Sveav\u00e4gen"}}, {"type": "Feature", "id": "way/4700207", "geometry": {"type": "LineString", "coordinates": [[18.062556, 59.329685], [18.062826, 59.329742]]}, "properties": {"@id": "way/4700207", "bicycle": "no", "foot": "no", "highway": "secondary_link", "lanes": "1", "maxspeed": "30", "name": "Herkulesgatan", "oneway": "yes", "surface": "asphalt", "wikidata": "Q10522357", "wikipedia": "sv:Herkulesgatan"}}, {"type": "Feature", "id": "way/20148784", "geometry": {"type": "LineString", "coordinates": [[18.062589, 59.330062], [18.061853, 59.329894], [18.061419, 59.329825]]}, "properties": {"@id": "way/20148784", "bicycle": "no", "foot": "no", "highway": "secondary", "layer": "0", "maxspeed": "50", "name": "Vattugatan", "oneway": "yes", "surface": "asphalt", "wikidata": "Q10713471", "wikipedia": "sv:Vattugatan"}}, {"type": "Feature", "id": "way/20152181", "geometry": {"type": "LineString", "coordinates": [[18.061187, 59.32936], [18.061981, 59.329644], [18.062455, 59.329792]]}, "properties": {"@id": "way/20152181", "bicycle": "no", "foot": "no", "highway": "secondary", "lanes": "2", "maxspeed": "50", "name": "Herkulesgatan", "oneway": "yes", "surface": "asphalt"}}, {"type": "Feature", "id": "way/20153356", "geometry": {"type": "LineString", "coordinates": [[18.064559, 59.334471], [18.064312, 59.334864], [18.064207, 59.335031]]}, "properties": {"@id": "way/20153356", "cycleway:right": "lane", "foot": "no", "highway": "secondary", "maxspeed": "50", "name": "Sveav\u00e4gen", "oneway": "yes", "surface": "asphalt", "wikidata": "Q1788276", "wikipedia": "sv:Sveav\u00e4gen"}}, {"type": "Feature", "id": "way/20156379", "geometry": {"type": "LineString", "coordinates": [[18.065969, 59.332251], [18.065652, 59.332867], [18.065614, 59.332999], [18.06558, 59.333141], [18.065587, 59.333283], [18.065614, 59.333425], [18.06567, 59.333582], [18.065763, 59.333714], [18.065888, 59.333841], [18.066014, 59.333954], [18.066181, 59.334081], [18.066342, 59.334177], [18.06653, 59.334273], [18.066765, 59.334358], [18.066989, 59.334422], [18.067185, 59.334468], [18.067458, 59.334508], [18.067796, 59.334541], [18.068984, 59.334587], [18.069165, 59.334586], [18.06933, 59.334567], [18.069469, 59.334544], [18.069626, 59.334484], [18.069743, 59.334427], [18.069811, 59.334379], [18.069846, 59.334327], [18.069865, 59.334244]]}, "properties": {"@id": "way/20156379", "bicycle": "no", "foot": "no", "highway": "secondary", "lanes": "1", "layer": "-1", "lit": "24/7", "maxheight": "3", "maxspeed": "50", "name": "Klaratunneln", "oneway": "yes", "surface": "asphalt", "tunnel": "yes", "wikidata": "Q10546062", "wikipedia": "sv:Klaratunneln"}}, {"type": "Feature", "id": "way/20157662", "geometry": {"type": "LineString", "coordinates": [[18.061008, 59.329316], [18.061187, 59.32936]]}, "properties": {"@id": "way/20157662", "bicycle": "no", "foot": "no", "highway": "secondary", "lanes": "2", "maxspeed": "50", "name": "Herkulesgatan", "oneway": "yes", "surface": "asphalt", "wikidata": "Q10522357", "wikipedia": "sv:Herkulesgatan"}}, {"type": "Feature", "id": "way/20278471", "geometry": {"type": "LineString", "coordinates": [[18.056583, 59.333774], [18.056425, 59.333777]]}, "properties": {"@id": "way/20278471", "check_date": "2020-01-05", "foot": "no", "highway": "secondary", "maxspeed": "30", "name": "Kungsgatan", "oneway": "yes", "surface": "asphalt", "wikidata": "Q836909", "wikipedia": "sv:Kungsgatan, Stockholm"}}, {"type": "Feature", "id": "way/20279056", "geometry": {"type": "LineString", "coordinates": [[18.051219, 59.332288], [18.051141, 59.332334]]}, "properties": {"@id": "way/20279056", "bridge": "yes", "foot": "no", "highway": "secondary_link", "layer": "1", "maxspeed": "40", "oneway": "yes", "surface": "asphalt"}}, {"type": "Feature", "id": "way/23089009", "geometry": {"type": "LineString", "coordinates": [[18.062636, 59.330008], [18.062556, 59.329976], [18.062508, 59.329954], [18.062459, 59.329909], [18.062442, 59.32987], [18.062455, 59.329792]]}, "properties": {"@id": "way/23089009", "bicycle": "no", "foot": "no", "highway": "secondary_link", "maxspeed": "50", "name": "R\u00f6dbodgatan", "oneway": "yes", "surface": "asphalt"}}, {"type": "Feature", "id": "way/23089605", "geometry": {"type": "LineString", "coordinates": [[18.055669, 59.334805], [18.055587, 59.334939], [18.055265, 59.335449]]}, "properties": {"@id": "way/23089605", "cycleway:right": "track", "foot": "no", "highway": "secondary", "maxspeed": "50", "name": "Vasagatan", "oneway": "yes", "surface": "asphalt", "wikidata": "Q679282", "wikipedia": "sv:Vasagatan, Stockholm"}}, {"type": "Feature", "id": "way/24488987", "geometry": {"type": "LineString", "coordinates": [[18.053639, 59.333063], [18.053715, 59.332987]]}, "properties": {"@id": "way/24488987", "bridge": "yes", "highway": "secondary_link", "layer": "1", "surface": "asphalt"}}, {"type": "Feature", "id": "way/27423309", "geometry": {"type": "LineString", "coordinates": [[18.049982, 59.331868], [18.051219, 59.332288]]}, "properties": {"@id": "way/27423309", "bridge": "yes", "cycleway:right": "lane", "foot": "no", "highway": "secondary", "layer": "1", "material": "concrete", "maxspeed": "40", "name": "Kungsbron", "oneway": "yes", "surface": "asphalt", "wikidata": "Q6444547", "wikipedia": "sv:Kungsbron"}}, {"type": "Feature", "id": "way/28217634", "geometry": {"type": "LineString", "coordinates": [[18.055045, 59.333416], [18.053883, 59.333123], [18.053639, 59.333063]]}, "properties": {"@id": "way/28217634", "bridge": "yes", "cycleway:right": "lane", "foot": "no", "highway": "secondary", "layer": "1", "maxspeed": "30", "name": "Kungsbron", "oneway": "yes", "surface": "asphalt", "wikidata": "Q6444547", "wikipedia": "sv:Kungsbron"}}, {"type": "Feature", "id": "way/34231304", "geometry": {"type": "LineString", "coordinates": [[18.051105, 59.332575], [18.051177, 59.332507], [18.051233, 59.332488], [18.051303, 59.332468], [18.051401, 59.332455], [18.051703, 59.332462]]}, "properties": {"@id": "way/34231304", "bridge": "yes", "foot": "no", "highway": "secondary_link", "layer": "1", "maxspeed": "50", "oneway": "yes", "surface": "asphalt"}}, {"type": "Feature", "id": "way/34231305", "geometry": {"type": "LineString", "coordinates": [[18.052584, 59.332705], [18.052492, 59.332801]]}, "properties": {"@id": "way/34231305", "bridge": "yes", "foot": "no", "highway": "secondary_link", "layer": "1", "maxspeed": "50", "oneway": "yes", "surface": "asphalt"}}, {"type": "Feature", "id": "way/34387765", "geometry": {"type": "LineString", "coordinates": [[18.052305, 59.332833], [18.052361, 59.332769]]}, "properties": {"@id": "way/34387765", "bridge": "yes", "foot": "no", "highway": "secondary_link", "layer": "1", "maxspeed": "50", "oneway": "yes", "surface": "asphalt"}}, {"type": "Feature", "id": "way/35477782", "geometry": {"type": "LineString", "coordinates": [[18.056583, 59.333774], [18.056482, 59.333889], [18.055755, 59.334708], [18.055669, 59.334805]]}, "properties": {"@id": "way/35477782", "cycleway:right": "track", "foot": "no", "highway": "secondary", "maxspeed": "50", "name": "Vasagatan", "oneway": "yes", "sidewalk": "separate", "surface": "asphalt", "wikidata": "Q679282", "wikipedia": "sv:Vasagatan, Stockholm"}}, {"type": "Feature", "id": "way/35477783", "geometry": {"type": "LineString", "coordinates": [[18.060266, 59.329665], [18.060211, 59.329682], [18.060153, 59.329689], [18.060095, 59.32969], [18.060032, 59.329686]]}, "properties": {"@id": "way/35477783", "highway": "secondary_link", "name": "Vasagatan", "oneway": "yes", "surface": "asphalt", "wikidata": "Q679282", "wikipedia": "sv:Vasagatan, Stockholm"}}, {"type": "Feature", "id": "way/35551373", "geometry": {"type": "LineString", "coordinates": [[18.05443, 59.335576], [18.054101, 59.335468], [18.053385, 59.335298], [18.053319, 59.335273], [18.053292, 59.335257], [18.053264, 59.335237]]}, "properties": {"@id": "way/35551373", "cycleway:left": "opposite_track", "cycleway:right": "track", "foot": "no", "highway": "secondary", "maxspeed": "50", "name": "Barnhusgatan", "oneway": "yes", "oneway:bicycle": "no", "surface": "asphalt", "wikidata": "Q10426539", "wikipedia": "sv:Barnhusgatan"}}, {"type": "Feature", "id": "way/35583988", "geometry": {"type": "LineString", "coordinates": [[18.058857, 59.33124], [18.058687, 59.331416], [18.05843, 59.331673], [18.05839, 59.331716], [18.058311, 59.331797]]}, "properties": {"@id": "way/35583988", "cycleway:right": "lane", "foot": "no", "highway": "secondary", "lcn": "yes", "maxspeed": "50", "name": "Vasagatan", "oneway": "yes", "surface": "asphalt", "wikidata": "Q679282", "wikipedia": "sv:Vasagatan, Stockholm"}}, {"type": "Feature", "id": "way/37145862", "geometry": {"type": "LineString", "coordinates": [[18.05443, 59.335576], [18.054644, 59.335557], [18.05484, 59.335532], [18.054959, 59.335505], [18.055067, 59.335466], [18.055155, 59.335414], [18.055455, 59.334912], [18.055543, 59.334775]]}, "properties": {"@id": "way/37145862", "access": "no", "bicycle": "yes", "cycleway:right": "track", "highway": "secondary", "name": "Vasagatan", "oneway": "yes", "psv": "yes", "sidewalk": "separate", "surface": "asphalt", "wikidata": "Q679282", "wikipedia": "sv:Vasagatan, Stockholm"}}, {"type": "Feature", "id": "way/39093604", "geometry": {"type": "LineString", "coordinates": [[18.058967, 59.340473], [18.05889, 59.340554], [18.058045, 59.341451], [18.058003, 59.341496], [18.057965, 59.341536], [18.057341, 59.3422], [18.057263, 59.342281], [18.056492, 59.3431], [18.056454, 59.34314], [18.055778, 59.343855], [18.055727, 59.343912], [18.055678, 59.343964], [18.055664, 59.343979]]}, "properties": {"@id": "way/39093604", "cycleway:right": "track", "foot": "no", "highway": "secondary", "lit": "yes", "maxspeed": "50", "name": "Sveav\u00e4gen", "oneway": "yes", "sidewalk": "separate", "surface": "asphalt", "wikidata": "Q1788276", "wikipedia": "sv:Sveav\u00e4gen"}}, {"type": "Feature", "id": "way/39359352", "geometry": {"type": "LineString", "coordinates": [[18.05668, 59.333659], [18.056583, 59.333774]]}, "properties": {"@id": "way/39359352", "cycleway:right": "lane", "foot": "no", "highway": "secondary", "maxspeed": "50", "name": "Vasagatan", "oneway": "yes", "sidewalk": "separate", "surface": "asphalt", "wikidata": "Q679282", "wikipedia": "sv:Vasagatan, Stockholm"}}, {"type": "Feature", "id": "way/39691471", "geometry": {"type": "LineString", "coordinates": [[18.063681, 59.33556], [18.063555, 59.335685], [18.063248, 59.335947], [18.063185, 59.336004]]}, "properties": {"@id": "way/39691471", "cycleway:right": "share_busway", "foot": "no", "highway": "secondary", "maxspeed": "50", "name": "Sveav\u00e4gen", "oneway": "yes", "sidewalk": "separate", "surface": "asphalt", "wikidata": "Q1788276", "wikipedia": "sv:Sveav\u00e4gen"}}, {"type": "Feature", "id": "way/39691472", "geometry": {"type": "LineString", "coordinates": [[18.063481, 59.335515], [18.063648, 59.33536], [18.063962, 59.33507]]}, "properties": {"@id": "way/39691472", "cycleway:right": "lane", "foot": "no", "highway": "secondary", "maxspeed": "50", "name": "Sveav\u00e4gen", "oneway": "yes", "sidewalk": "separate", "surface": "asphalt", "wikidata": "Q1788276", "wikipedia": "sv:Sveav\u00e4gen"}}, {"type": "Feature", "id": "way/40272685", "geometry": {"type": "LineString", "coordinates": [[18.060838, 59.328794], [18.060925, 59.328701], [18.060999, 59.328633], [18.061074, 59.32859]]}, "properties": {"@id": "way/40272685", "foot": "no", "highway": "secondary", "maxspeed": "50", "name": "Vasagatan", "oneway": "yes", "surface": "asphalt", "wikidata": "Q679282", "wikipedia": "sv:Vasagatan, Stockholm"}}, {"type": "Feature", "id": "way/40273617", "geometry": {"type": "LineString", "coordinates": [[18.061588, 59.3287], [18.061524, 59.328691], [18.061453, 59.328686], [18.061359, 59.328688], [18.061289, 59.328699], [18.061168, 59.328729], [18.061091, 59.328762], [18.061032, 59.328794]]}, "properties": {"@id": "way/40273617", "foot": "no", "highway": "secondary", "maxspeed": "50", "name": "Vasagatan", "oneway": "yes", "surface": "asphalt", "wikidata": "Q679282", "wikipedia": "sv:Vasagatan, Stockholm"}}, {"type": "Feature", "id": "way/41274652", "geometry": {"type": "LineString", "coordinates": [[18.062782, 59.32988], [18.064076, 59.330226], [18.065148, 59.330498], [18.065605, 59.330647], [18.065803, 59.330733], [18.065942, 59.330808], [18.066025, 59.330866], [18.066097, 59.330922], [18.066209, 59.331039], [18.066281, 59.331138], [18.066322, 59.331232], [18.066353, 59.33135], [18.066353, 59.331465], [18.06631, 59.331616], [18.066274, 59.331705], [18.065969, 59.332251]]}, "properties": {"@id": "way/41274652", "bicycle": "no", "foot": "no", "highway": "secondary", "lanes": "2", "layer": "-1", "lit": "24/7", "maxheight": "3", "maxspeed": "50", "name": "Klaratunneln", "oneway": "yes", "surface": "asphalt", "tunnel": "yes", "wikidata": "Q10546062", "wikipedia": "sv:Klaratunneln"}}, {"type": "Feature", "id": "way/41274655", "geometry": {"type": "LineString", "coordinates": [[18.062826, 59.329742], [18.062769, 59.329803], [18.062761, 59.329842], [18.06277, 59.329875]]}, "properties": {"@id": "way/41274655", "bicycle": "no", "foot": "no", "highway": "secondary_link", "maxspeed": "50", "name": "R\u00f6dbodgatan", "oneway": "yes", "surface": "asphalt"}}, {"type": "Feature", "id": "way/41574208", "geometry": {"type": "LineString", "coordinates": [[18.058989, 59.330818], [18.059105, 59.330697], [18.0592, 59.33061], [18.059939, 59.329787], [18.060032, 59.329686]]}, "properties": {"@id": "way/41574208", "cycleway:right": "track", "foot": "no", "highway": "secondary", "maxspeed": "50", "name": "Vasagatan", "oneway": "yes", "surface": "asphalt", "wikidata": "Q679282", "wikipedia": "sv:Vasagatan, Stockholm"}}, {"type": "Feature", "id": "way/41771259", "geometry": {"type": "LineString", "coordinates": [[18.069865, 59.334244], [18.069954, 59.334151]]}, "properties": {"@id": "way/41771259", "bicycle": "no", "foot": "no", "highway": "secondary", "lanes": "1", "maxheight": "3", "maxspeed": "50", "name": "Klaratunneln", "oneway": "yes", "surface": "asphalt", "wikidata": "Q10546062", "wikipedia": "sv:Klaratunneln"}}, {"type": "Feature", "id": "way/42979124", "geometry": {"type": "LineString", "coordinates": [[18.055265, 59.335449], [18.055179, 59.335513], [18.055046, 59.335564], [18.054878, 59.335596]]}, "properties": {"@id": "way/42979124", "cycleway:right": "lane", "foot": "no", "highway": "secondary", "maxspeed": "50", "name": "Vasagatan", "oneway": "yes", "surface": "asphalt", "wikidata": "Q679282", "wikipedia": "sv:Vasagatan, Stockholm"}}, {"type": "Feature", "id": "way/87218363", "geometry": {"type": "LineString", "coordinates": [[18.058035, 59.331868], [18.058136, 59.331752]]}, "properties": {"@id": "way/87218363", "cycleway:right": "lane", "foot": "no", "highway": "secondary", "lcn": "yes", "maxspeed": "50", "name": "Vasagatan", "oneway": "yes", "surface": "asphalt", "wikidata": "Q679282", "wikipedia": "sv:Vasagatan, Stockholm"}}, {"type": "Feature", "id": "way/110655211", "geometry": {"type": "LineString", "coordinates": [[18.065244, 59.333262], [18.064715, 59.334175], [18.064559, 59.334471]]}, "properties": {"@id": "way/110655211", "bicycle": "no", "foot": "no", "highway": "secondary", "maxheight": "3", "maxspeed": "50", "name": "Klaratunneln", "oneway": "yes", "sidewalk": "no", "surface": "asphalt", "wikidata": "Q10546062", "wikipedia": "sv:Klaratunneln"}}, {"type": "Feature", "id": "way/121854793", "geometry": {"type": "LineString", "coordinates": [[18.063185, 59.336004], [18.06309, 59.336095], [18.062767, 59.336438], [18.062703, 59.336506], [18.062662, 59.336549], [18.062633, 59.33658]]}, "properties": {"@id": "way/121854793", "cycleway:right": "lane", "foot": "no", "highway": "secondary", "lit": "yes", "maxspeed": "50", "name": "Sveav\u00e4gen", "oneway": "yes", "sidewalk": "separate", "surface": "asphalt", "wikidata": "Q1788276", "wikipedia": "sv:Sveav\u00e4gen"}}, {"type": "Feature", "id": "way/121854794", "geometry": {"type": "LineString", "coordinates": [[18.061199, 59.337892], [18.061376, 59.337704], [18.061474, 59.337601], [18.061544, 59.337526], [18.062405, 59.336612], [18.062504, 59.336508], [18.062545, 59.336464], [18.062608, 59.336397], [18.062931, 59.336054], [18.06302, 59.33596]]}, "properties": {"@id": "way/121854794", "cycleway:right": "lane", "foot": "no", "highway": "secondary", "lit": "yes", "maxspeed": "50", "name": "Sveav\u00e4gen", "oneway": "yes", "sidewalk": "separate", "surface": "asphalt", "wikidata": "Q1788276", "wikipedia": "sv:Sveav\u00e4gen"}}, {"type": "Feature", "id": "way/122041454", "geometry": {"type": "LineString", "coordinates": [[18.061363, 59.337928], [18.0606, 59.338738], [18.060548, 59.338794], [18.059959, 59.339419], [18.059857, 59.339528], [18.059777, 59.339612], [18.059061, 59.340373], [18.058967, 59.340473]]}, "properties": {"@id": "way/122041454", "cycleway:right": "track", "foot": "no", "highway": "secondary", "lit": "yes", "maxspeed": "50", "name": "Sveav\u00e4gen", "oneway": "yes", "sidewalk": "separate", "surface": "asphalt", "wikidata": "Q1788276", "wikipedia": "sv:Sveav\u00e4gen"}}, {"type": "Feature", "id": "way/127674505", "geometry": {"type": "LineString", "coordinates": [[18.053715, 59.332987], [18.053959, 59.333054], [18.055105, 59.333358]]}, "properties": {"@id": "way/127674505", "bridge": "yes", "cycleway:right": "lane", "foot": "no", "highway": "secondary", "layer": "1", "maxspeed": "30", "name": "Kungsbron", "oneway": "yes", "surface": "asphalt", "wikidata": "Q6444547", "wikipedia": "sv:Kungsbron"}}, {"type": "Feature", "id": "way/127674516", "geometry": {"type": "LineString", "coordinates": [[18.055543, 59.334775], [18.055669, 59.334805]]}, "properties": {"@id": "way/127674516", "highway": "secondary", "maxspeed": "50", "name": "Olof Palmes Gata", "sidewalk": "separate", "surface": "asphalt", "wikidata": "Q10609262", "wikipedia": "sv:Olof Palmes gata, Stockholm"}}, {"type": "Feature", "id": "way/127674517", "geometry": {"type": "LineString", "coordinates": [[18.055543, 59.334775], [18.055629, 59.334677], [18.056352, 59.33386], [18.056425, 59.333777]]}, "properties": {"@id": "way/127674517", "cycleway:right": "lane", "foot": "no", "highway": "secondary", "maxspeed": "50", "name": "Vasagatan", "oneway": "yes", "sidewalk": "separate", "surface": "asphalt", "wikidata": "Q679282", "wikipedia": "sv:Vasagatan, Stockholm"}}, {"type": "Feature", "id": "way/127674520", "geometry": {"type": "LineString", "coordinates": [[18.056425, 59.333777], [18.056494, 59.33371]]}, "properties": {"@id": "way/127674520", "check_date": "2020-01-05", "cycleway:right": "shared_lane", "foot": "no", "highway": "secondary", "maxspeed": "50", "name": "Vasagatan", "oneway": "yes", "surface": "asphalt", "wikidata": "Q679282", "wikipedia": "sv:Vasagatan, Stockholm"}}, {"type": "Feature", "id": "way/127751305", "geometry": {"type": "LineString", "coordinates": [[18.051141, 59.332334], [18.050911, 59.332457]]}, "properties": {"@id": "way/127751305", "bridge": "yes", "foot": "no", "highway": "secondary_link", "layer": "2", "maxspeed": "40", "oneway": "yes", "surface": "asphalt"}}, {"type": "Feature", "id": "way/129464802", "geometry": {"type": "LineString", "coordinates": [[18.058204, 59.331908], [18.057692, 59.33247]]}, "properties": {"@id": "way/129464802", "cycleway:right": "track", "foot": "no", "highway": "secondary", "maxspeed": "50", "name": "Vasagatan", "oneway": "yes", "surface": "asphalt", "wikidata": "Q679282", "wikipedia": "sv:Vasagatan, Stockholm"}}, {"type": "Feature", "id": "way/129464812", "geometry": {"type": "LineString", "coordinates": [[18.057143, 59.333042], [18.056967, 59.333121]]}, "properties": {"@id": "way/129464812", "check_date": "2020-01-05", "foot": "no", "highway": "secondary_link", "name": "Vasagatan", "oneway": "yes", "surface": "asphalt", "wikidata": "Q679282", "wikipedia": "sv:Vasagatan, Stockholm"}}, {"type": "Feature", "id": "way/129535725", "geometry": {"type": "LineString", "coordinates": [[18.058678, 59.33116], [18.058989, 59.330818]]}, "properties": {"@id": "way/129535725", "cycleway:right": "track", "foot": "no", "highway": "secondary", "lcn": "yes", "maxspeed": "50", "name": "Vasagatan", "oneway": "yes", "surface": "asphalt", "wikidata": "Q679282", "wikipedia": "sv:Vasagatan, Stockholm"}}, {"type": "Feature", "id": "way/129535726", "geometry": {"type": "LineString", "coordinates": [[18.062357, 59.330124], [18.061735, 59.329948], [18.061419, 59.329825]]}, "properties": {"@id": "way/129535726", "bicycle": "no", "foot": "no", "highway": "secondary", "lanes": "1", "layer": "0", "maxspeed": "50", "name": "Vattugatan", "oneway": "yes", "surface": "asphalt", "wikidata": "Q10713471", "wikipedia": "sv:Vattugatan"}}, {"type": "Feature", "id": "way/130196241", "geometry": {"type": "LineString", "coordinates": [[18.053264, 59.335237], [18.053239, 59.335217], [18.05322, 59.335197]]}, "properties": {"@id": "way/130196241", "cycleway:left": "opposite_track", "foot": "no", "highway": "secondary", "maxspeed": "50", "name": "Barnhusgatan", "note": "Korsningen har byggts om och satellitbilden st\u00e4mmer inte", "oneway": "yes", "oneway:bicycle": "no", "surface": "asphalt"}}, {"type": "Feature", "id": "way/135200003", "geometry": {"type": "LineString", "coordinates": [[18.055498, 59.343941], [18.055564, 59.343873], [18.056331, 59.343059], [18.0571, 59.342243], [18.057759, 59.341543], [18.057802, 59.341498], [18.057908, 59.341385], [18.05873, 59.340513], [18.05881, 59.340429], [18.058899, 59.340333], [18.059615, 59.339573], [18.059698, 59.339486], [18.059799, 59.339378], [18.060389, 59.338753], [18.06046, 59.338677], [18.061199, 59.337892]]}, "properties": {"@id": "way/135200003", "cycleway:right": "track", "foot": "no", "highway": "secondary", "lit": "yes", "maxspeed": "50", "name": "Sveav\u00e4gen", "oneway": "yes", "sidewalk": "separate", "surface": "asphalt", "wikidata": "Q1788276", "wikipedia": "sv:Sveav\u00e4gen"}}, {"type": "Feature", "id": "way/137341438", "geometry": {"type": "LineString", "coordinates": [[18.056494, 59.33371], [18.056583, 59.333774]]}, "properties": {"@id": "way/137341438", "check_date": "2020-01-05", "foot": "no", "highway": "secondary", "maxspeed": "30", "name": "Kungsgatan", "oneway": "yes", "surface": "asphalt", "wikidata": "Q836909", "wikipedia": "sv:Kungsgatan, Stockholm"}}, {"type": "Feature", "id": "way/137341439", "geometry": {"type": "LineString", "coordinates": [[18.055105, 59.333358], [18.056352, 59.333674], [18.056494, 59.33371]]}, "properties": {"@id": "way/137341439", "cycleway:right": "lane", "foot": "no", "highway": "secondary", "maxspeed": "30", "name": "Kungsgatan", "oneway": "yes", "sidewalk": "separate", "surface": "asphalt", "wikidata": "Q836909", "wikipedia": "sv:Kungsgatan, Stockholm"}}, {"type": "Feature", "id": "way/137341440", "geometry": {"type": "LineString", "coordinates": [[18.056494, 59.33371], [18.056565, 59.33363], [18.056936, 59.333218], [18.056967, 59.333121]]}, "properties": {"@id": "way/137341440", "cycleway:right": "share_busway", "foot": "no", "highway": "secondary", "maxspeed": "50", "name": "Vasagatan", "oneway": "yes", "sidewalk": "separate", "surface": "asphalt", "wikidata": "Q679282", "wikipedia": "sv:Vasagatan, Stockholm"}}, {"type": "Feature", "id": "way/148002250", "geometry": {"type": "LineString", "coordinates": [[18.061419, 59.329825], [18.060866, 59.329687]]}, "properties": {"@id": "way/148002250", "bicycle": "no", "foot": "no", "highway": "secondary", "maxspeed": "50", "name": "Vattugatan", "oneway": "yes", "surface": "asphalt", "wikidata": "Q10713471", "wikipedia": "sv:Vattugatan"}}, {"type": "Feature", "id": "way/161366805", "geometry": {"type": "LineString", "coordinates": [[18.049639, 59.335954], [18.049997, 59.33588], [18.050239, 59.33583], [18.05124, 59.335621], [18.051611, 59.335544], [18.052989, 59.335257]]}, "properties": {"@id": "way/161366805", "cycleway": "track", "foot": "no", "highway": "secondary", "maxspeed": "50", "name": "Torsgatan", "surface": "asphalt", "wikidata": "Q10700359", "wikipedia": "sv:Torsgatan"}}, {"type": "Feature", "id": "way/162177597", "geometry": {"type": "LineString", "coordinates": [[18.061032, 59.328794], [18.060938, 59.328904], [18.060839, 59.329017], [18.060728, 59.329136], [18.060266, 59.329665]]}, "properties": {"@id": "way/162177597", "cycleway:right": "track", "foot": "no", "highway": "secondary", "lanes": "3", "lcn": "yes", "maxspeed": "50", "name": "Vasagatan", "oneway": "yes", "surface": "asphalt", "turn:lanes": "left|through|through", "wikidata": "Q679282", "wikipedia": "sv:Vasagatan, Stockholm"}}, {"type": "Feature", "id": "way/167514878", "geometry": {"type": "LineString", "coordinates": [[18.061074, 59.32859], [18.061226, 59.328522]]}, "properties": {"@id": "way/167514878", "foot": "no", "highway": "secondary", "maxspeed": "50", "name": "Vasagatan", "oneway": "yes", "surface": "asphalt", "wikidata": "Q679282", "wikipedia": "sv:Vasagatan, Stockholm"}}, {"type": "Feature", "id": "way/167816638", "geometry": {"type": "LineString", "coordinates": [[18.050911, 59.332457], [18.04985, 59.332281]]}, "properties": {"@id": "way/167816638", "bridge": "yes", "cycleway:right": "track", "foot": "no", "highway": "secondary", "layer": "2", "material": "concrete", "maxspeed": "40", "name": "Kungsbron", "oneway": "yes", "surface": "asphalt", "wikidata": "Q6444547", "wikipedia": "sv:Kungsbron"}}, {"type": "Feature", "id": "way/189936526", "geometry": {"type": "LineString", "coordinates": [[18.052492, 59.332801], [18.052361, 59.332769], [18.051496, 59.33256], [18.051177, 59.332507]]}, "properties": {"@id": "way/189936526", "bridge": "yes", "cycleway:right": "track", "foot": "no", "highway": "secondary", "layer": "1", "maxspeed": "50", "name": "Kungsbron", "oneway": "yes", "surface": "asphalt", "wikidata": "Q6444547", "wikipedia": "sv:Kungsbron"}}, {"type": "Feature", "id": "way/189936531", "geometry": {"type": "LineString", "coordinates": [[18.052361, 59.332769], [18.05245, 59.332673]]}, "properties": {"@id": "way/189936531", "bridge": "yes", "foot": "no", "highway": "secondary_link", "layer": "1", "maxspeed": "50", "oneway": "yes", "surface": "asphalt"}}, {"type": "Feature", "id": "way/189936532", "geometry": {"type": "LineString", "coordinates": [[18.052492, 59.332801], [18.052435, 59.332861]]}, "properties": {"@id": "way/189936532", "bridge": "yes", "foot": "no", "highway": "secondary_link", "layer": "1", "maxspeed": "50", "oneway": "yes", "surface": "asphalt"}}, {"type": "Feature", "id": "way/203006969", "geometry": {"type": "LineString", "coordinates": [[18.052989, 59.335257], [18.053054, 59.335233], [18.053075, 59.335227], [18.05312, 59.335216], [18.05322, 59.335197]]}, "properties": {"@id": "way/203006969", "cycleway:right": "track", "foot": "no", "highway": "secondary", "maxspeed": "50", "name": "Torsgatan", "note": "Korsningen har byggts om och satellitbilden st\u00e4mmer inte", "oneway": "yes", "surface": "asphalt"}}, {"type": "Feature", "id": "way/220845361", "geometry": {"type": "LineString", "coordinates": [[18.054878, 59.335596], [18.054699, 59.335607], [18.054561, 59.335605], [18.05443, 59.335576]]}, "properties": {"@id": "way/220845361", "cycleway:right": "lane", "foot": "no", "highway": "secondary", "maxspeed": "50", "name": "Vasagatan", "oneway": "yes", "surface": "asphalt", "wikidata": "Q679282", "wikipedia": "sv:Vasagatan, Stockholm"}}, {"type": "Feature", "id": "way/233545458", "geometry": {"type": "LineString", "coordinates": [[18.058311, 59.331797], [18.058204, 59.331908]]}, "properties": {"@id": "way/233545458", "cycleway:right": "lane", "foot": "no", "highway": "secondary", "lcn": "yes", "maxspeed": "50", "name": "Vasagatan", "oneway": "yes", "surface": "asphalt", "wikidata": "Q679282", "wikipedia": "sv:Vasagatan, Stockholm"}}, {"type": "Feature", "id": "way/233545459", "geometry": {"type": "LineString", "coordinates": [[18.058136, 59.331752], [18.058204, 59.331673], [18.058542, 59.331306], [18.058615, 59.331224]]}, "properties": {"@id": "way/233545459", "cycleway:right": "lane", "foot": "no", "highway": "secondary", "lcn": "yes", "maxspeed": "50", "name": "Vasagatan", "oneway": "yes", "surface": "asphalt", "wikidata": "Q679282", "wikipedia": "sv:Vasagatan, Stockholm"}}, {"type": "Feature", "id": "way/251962175", "geometry": {"type": "LineString", "coordinates": [[18.057478, 59.332495], [18.057986, 59.331921], [18.058035, 59.331868]]}, "properties": {"@id": "way/251962175", "cycleway:right": "track", "foot": "no", "highway": "secondary", "maxspeed": "50", "name": "Vasagatan", "oneway": "yes", "surface": "asphalt", "wikidata": "Q679282", "wikipedia": "sv:Vasagatan, Stockholm"}}, {"type": "Feature", "id": "way/252693052", "geometry": {"type": "LineString", "coordinates": [[18.056967, 59.333121], [18.056985, 59.33304], [18.057032, 59.332968], [18.057355, 59.332629], [18.057406, 59.332574], [18.057478, 59.332495]]}, "properties": {"@id": "way/252693052", "cycleway:right": "shared_lane", "foot": "no", "highway": "secondary", "maxspeed": "50", "name": "Vasagatan", "oneway": "yes", "surface": "asphalt", "wikidata": "Q679282", "wikipedia": "sv:Vasagatan, Stockholm"}}, {"type": "Feature", "id": "way/261818776", "geometry": {"type": "LineString", "coordinates": [[18.052584, 59.332705], [18.052651, 59.332721], [18.053715, 59.332987]]}, "properties": {"@id": "way/261818776", "bridge": "yes", "cycleway:right": "lane", "foot": "no", "highway": "secondary", "layer": "1", "maxspeed": "50", "name": "Kungsbron", "oneway": "yes", "surface": "asphalt", "wikidata": "Q6444547", "wikipedia": "sv:Kungsbron"}}, {"type": "Feature", "id": "way/291464526", "geometry": {"type": "LineString", "coordinates": [[18.060032, 59.329686], [18.060274, 59.32942]]}, "properties": {"@id": "way/291464526", "cycleway:right": "track", "foot": "no", "highway": "secondary", "maxspeed": "50", "name": "Vasagatan", "oneway": "yes", "surface": "asphalt"}}, {"type": "Feature", "id": "way/291464527", "geometry": {"type": "LineString", "coordinates": [[18.060266, 59.329665], [18.060133, 59.329831], [18.059764, 59.330239]]}, "properties": {"@id": "way/291464527", "cycleway:right": "track", "foot": "no", "highway": "secondary", "lcn": "yes", "maxspeed": "50", "name": "Vasagatan", "oneway": "yes", "surface": "asphalt", "wikidata": "Q679282", "wikipedia": "sv:Vasagatan, Stockholm"}}, {"type": "Feature", "id": "way/292346306", "geometry": {"type": "LineString", "coordinates": [[18.060274, 59.32942], [18.060838, 59.328794]]}, "properties": {"@id": "way/292346306", "cycleway:right": "track", "foot": "no", "highway": "secondary", "lanes": "2", "maxspeed": "50", "name": "Vasagatan", "oneway": "yes", "surface": "asphalt", "wikidata": "Q679282", "wikipedia": "sv:Vasagatan, Stockholm"}}, {"type": "Feature", "id": "way/327609647", "geometry": {"type": "LineString", "coordinates": [[18.056425, 59.333777], [18.056286, 59.33374], [18.055045, 59.333416]]}, "properties": {"@id": "way/327609647", "cycleway:right": "lane", "foot": "no", "highway": "secondary", "maxspeed": "30", "name": "Kungsgatan", "oneway": "yes", "sidewalk": "separate", "surface": "asphalt", "wikidata": "Q836909", "wikipedia": "sv:Kungsgatan, Stockholm"}}, {"type": "Feature", "id": "way/427926628", "geometry": {"type": "LineString", "coordinates": [[18.058615, 59.331224], [18.058678, 59.33116]]}, "properties": {"@id": "way/427926628", "cycleway:right": "lane", "foot": "no", "highway": "secondary", "lcn": "yes", "maxspeed": "50", "name": "Vasagatan", "oneway": "yes", "surface": "asphalt"}}, {"type": "Feature", "id": "way/427926629", "geometry": {"type": "LineString", "coordinates": [[18.059312, 59.330746], [18.058916, 59.331179], [18.058857, 59.33124]]}, "properties": {"@id": "way/427926629", "cycleway:right": "lane", "foot": "no", "highway": "secondary", "lcn": "yes", "maxspeed": "50", "name": "Vasagatan", "oneway": "yes", "surface": "asphalt", "wikidata": "Q679282", "wikipedia": "sv:Vasagatan, Stockholm"}}, {"type": "Feature", "id": "way/432147270", "geometry": {"type": "LineString", "coordinates": [[18.070016, 59.334251], [18.069985, 59.334359], [18.069887, 59.334465], [18.069801, 59.334527], [18.069679, 59.334597], [18.069511, 59.33464], [18.069354, 59.334672], [18.069168, 59.334678], [18.068976, 59.334674], [18.066994, 59.334572], [18.066788, 59.33456], [18.06656, 59.334525]]}, "properties": {"@id": "way/432147270", "bicycle": "no", "foot": "no", "highway": "secondary", "layer": "-1", "maxheight": "3", "maxspeed": "50", "name": "Klaratunneln", "oneway": "yes", "surface": "asphalt", "tunnel": "yes", "wikidata": "Q10546062", "wikipedia": "sv:Klaratunneln"}}, {"type": "Feature", "id": "way/432147271", "geometry": {"type": "LineString", "coordinates": [[18.069954, 59.334151], [18.070016, 59.334251]]}, "properties": {"@id": "way/432147271", "bicycle": "no", "foot": "no", "highway": "secondary", "maxspeed": "50", "name": "Klaratunneln", "oneway": "yes", "surface": "asphalt", "wikidata": "Q10546062", "wikipedia": "sv:Klaratunneln"}}, {"type": "Feature", "id": "way/432147272", "geometry": {"type": "LineString", "coordinates": [[18.06403, 59.330374], [18.062636, 59.330008]]}, "properties": {"@id": "way/432147272", "bicycle": "no", "foot": "no", "highway": "secondary", "layer": "-1", "lit": "24/7", "maxheight": "3", "maxspeed": "50", "name": "Klaratunneln", "oneway": "yes", "surface": "asphalt", "tunnel": "yes", "wikidata": "Q10546062", "wikipedia": "sv:Klaratunneln"}}, {"type": "Feature", "id": "way/432147273", "geometry": {"type": "LineString", "coordinates": [[18.06656, 59.334525], [18.066372, 59.334492], [18.066181, 59.334438], [18.065841, 59.334304], [18.06562, 59.334176], [18.065426, 59.334017], [18.065267, 59.333843], [18.065157, 59.333688], [18.065086, 59.333534], [18.065045, 59.333391], [18.065036, 59.333285], [18.065057, 59.333177], [18.065099, 59.333069], [18.065244, 59.332827], [18.065455, 59.332495], [18.065703, 59.332211]]}, "properties": {"@id": "way/432147273", "bicycle": "no", "foot": "no", "highway": "secondary", "lanes": "1", "layer": "-2", "maxheight": "3", "maxspeed": "50", "name": "Klaratunneln", "oneway": "yes", "surface": "asphalt", "tunnel": "yes", "wikidata": "Q10546062", "wikipedia": "sv:Klaratunneln"}}, {"type": "Feature", "id": "way/467760758", "geometry": {"type": "LineString", "coordinates": [[18.05245, 59.332673], [18.052584, 59.332705]]}, "properties": {"@id": "way/467760758", "bridge": "yes", "cycleway:right": "lane", "foot": "no", "highway": "secondary", "layer": "1", "maxspeed": "50", "name": "Kungsbron", "oneway": "yes", "surface": "asphalt", "wikidata": "Q6444547", "wikipedia": "sv:Kungsbron"}}, {"type": "Feature", "id": "way/493752030", "geometry": {"type": "LineString", "coordinates": [[18.057692, 59.33247], [18.057632, 59.332535], [18.057565, 59.332611], [18.057143, 59.333042], [18.057039, 59.333229], [18.05668, 59.333659]]}, "properties": {"@id": "way/493752030", "cycleway:right": "lane", "foot": "no", "highway": "secondary", "maxspeed": "50", "name": "Vasagatan", "oneway": "yes", "sidewalk": "separate", "surface": "asphalt", "wikidata": "Q679282", "wikipedia": "sv:Vasagatan, Stockholm"}}, {"type": "Feature", "id": "way/493752031", "geometry": {"type": "LineString", "coordinates": [[18.059764, 59.330239], [18.059392, 59.330655], [18.059312, 59.330746]]}, "properties": {"@id": "way/493752031", "cycleway:right": "shared_lane", "foot": "no", "highway": "secondary", "lcn": "yes", "maxspeed": "50", "name": "Vasagatan", "oneway": "yes", "surface": "asphalt", "wikidata": "Q679282", "wikipedia": "sv:Vasagatan, Stockholm"}}, {"type": "Feature", "id": "way/497479643", "geometry": {"type": "LineString", "coordinates": [[18.064207, 59.335031], [18.063837, 59.335408], [18.063681, 59.33556]]}, "properties": {"@id": "way/497479643", "cycleway:right": "lane", "foot": "no", "highway": "secondary", "maxspeed": "50", "name": "Sveav\u00e4gen", "oneway": "yes", "sidewalk": "separate", "surface": "asphalt", "wikidata": "Q1788276", "wikipedia": "sv:Sveav\u00e4gen"}}, {"type": "Feature", "id": "way/520217664", "geometry": {"type": "LineString", "coordinates": [[18.062455, 59.329792], [18.062556, 59.329685]]}, "properties": {"@id": "way/520217664", "bicycle": "no", "foot": "no", "highway": "secondary_link", "maxspeed": "50", "name": "R\u00f6dbodgatan", "oneway": "yes", "surface": "asphalt"}}, {"type": "Feature", "id": "way/520217665", "geometry": {"type": "LineString", "coordinates": [[18.062455, 59.329792], [18.06277, 59.329875], [18.062782, 59.32988]]}, "properties": {"@id": "way/520217665", "bicycle": "no", "foot": "no", "highway": "secondary", "lanes": "2", "maxspeed": "50", "name": "Herkulesgatan", "oneway": "yes", "surface": "asphalt"}}, {"type": "Feature", "id": "way/676101236", "geometry": {"type": "LineString", "coordinates": [[18.065703, 59.332211], [18.065918, 59.331864], [18.066032, 59.33161], [18.066034, 59.331405], [18.066007, 59.331271], [18.065947, 59.33118], [18.065864, 59.331076], [18.065678, 59.330912], [18.065479, 59.330792], [18.065296, 59.330712], [18.065063, 59.330631], [18.064849, 59.330573], [18.06403, 59.330374], [18.062589, 59.330062]]}, "properties": {"@id": "way/676101236", "bicycle": "no", "foot": "no", "highway": "secondary", "lanes": "2", "layer": "-1", "lit": "24/7", "maxheight": "3", "maxspeed": "50", "name": "Klaratunneln", "oneway": "yes", "surface": "asphalt", "tunnel": "yes", "wikidata": "Q10546062", "wikipedia": "sv:Klaratunneln"}}, {"type": "Feature", "id": "way/676101237", "geometry": {"type": "LineString", "coordinates": [[18.061187, 59.32936], [18.062048, 59.329556], [18.062556, 59.329685]]}, "properties": {"@id": "way/676101237", "bicycle": "no", "foot": "no", "highway": "secondary", "maxspeed": "50", "name": "Herkulesgatan", "oneway": "yes", "surface": "asphalt", "wikidata": "Q10522357", "wikipedia": "sv:Herkulesgatan"}}, {"type": "Feature", "id": "way/676101238", "geometry": {"type": "LineString", "coordinates": [[18.065969, 59.332251], [18.065244, 59.333262]]}, "properties": {"@id": "way/676101238", "bicycle": "no", "foot": "no", "highway": "secondary", "lanes": "1", "layer": "-1", "lit": "24/7", "maxheight": "3", "maxspeed": "50", "name": "Klaratunneln", "oneway": "yes", "surface": "asphalt", "tunnel": "yes", "wikidata": "Q10546062", "wikipedia": "sv:Klaratunneln"}}, {"type": "Feature", "id": "way/689217946", "geometry": {"type": "LineString", "coordinates": [[18.069724, 59.334239], [18.069696, 59.334207], [18.069584, 59.334132]]}, "properties": {"@id": "way/689217946", "bicycle": "no", "foot": "no", "highway": "secondary", "lanes": "1", "maxheight": "3", "maxspeed": "50", "name": "Klaratunneln", "oneway": "yes", "surface": "asphalt", "wikidata": "Q10546062", "wikipedia": "sv:Klaratunneln"}}, {"type": "Feature", "id": "way/689217947", "geometry": {"type": "LineString", "coordinates": [[18.069811, 59.334379], [18.069782, 59.33431], [18.069754, 59.334274], [18.069724, 59.334239]]}, "properties": {"@id": "way/689217947", "bicycle": "no", "foot": "no", "highway": "secondary", "lanes": "1", "layer": "-1", "lit": "24/7", "maxheight": "3", "maxspeed": "50", "name": "Klaratunneln", "oneway": "yes", "surface": "asphalt", "tunnel": "yes", "wikidata": "Q10546062", "wikipedia": "sv:Klaratunneln"}}, {"type": "Feature", "id": "way/724521707", "geometry": {"type": "LineString", "coordinates": [[18.062633, 59.33658], [18.062567, 59.336651], [18.061707, 59.337564], [18.061639, 59.337635], [18.061536, 59.337744], [18.061363, 59.337928]]}, "properties": {"@id": "way/724521707", "cycleway:right": "track", "foot": "no", "highway": "secondary", "lit": "yes", "maxspeed": "50", "name": "Sveav\u00e4gen", "oneway": "yes", "sidewalk": "separate", "surface": "asphalt", "wikidata": "Q1788276", "wikipedia": "sv:Sveav\u00e4gen"}}, {"type": "Feature", "id": "way/739526722", "geometry": {"type": "LineString", "coordinates": [[18.053932, 59.334387], [18.054152, 59.334439], [18.055373, 59.334734], [18.055543, 59.334775]]}, "properties": {"@id": "way/739526722", "cycleway:right": "lane", "foot": "no", "highway": "secondary", "maxspeed": "50", "name": "Olof Palmes Gata", "oneway": "yes", "surface": "asphalt", "wikidata": "Q10609262", "wikipedia": "sv:Olof Palmes gata, Stockholm"}}, {"type": "Feature", "id": "way/739526725", "geometry": {"type": "LineString", "coordinates": [[18.053264, 59.335237], [18.05319, 59.335256], [18.053106, 59.335266], [18.053075, 59.335268], [18.052989, 59.335257]]}, "properties": {"@id": "way/739526725", "cycleway:right": "track", "foot": "no", "highway": "secondary", "maxspeed": "50", "name": "Torsgatan", "note": "Korsningen har byggts om och satellitbilden st\u00e4mmer inte", "oneway": "yes", "surface": "asphalt"}}, {"type": "Feature", "id": "way/739526726", "geometry": {"type": "LineString", "coordinates": [[18.05322, 59.335197], [18.053208, 59.335173], [18.053207, 59.335145], [18.053833, 59.334487], [18.053932, 59.334387]]}, "properties": {"@id": "way/739526726", "cycleway:right": "track", "foot": "no", "highway": "secondary", "maxspeed": "50", "name": "\u00d6stra J\u00e4rnv\u00e4gsgatan", "oneway": "yes", "surface": "asphalt"}}, {"type": "Feature", "id": "way/739526730", "geometry": {"type": "LineString", "coordinates": [[18.04091, 59.337997], [18.041143, 59.337883], [18.041555, 59.337698], [18.042071, 59.337472], [18.042623, 59.337266], [18.043061, 59.337138], [18.043464, 59.337042], [18.044382, 59.33685], [18.045447, 59.336673], [18.045829, 59.336609], [18.046631, 59.336479], [18.048528, 59.33617], [18.048812, 59.336106], [18.049639, 59.335954]]}, "properties": {"@id": "way/739526730", "cycleway": "track", "foot": "no", "highway": "secondary", "maxspeed": "30", "name": "Torsgatan", "surface": "asphalt", "wikidata": "Q10700359", "wikipedia": "sv:Torsgatan"}}]}