{"type": "FeatureCollection", "features": [{"type": "Feature", "id": "way/1682316", "geometry": {"type": "LineString", "coordinates": [[18.049909, 59.342602], [18.049993, 59.342517], [18.051739, 59.340759]]}, "properties": {"@id": "way/1682316", "cycleway": "opposite", "highway": "residential", "lit": "yes", "maxspeed": "30", "name": "Vegagatan", "oneway": "yes", "sidewalk": "separate", "surface": "asphalt", "wikidata": "Q15904442", "wikipedia": "sv:Vegagatan"}}, {"type": "Feature", "id": "way/1767266", "geometry": {"type": "LineString", "coordinates": [[18.048471, 59.344035], [18.048415, 59.344093], [18.047676, 59.344846], [18.047599, 59.344923]]}, "properties": {"@id": "way/1767266", "check_date": "2019-12-10", "highway": "residential", "lit": "yes", "maxspeed": "30", "name": "Heimdalsgatan", "sidewalk": "separate", "surface": "asphalt"}}, {"type": "Feature", "id": "way/1767268", "geometry": {"type": "LineString", "coordinates": [[18.047424, 59.343764], [18.04757, 59.343802], [18.048471, 59.344035], [18.049454, 59.344285], [18.049594, 59.34432]]}, "properties": {"@id": "way/1767268", "check_date": "2019-12-09", "highway": "residential", "lit": "yes", "maxspeed": "30", "name": "Vidargatan", "sidewalk": "separate", "surface": "asphalt"}}, {"type": "Feature", "id": "way/1767273", "geometry": {"type": "LineString", "coordinates": [[18.059974, 59.33721], [18.059908, 59.337286], [18.059518, 59.33768], [18.05948, 59.337718], [18.059462, 59.337738], [18.05945, 59.337751], [18.058934, 59.338283]]}, "properties": {"@id": "way/1767273", "cycleway": "opposite", "highway": "residential", "maxspeed": "30", "name": "Holl\u00e4ndargatan", "oneway": "yes", "oneway:bicycle": "no", "surface": "asphalt", "wikidata": "Q10525252", "wikipedia": "sv:Holl\u00e4ndargatan"}}, {"type": "Feature", "id": "way/2000692", "geometry": {"type": "LineString", "coordinates": [[18.053046, 59.336122], [18.052861, 59.336111], [18.051516, 59.33605], [18.051402, 59.33605], [18.051291, 59.336057]]}, "properties": {"@id": "way/2000692", "highway": "residential", "maxspeed": "30", "name": "Wallingatan", "sidewalk": "separate", "surface": "asphalt", "wikidata": "Q10719196", "wikipedia": "sv:Wallingatan"}}, {"type": "Feature", "id": "way/2001192", "geometry": {"type": "LineString", "coordinates": [[18.044075, 59.34114], [18.044022, 59.341191], [18.04394, 59.341267], [18.042762, 59.342447], [18.042739, 59.342486], [18.042728, 59.342534], [18.042724, 59.342587], [18.042715, 59.342685]]}, "properties": {"@id": "way/2001192", "highway": "residential", "maxspeed": "30", "name": "H\u00e4lsingegatan", "oneway": "yes", "oneway:bicycle": "no", "sidewalk": "separate", "surface": "asphalt"}}, {"type": "Feature", "id": "way/2407293", "geometry": {"type": "LineString", "coordinates": [[18.045447, 59.336673], [18.045484, 59.336733], [18.045617, 59.336952], [18.045763, 59.337195], [18.045763, 59.337246], [18.045731, 59.337291], [18.045556, 59.337475], [18.045188, 59.337822], [18.044582, 59.338431], [18.043806, 59.339177], [18.04376, 59.339233], [18.043748, 59.339277], [18.043773, 59.339309], [18.043812, 59.339332]]}, "properties": {"@id": "way/2407293", "highway": "residential", "maxspeed": "30", "name": "Torsgr\u00e4nd", "surface": "asphalt"}}, {"type": "Feature", "id": "way/2407898", "geometry": {"type": "LineString", "coordinates": [[18.040301, 59.337983], [18.040139, 59.337996], [18.04009, 59.338004], [18.039571, 59.338085], [18.038603, 59.338258], [18.038528, 59.338271], [18.038406, 59.338293], [18.037411, 59.33847], [18.037303, 59.33849]]}, "properties": {"@id": "way/2407898", "cycleway": "opposite", "highway": "residential", "lit": "yes", "maxspeed": "30", "name": "Atlasgatan", "oneway": "yes", "sidewalk": "both", "surface": "asphalt"}}, {"type": "Feature", "id": "way/2407900", "geometry": {"type": "LineString", "coordinates": [[18.038528, 59.338271], [18.038484, 59.338206], [18.038162, 59.337733], [18.038129, 59.337686]]}, "properties": {"@id": "way/2407900", "highway": "residential", "lit": "yes", "maxspeed": "30", "name": "V\u00f6lundsgatan", "oneway": "yes", "sidewalk": "both", "surface": "asphalt"}}, {"type": "Feature", "id": "way/2407902", "geometry": {"type": "LineString", "coordinates": [[18.039655, 59.337547], [18.040185, 59.33786], [18.040301, 59.337983]]}, "properties": {"@id": "way/2407902", "cycleway": "opposite", "highway": "residential", "lit": "yes", "maxspeed": "30", "motor_vehicle": "designated", "name": "Lokstallsgatan", "oneway": "yes", "sidewalk": "separate", "surface": "asphalt"}}, {"type": "Feature", "id": "way/2427012", "geometry": {"type": "LineString", "coordinates": [[18.040653, 59.3403], [18.040608, 59.340346], [18.040595, 59.340361], [18.04054, 59.340421], [18.039063, 59.342035]]}, "properties": {"@id": "way/2427012", "highway": "residential", "maxspeed": "30", "name": "G\u00e4strikegatan", "sidewalk": "separate", "surface": "asphalt"}}, {"type": "Feature", "id": "way/4352603", "geometry": {"type": "LineString", "coordinates": [[18.039442, 59.333599], [18.039415, 59.333545], [18.039386, 59.333488], [18.038798, 59.332321]]}, "properties": {"@id": "way/4352603", "highway": "residential", "maxspeed": "30", "name": "Celsiusgatan", "oneway": "yes", "parking:lane:both": "parallel", "surface": "asphalt", "wikidata": "Q15890678", "wikipedia": "sv:Celsiusgatan, Stockholm"}}, {"type": "Feature", "id": "way/4352604", "geometry": {"type": "LineString", "coordinates": [[18.0408, 59.332655], [18.043031, 59.332367]]}, "properties": {"@id": "way/4352604", "highway": "residential", "maxspeed": "30", "name": "Hj\u00e4rnegatan", "oneway": "yes", "parking:lane:both": "parallel", "surface": "asphalt"}}, {"type": "Feature", "id": "way/4352605", "geometry": {"type": "LineString", "coordinates": [[18.040547, 59.33208], [18.0408, 59.332655], [18.041071, 59.333273], [18.041094, 59.333326]]}, "properties": {"@id": "way/4352605", "highway": "residential", "maxspeed": "30", "name": "Wargentinsgatan", "parking:lane:both": "parallel", "surface": "asphalt", "wikidata": "Q15145488", "wikipedia": "sv:Wargentinsgatan"}}, {"type": "Feature", "id": "way/4352606", "geometry": {"type": "LineString", "coordinates": [[18.046794, 59.332583], [18.046762, 59.332522], [18.046152, 59.33131], [18.045956, 59.330933], [18.045676, 59.330394], [18.045569, 59.330193], [18.0453, 59.32967]]}, "properties": {"@id": "way/4352606", "highway": "residential", "maxspeed": "30", "name": "Pipersgatan", "oneway": "yes", "surface": "asphalt", "wikidata": "Q10632058", "wikipedia": "sv:Pipersgatan"}}, {"type": "Feature", "id": "way/4352645", "geometry": {"type": "LineString", "coordinates": [[18.047467, 59.333793], [18.047386, 59.333646], [18.047333, 59.333548]]}, "properties": {"@id": "way/4352645", "highway": "residential", "maxspeed": "30", "name": "Pipersgatan", "surface": "asphalt", "wikidata": "Q10632058", "wikipedia": "sv:Pipersgatan"}}, {"type": "Feature", "id": "way/4352648", "geometry": {"type": "LineString", "coordinates": [[18.044822, 59.328783], [18.044867, 59.328865], [18.0453, 59.32967]]}, "properties": {"@id": "way/4352648", "highway": "residential", "maxspeed": "30", "name": "Pipersgatan", "oneway": "yes", "surface": "asphalt", "wikidata": "Q10632058", "wikipedia": "sv:Pipersgatan"}}, {"type": "Feature", "id": "way/4352652", "geometry": {"type": "LineString", "coordinates": [[18.042186, 59.333653], [18.041952, 59.333609], [18.041688, 59.333593], [18.041227, 59.333644], [18.040893, 59.333683], [18.040632, 59.333747], [18.040448, 59.333838], [18.04029, 59.333973], [18.040247, 59.334046], [18.040221, 59.334122], [18.040224, 59.334204], [18.040246, 59.334286], [18.040286, 59.334358], [18.040362, 59.334431], [18.040536, 59.33455], [18.040746, 59.334625], [18.041025, 59.334679], [18.041173, 59.334684], [18.041318, 59.33468], [18.041696, 59.334635], [18.042123, 59.334578], [18.042256, 59.334542], [18.04242, 59.33449], [18.042493, 59.334451], [18.042576, 59.3344], [18.042707, 59.33424], [18.042727, 59.334106], [18.042684, 59.333981], [18.042599, 59.333849], [18.042464, 59.333745], [18.042186, 59.333653]]}, "properties": {"@id": "way/4352652", "highway": "residential", "maxspeed": "30", "name": "Grubbensringen", "oneway": "yes"}}, {"type": "Feature", "id": "way/4352756", "geometry": {"type": "LineString", "coordinates": [[18.041428, 59.329235], [18.041343, 59.329153], [18.041067, 59.328582], [18.04107, 59.328564], [18.041073, 59.328548]]}, "properties": {"@id": "way/4352756", "cycleway": "opposite", "highway": "residential", "maxspeed": "30", "name": "S\u00f6dra Agnegatan", "oneway": "yes", "surface": "asphalt", "wikidata": "Q15870363", "wikipedia": "sv:Agnegatan"}}, {"type": "Feature", "id": "way/4352757", "geometry": {"type": "LineString", "coordinates": [[18.039837, 59.330388], [18.039809, 59.330323], [18.039496, 59.3296], [18.039452, 59.329498]]}, "properties": {"@id": "way/4352757", "highway": "residential", "maxspeed": "30", "name": "Pilgatan", "surface": "asphalt"}}, {"type": "Feature", "id": "way/4352791", "geometry": {"type": "LineString", "coordinates": [[18.042356, 59.34073], [18.042312, 59.340776], [18.042249, 59.340844], [18.040594, 59.342505], [18.040563, 59.342596], [18.040544, 59.342689]]}, "properties": {"@id": "way/4352791", "cycleway": "opposite", "highway": "residential", "maxspeed": "30", "name": "Sigtunagatan", "oneway": "yes", "sidewalk": "separate", "surface": "asphalt"}}, {"type": "Feature", "id": "way/4352795", "geometry": {"type": "LineString", "coordinates": [[18.050265, 59.337013], [18.050433, 59.337036], [18.050517, 59.337048], [18.051754, 59.337378], [18.051893, 59.337434]]}, "properties": {"@id": "way/4352795", "highway": "residential", "maxspeed": "30", "name": "Tegn\u00e9rgatan", "oneway": "yes", "sidewalk": "separate", "surface": "asphalt"}}, {"type": "Feature", "id": "way/4353030", "geometry": {"type": "LineString", "coordinates": [[18.051893, 59.337434], [18.052016, 59.337466], [18.053222, 59.337788], [18.053366, 59.337823]]}, "properties": {"@id": "way/4353030", "highway": "residential", "maxspeed": "30", "name": "Tegn\u00e9rgatan", "sidewalk": "separate", "surface": "asphalt"}}, {"type": "Feature", "id": "way/4353032", "geometry": {"type": "LineString", "coordinates": [[18.036487, 59.335868], [18.036606, 59.335853], [18.038248, 59.335638], [18.038896, 59.33555], [18.039078, 59.335487]]}, "properties": {"@id": "way/4353032", "highway": "residential", "maxspeed": "30", "name": "\u00c5ngstr\u00f6msgatan"}}, {"type": "Feature", "id": "way/4485702", "geometry": {"type": "LineString", "coordinates": [[18.053463, 59.336012], [18.053626, 59.336161], [18.054584, 59.336386], [18.054751, 59.336427], [18.054926, 59.336472], [18.057427, 59.337108], [18.057858, 59.337217]]}, "properties": {"@id": "way/4485702", "cycleway": "opposite", "highway": "residential", "lit": "yes", "maxspeed": "30", "name": "Wallingatan", "oneway": "yes", "oneway:bicycle": "no", "sidewalk": "separate", "surface": "asphalt", "wikidata": "Q10719196", "wikipedia": "sv:Wallingatan"}}, {"type": "Feature", "id": "way/4486542", "geometry": {"type": "LineString", "coordinates": [[18.055617, 59.338414], [18.05583, 59.338467], [18.0565, 59.338633]]}, "properties": {"@id": "way/4486542", "highway": "residential", "maxspeed": "30", "name": "Tegn\u00e9rgatan", "sidewalk": "separate", "surface": "asphalt", "wikidata": "Q10691873", "wikipedia": "sv:Tegn\u00e9rgatan"}}, {"type": "Feature", "id": "way/4486548", "geometry": {"type": "LineString", "coordinates": [[18.064337, 59.336313], [18.063802, 59.336891], [18.06344, 59.337267], [18.06338, 59.337367]]}, "properties": {"@id": "way/4486548", "cycleway": "opposite", "highway": "residential", "lit": "yes", "maxspeed": "30", "name": "Luntmakargatan", "oneway": "yes", "surface": "asphalt", "wikidata": "Q10570913", "wikipedia": "sv:Luntmakargatan"}}, {"type": "Feature", "id": "way/4486574", "geometry": {"type": "LineString", "coordinates": [[18.058796, 59.339228], [18.057859, 59.340164], [18.057793, 59.340229], [18.057466, 59.34056], [18.056942, 59.341078], [18.056899, 59.341116]]}, "properties": {"@id": "way/4486574", "cycleway": "opposite", "highway": "residential", "maxspeed": "30", "name": "Saltm\u00e4targatan", "oneway": "yes", "sidewalk": "separate", "surface": "asphalt", "wikidata": "Q15813074", "wikipedia": "sv:Saltm\u00e4targatan"}}, {"type": "Feature", "id": "way/4488171", "geometry": {"type": "LineString", "coordinates": [[18.058796, 59.339228], [18.058856, 59.339169], [18.059574, 59.338449]]}, "properties": {"@id": "way/4488171", "cycleway": "opposite", "highway": "residential", "maxspeed": "30", "name": "Saltm\u00e4targatan", "oneway": "yes", "surface": "asphalt", "wikidata": "Q15813074", "wikipedia": "sv:Saltm\u00e4targatan"}}, {"type": "Feature", "id": "way/4490151", "geometry": {"type": "LineString", "coordinates": [[18.063812, 59.340571], [18.063745, 59.340643], [18.062998, 59.341457], [18.062917, 59.341544]]}, "properties": {"@id": "way/4490151", "highway": "residential", "maxspeed": "30", "name": "Tulegatan", "surface": "asphalt", "wikidata": "Q7852008", "wikipedia": "sv:Tulegatan"}}, {"type": "Feature", "id": "way/4490982", "geometry": {"type": "LineString", "coordinates": [[18.052819, 59.341032], [18.052937, 59.341062], [18.053064, 59.341055], [18.053474, 59.340944], [18.054214, 59.340749], [18.054458, 59.340679], [18.054636, 59.340629], [18.054779, 59.340568]]}, "properties": {"@id": "way/4490982", "highway": "residential", "lit": "yes", "maxspeed": "30", "name": "Drottninggatan", "sidewalk": "separate", "surface": "asphalt", "wikidata": "Q2066219", "wikipedia": "sv:Drottninggatan, Stockholm"}}, {"type": "Feature", "id": "way/4490987", "geometry": {"type": "LineString", "coordinates": [[18.055617, 59.338414], [18.055537, 59.338486], [18.055263, 59.338763], [18.055215, 59.338786], [18.055158, 59.338794], [18.055077, 59.338788], [18.054374, 59.338601], [18.054228, 59.338564], [18.053085, 59.338273], [18.05295, 59.33824]]}, "properties": {"@id": "way/4490987", "highway": "residential", "maxspeed": "30", "name": "Tegn\u00e9rlunden", "oneway": "yes", "sidewalk": "separate", "surface": "asphalt"}}, {"type": "Feature", "id": "way/4491056", "geometry": {"type": "LineString", "coordinates": [[18.057623, 59.342272], [18.058557, 59.342517], [18.059699, 59.342817]]}, "properties": {"@id": "way/4491056", "access": "yes", "highway": "residential", "lit": "yes", "maxspeed": "30", "motor_vehicle": "yes", "name": "Rehnsgatan", "oneway": "no", "surface": "asphalt", "wikidata": "Q7309831", "wikipedia": "sv:Rehnsgatan"}}, {"type": "Feature", "id": "way/4491058", "geometry": {"type": "LineString", "coordinates": [[18.056454, 59.34314], [18.056586, 59.343174], [18.057662, 59.343457]]}, "properties": {"@id": "way/4491058", "cycleway": "opposite", "highway": "residential", "lit": "yes", "maxspeed": "30", "name": "Markvardsgatan", "oneway": "yes", "sidewalk": "separate", "surface": "asphalt"}}, {"type": "Feature", "id": "way/4491064", "geometry": {"type": "LineString", "coordinates": [[18.066404, 59.34372], [18.066277, 59.343638], [18.066182, 59.343593], [18.065432, 59.343394], [18.065087, 59.343302], [18.064916, 59.343257], [18.064401, 59.343125], [18.063998, 59.343019], [18.063876, 59.342986], [18.063668, 59.342934], [18.063585, 59.342913], [18.06351, 59.342894]]}, "properties": {"@id": "way/4491064", "highway": "residential", "maxspeed": "30", "name": "Kungstensgatan", "surface": "asphalt", "wikidata": "Q15120837", "wikipedia": "sv:Kungstensgatan"}}, {"type": "Feature", "id": "way/4491067", "geometry": {"type": "LineString", "coordinates": [[18.052806, 59.340167], [18.052876, 59.340098], [18.053422, 59.339562], [18.053791, 59.339186], [18.053861, 59.339113], [18.053925, 59.339049], [18.054374, 59.338601]]}, "properties": {"@id": "way/4491067", "cycleway": "opposite", "highway": "residential", "lit": "yes", "maxspeed": "30", "name": "Teknologgatan", "oneway": "yes", "sidewalk": "separate", "surface": "asphalt"}}, {"type": "Feature", "id": "way/4491173", "geometry": {"type": "LineString", "coordinates": [[18.046936, 59.331199], [18.046999, 59.331307], [18.049012, 59.331834]]}, "properties": {"@id": "way/4491173", "highway": "residential", "maxspeed": "30", "name": "Kungsgatan", "surface": "asphalt", "wikidata": "Q836909", "wikipedia": "sv:Kungsgatan, Stockholm"}}, {"type": "Feature", "id": "way/4491235", "geometry": {"type": "LineString", "coordinates": [[18.064265, 59.341907], [18.064447, 59.341966]]}, "properties": {"@id": "way/4491235", "foot": "no", "highway": "residential", "maxspeed": "30", "name": "R\u00e5dmansgatan", "surface": "asphalt", "wikidata": "Q10658680", "wikipedia": "sv:R\u00e5dmansgatan, Stockholm"}}, {"type": "Feature", "id": "way/4491237", "geometry": {"type": "LineString", "coordinates": [[18.065514, 59.340786], [18.065592, 59.340871]]}, "properties": {"@id": "way/4491237", "highway": "residential", "maxspeed": "30", "name": "Runebergsgatan", "oneway": "yes", "surface": "asphalt", "wikidata": "Q10657800", "wikipedia": "sv:Runebergsgatan"}}, {"type": "Feature", "id": "way/4491239", "geometry": {"type": "LineString", "coordinates": [[18.064916, 59.343257], [18.064984, 59.343191], [18.06542, 59.342765], [18.065458, 59.342751], [18.065579, 59.342706]]}, "properties": {"@id": "way/4491239", "highway": "residential", "lit": "yes", "maxspeed": "30", "name": "Fryxellsgatan", "source": "survey", "surface": "asphalt", "wikidata": "Q28065016", "wikipedia": "sv:Fryxellsgatan"}}, {"type": "Feature", "id": "way/4491243", "geometry": {"type": "LineString", "coordinates": [[18.06314, 59.343646], [18.06308, 59.343723], [18.062994, 59.343781], [18.062824, 59.343849]]}, "properties": {"@id": "way/4491243", "highway": "residential", "maxspeed": "50", "name": "Roslagsgatan", "oneway": "yes", "surface": "asphalt", "wikidata": "Q10657104", "wikipedia": "sv:Roslagsgatan"}}, {"type": "Feature", "id": "way/4491309", "geometry": {"type": "LineString", "coordinates": [[18.055265, 59.335449], [18.055255, 59.335534], [18.055173, 59.33568], [18.055118, 59.335766]]}, "properties": {"@id": "way/4491309", "cycleway:left": "opposite_lane", "foot": "no", "highway": "residential", "maxspeed": "30", "name": "Upplandsgatan", "oneway": "yes", "oneway:bicycle": "no", "surface": "asphalt", "wikidata": "Q15116497", "wikipedia": "sv:Upplandsgatan"}}, {"type": "Feature", "id": "way/4491325", "geometry": {"type": "LineString", "coordinates": [[18.049997, 59.33588], [18.050041, 59.335926], [18.050167, 59.335992], [18.050199, 59.336003], [18.050373, 59.336061], [18.050907, 59.336201]]}, "properties": {"@id": "way/4491325", "highway": "residential", "lit": "yes", "maxspeed": "30", "name": "Kammakargatan", "sidewalk": "separate", "source": "survey", "surface": "asphalt", "wikidata": "Q10543155", "wikipedia": "sv:Kammakargatan"}}, {"type": "Feature", "id": "way/4491342", "geometry": {"type": "LineString", "coordinates": [[18.055118, 59.335766], [18.055218, 59.335791], [18.056209, 59.336038], [18.056676, 59.336154], [18.057133, 59.336272], [18.058433, 59.336592]]}, "properties": {"@id": "way/4491342", "cycleway": "opposite", "highway": "residential", "maxspeed": "30", "name": "Barnhusgatan", "oneway": "yes", "oneway:bicycle": "no", "sidewalk": "separate", "surface": "asphalt", "wikidata": "Q10426539", "wikipedia": "sv:Barnhusgatan"}}, {"type": "Feature", "id": "way/4491363", "geometry": {"type": "LineString", "coordinates": [[18.057149, 59.335186], [18.057208, 59.335123], [18.057455, 59.334864]]}, "properties": {"@id": "way/4491363", "highway": "residential", "lit": "yes", "maxspeed": "30", "name": "Klara Norra Kyrkogata", "surface": "asphalt", "wikidata": "Q10546043", "wikipedia": "sv:Klara norra kyrkogata"}}, {"type": "Feature", "id": "way/4492350", "geometry": {"type": "LineString", "coordinates": [[18.067364, 59.337219], [18.067225, 59.337984], [18.067182, 59.338258], [18.067108, 59.338836], [18.067072, 59.338964], [18.067007, 59.339049], [18.065994, 59.340107], [18.065946, 59.340144]]}, "properties": {"@id": "way/4492350", "cycleway": "opposite", "highway": "residential", "maxspeed": "30", "name": "Regeringsgatan", "oneway": "yes", "oneway:bicycle": "no", "wikidata": "Q10650487", "wikipedia": "sv:Regeringsgatan, Stockholm"}}, {"type": "Feature", "id": "way/4492780", "geometry": {"type": "LineString", "coordinates": [[18.061411, 59.341139], [18.061247, 59.341094], [18.060155, 59.340797], [18.059107, 59.340511], [18.058967, 59.340473]]}, "properties": {"@id": "way/4492780", "highway": "residential", "lit": "yes", "maxspeed": "30", "name": "R\u00e5dmansgatan", "oneway": "yes", "surface": "asphalt", "wikidata": "Q10658680", "wikipedia": "sv:R\u00e5dmansgatan, Stockholm"}}, {"type": "Feature", "id": "way/4492792", "geometry": {"type": "LineString", "coordinates": [[18.057859, 59.340164], [18.058682, 59.340391], [18.05881, 59.340429], [18.058967, 59.340473]]}, "properties": {"@id": "way/4492792", "highway": "residential", "lit": "yes", "maxspeed": "30", "name": "R\u00e5dmansgatan", "surface": "asphalt", "wikidata": "Q10658680", "wikipedia": "sv:R\u00e5dmansgatan, Stockholm"}}, {"type": "Feature", "id": "way/4492795", "geometry": {"type": "LineString", "coordinates": [[18.056899, 59.341116], [18.057795, 59.341356], [18.057908, 59.341385]]}, "properties": {"@id": "way/4492795", "cycleway": "opposite", "highway": "residential", "lit": "yes", "maxspeed": "30", "name": "Kungstensgatan", "oneway": "yes", "sidewalk": "separate", "surface": "asphalt", "wikidata": "Q15120837", "wikipedia": "sv:Kungstensgatan"}}, {"type": "Feature", "id": "way/4492815", "geometry": {"type": "LineString", "coordinates": [[18.055588, 59.339537], [18.054981, 59.339388], [18.053971, 59.33914], [18.053861, 59.339113], [18.052571, 59.33879], [18.052432, 59.338757]]}, "properties": {"@id": "way/4492815", "cycleway": "opposite", "highway": "residential", "maxspeed": "30", "name": "R\u00e5dmansgatan", "oneway": "yes", "sidewalk": "separate", "surface": "asphalt", "wikidata": "Q10658680", "wikipedia": "sv:R\u00e5dmansgatan, Stockholm"}}, {"type": "Feature", "id": "way/4494027", "geometry": {"type": "LineString", "coordinates": [[18.058934, 59.338283], [18.058782, 59.338291], [18.058125, 59.338971], [18.058066, 59.339031]]}, "properties": {"@id": "way/4494027", "cycleway": "opposite", "highway": "residential", "maxspeed": "30", "name": "Holl\u00e4ndargatan", "oneway": "yes", "oneway:bicycle": "no", "surface": "asphalt", "wikidata": "Q10525252", "wikipedia": "sv:Holl\u00e4ndargatan"}}, {"type": "Feature", "id": "way/4498215", "geometry": {"type": "LineString", "coordinates": [[18.054751, 59.336427], [18.054688, 59.336492], [18.054198, 59.336989], [18.054145, 59.337042], [18.054091, 59.337096], [18.053757, 59.337435], [18.053708, 59.337484]]}, "properties": {"@id": "way/4498215", "highway": "residential", "lit": "yes", "maxspeed": "30", "name": "Upplandsgatan", "sidewalk": "separate", "surface": "asphalt", "wikidata": "Q15116497", "wikipedia": "sv:Upplandsgatan"}}, {"type": "Feature", "id": "way/4524383", "geometry": {"type": "LineString", "coordinates": [[18.06109, 59.336081], [18.060014, 59.337154], [18.059974, 59.33721]]}, "properties": {"@id": "way/4524383", "cycleway": "opposite", "highway": "residential", "maxspeed": "30", "name": "Holl\u00e4ndargatan", "oneway": "yes", "sidewalk": "both", "surface": "asphalt", "wikidata": "Q10525252", "wikipedia": "sv:Holl\u00e4ndargatan"}}, {"type": "Feature", "id": "way/4647980", "geometry": {"type": "LineString", "coordinates": [[18.043828, 59.334094], [18.042889, 59.334216], [18.042707, 59.33424]]}, "properties": {"@id": "way/4647980", "highway": "residential", "maxspeed": "30", "name": "Ivan Oljelunds Gr\u00e4nd", "oneway": "yes"}}, {"type": "Feature", "id": "way/4647981", "geometry": {"type": "LineString", "coordinates": [[18.042464, 59.333745], [18.043652, 59.333585]]}, "properties": {"@id": "way/4647981", "highway": "residential", "maxspeed": "30", "name": "Maria Sandels Gr\u00e4nd", "oneway": "yes"}}, {"type": "Feature", "id": "way/4647982", "geometry": {"type": "LineString", "coordinates": [[18.043381, 59.333028], [18.043405, 59.333079], [18.043446, 59.333162], [18.043546, 59.333368], [18.043652, 59.333585], [18.043875, 59.334042], [18.043828, 59.334094]]}, "properties": {"@id": "way/4647982", "highway": "residential", "maxspeed": "30", "name": "Carl-Gustaf Lindstedts Gata"}}, {"type": "Feature", "id": "way/4647983", "geometry": {"type": "LineString", "coordinates": [[18.041073, 59.328548], [18.041148, 59.328533], [18.04138, 59.328507], [18.042448, 59.328388], [18.042548, 59.328376]]}, "properties": {"@id": "way/4647983", "cycleway": "opposite", "highway": "residential", "lit": "yes", "maxspeed": "30", "name": "Garvargatan", "oneway": "yes", "surface": "asphalt", "wikidata": "Q10503183", "wikipedia": "sv:Garvargatan, Stockholm"}}, {"type": "Feature", "id": "way/4648011", "geometry": {"type": "LineString", "coordinates": [[18.052819, 59.341032], [18.052723, 59.341131], [18.051936, 59.341944], [18.051562, 59.342333]]}, "properties": {"@id": "way/4648011", "highway": "residential", "lit": "yes", "maxspeed": "30", "name": "Norrtullsgatan", "sidewalk": "separate", "surface": "asphalt", "wikidata": "Q3344057", "wikipedia": "sv:Norrtullsgatan"}}, {"type": "Feature", "id": "way/4672473", "geometry": {"type": "LineString", "coordinates": [[18.035899, 59.334662], [18.036596, 59.33457], [18.03858, 59.334305]]}, "properties": {"@id": "way/4672473", "highway": "residential", "maxspeed": "30", "name": "Grubbens Gata", "oneway": "yes", "parking:lane:left": "parallel", "surface": "asphalt", "wikidata": "Q15795270", "wikipedia": "sv:Grubbens gata"}}, {"type": "Feature", "id": "way/4689693", "geometry": {"type": "LineString", "coordinates": [[18.060538, 59.333331], [18.060559, 59.33331]]}, "properties": {"@id": "way/4689693", "highway": "residential", "lit": "yes", "maxspeed": "30", "name": "Korgmakargr\u00e4nd", "oneway": "yes", "surface": "sett"}}, {"type": "Feature", "id": "way/4692445", "geometry": {"type": "LineString", "coordinates": [[18.052195, 59.343241], [18.052231, 59.3432]]}, "properties": {"@id": "way/4692445", "check_date": "2019-12-06", "highway": "residential", "lit": "yes", "maxspeed": "30", "name": "Gyld\u00e9ngatan", "surface": "asphalt"}}, {"type": "Feature", "id": "way/4693770", "geometry": {"type": "LineString", "coordinates": [[18.054186, 59.335759], [18.053463, 59.336012], [18.053228, 59.336087], [18.053046, 59.336122]]}, "properties": {"@id": "way/4693770", "highway": "residential", "lit": "yes", "maxspeed": "30", "name": "V\u00e4stmannagatan", "sidewalk": "separate", "surface": "asphalt", "wikidata": "Q15116455", "wikipedia": "sv:V\u00e4stmannagatan"}}, {"type": "Feature", "id": "way/4706306", "geometry": {"type": "LineString", "coordinates": [[18.065187, 59.336557], [18.06509, 59.336513], [18.064337, 59.336313]]}, "properties": {"@id": "way/4706306", "cycleway": "opposite", "highway": "residential", "maxspeed": "30", "name": "Apelbergsgatan", "oneway": "yes", "surface": "asphalt", "wikidata": "Q15802429", "wikipedia": "sv:Apelbergsgatan"}}, {"type": "Feature", "id": "way/4743520", "geometry": {"type": "LineString", "coordinates": [[18.044582, 59.338431], [18.044782, 59.338483], [18.045853, 59.33876]]}, "properties": {"@id": "way/4743520", "highway": "residential", "lit": "yes", "maxspeed": "30", "name": "Olivecronas V\u00e4g", "sidewalk": "separate", "surface": "asphalt"}}, {"type": "Feature", "id": "way/4995831", "geometry": {"type": "LineString", "coordinates": [[18.041699, 59.329746], [18.041471, 59.329318], [18.041428, 59.329235]]}, "properties": {"@id": "way/4995831", "highway": "residential", "maxspeed": "30", "name": "S\u00f6dra Agnegatan", "oneway": "no", "parking:lane:both": "parallel", "source": "survey", "surface": "asphalt", "wikidata": "Q15870363", "wikipedia": "sv:Agnegatan"}}, {"type": "Feature", "id": "way/4995837", "geometry": {"type": "LineString", "coordinates": [[18.047452, 59.329383], [18.047217, 59.328943], [18.047139, 59.328854], [18.046947, 59.328496]]}, "properties": {"@id": "way/4995837", "highway": "residential", "lit": "yes", "maxspeed": "30", "name": "Parmm\u00e4targatan", "oneway": "yes", "parking:lane:right": "parallel", "surface": "asphalt", "wikidata": "Q19978363", "wikipedia": "sv:Parmm\u00e4targatan"}}, {"type": "Feature", "id": "way/4995842", "geometry": {"type": "LineString", "coordinates": [[18.046947, 59.328496], [18.046919, 59.328414], [18.046631, 59.327871]]}, "properties": {"@id": "way/4995842", "cycleway": "opposite", "highway": "residential", "maxspeed": "30", "name": "Parmm\u00e4targatan", "oneway": "yes", "parking:lane:both": "parallel", "surface": "asphalt", "wikidata": "Q19978363", "wikipedia": "sv:Parmm\u00e4targatan"}}, {"type": "Feature", "id": "way/4995847", "geometry": {"type": "LineString", "coordinates": [[18.045007, 59.328071], [18.043089, 59.328309]]}, "properties": {"@id": "way/4995847", "cycleway": "opposite", "highway": "residential", "maxspeed": "30", "name": "Garvargatan", "oneway": "yes", "surface": "asphalt", "wikidata": "Q10503183", "wikipedia": "sv:Garvargatan, Stockholm"}}, {"type": "Feature", "id": "way/4996012", "geometry": {"type": "LineString", "coordinates": [[18.050517, 59.329766], [18.050433, 59.329673], [18.050361, 59.329438], [18.050384, 59.329399], [18.050282, 59.329047], [18.050238, 59.328965], [18.050143, 59.328631], [18.049937, 59.328169], [18.049906, 59.328099]]}, "properties": {"@id": "way/4996012", "highway": "residential", "maxspeed": "30", "name": "Kaplansbacken", "surface": "asphalt"}}, {"type": "Feature", "id": "way/4996023", "geometry": {"type": "LineString", "coordinates": [[18.047452, 59.329383], [18.047472, 59.329461], [18.047765, 59.330014]]}, "properties": {"@id": "way/4996023", "highway": "residential", "lit": "yes", "maxspeed": "30", "name": "Parmm\u00e4targatan", "surface": "asphalt", "wikidata": "Q19978363", "wikipedia": "sv:Parmm\u00e4targatan"}}, {"type": "Feature", "id": "way/15802886", "geometry": {"type": "LineString", "coordinates": [[18.043672, 59.329884], [18.0453, 59.32967]]}, "properties": {"@id": "way/15802886", "highway": "residential", "lit": "yes", "maxspeed": "30", "name": "Bergsgatan", "surface": "asphalt", "wikidata": "Q10428499", "wikipedia": "sv:Bergsgatan, Stockholm"}}, {"type": "Feature", "id": "way/19881101", "geometry": {"type": "LineString", "coordinates": [[18.036753, 59.33641], [18.036877, 59.336388], [18.037664, 59.336248], [18.038495, 59.336095], [18.038928, 59.336003], [18.039463, 59.33588], [18.040244, 59.335699], [18.040479, 59.335646], [18.040646, 59.335647]]}, "properties": {"@id": "way/19881101", "highway": "residential", "maxspeed": "30", "name": "Kungsholms Strand", "wikidata": "Q10550319", "wikipedia": "sv:Kungsholms strand"}}, {"type": "Feature", "id": "way/23089363", "geometry": {"type": "LineString", "coordinates": [[18.065411, 59.336004], [18.065466, 59.335865], [18.065517, 59.33572]]}, "properties": {"@id": "way/23089363", "bridge": "yes", "bridge:name": "Malmskillnadsbron", "cycleway": "opposite", "highway": "residential", "layer": "1", "maxspeed": "30", "name": "Malmskillnadsgatan", "oneway": "yes", "surface": "asphalt", "wikidata": "Q6744389", "wikipedia": "sv:Malmskillnadsbron"}}, {"type": "Feature", "id": "way/23089372", "geometry": {"type": "LineString", "coordinates": [[18.065517, 59.33572], [18.065619, 59.335399]]}, "properties": {"@id": "way/23089372", "cycleway": "opposite", "highway": "residential", "maxspeed": "30", "name": "Malmskillnadsgatan", "oneway": "yes", "surface": "asphalt"}}, {"type": "Feature", "id": "way/23089542", "geometry": {"type": "LineString", "coordinates": [[18.047584, 59.339706], [18.047725, 59.339742], [18.049091, 59.340088], [18.049225, 59.340122], [18.049375, 59.34016], [18.050531, 59.340453], [18.050691, 59.340493], [18.050827, 59.340529], [18.051575, 59.340717], [18.051739, 59.340759], [18.052738, 59.341008], [18.052819, 59.341032]]}, "properties": {"@id": "way/23089542", "highway": "residential", "lit": "yes", "maxspeed": "30", "name": "Observatoriegatan", "sidewalk": "separate", "surface": "asphalt", "wikidata": "Q15905329", "wikipedia": "sv:Observatoriegatan"}}, {"type": "Feature", "id": "way/23089562", "geometry": {"type": "LineString", "coordinates": [[18.056201, 59.340928], [18.054873, 59.340592], [18.054779, 59.340568]]}, "properties": {"@id": "way/23089562", "highway": "residential", "maxspeed": "30", "name": "Kungstensgatan", "oneway": "yes", "sidewalk": "separate", "surface": "asphalt", "wikidata": "Q15120837", "wikipedia": "sv:Kungstensgatan"}}, {"type": "Feature", "id": "way/24491945", "geometry": {"type": "LineString", "coordinates": [[18.065207, 59.342356], [18.065607, 59.342224], [18.065838, 59.342183]]}, "properties": {"@id": "way/24491945", "highway": "residential", "maxspeed": "30", "name": "Lodgatan", "wikidata": "Q10568801", "wikipedia": "sv:Lodgatan"}}, {"type": "Feature", "id": "way/24911338", "geometry": {"type": "LineString", "coordinates": [[18.047113, 59.340184], [18.046961, 59.340144], [18.045936, 59.33988], [18.045517, 59.339772], [18.044978, 59.339633]]}, "properties": {"@id": "way/24911338", "highway": "residential", "maxspeed": "30", "name": "Eastmansv\u00e4gen", "sidewalk": "separate", "surface": "asphalt", "wikidata": "Q60971004", "wikipedia": "sv:Eastmansv\u00e4gen"}}, {"type": "Feature", "id": "way/25749709", "geometry": {"type": "LineString", "coordinates": [[18.065532, 59.34134], [18.064906, 59.341995], [18.064844, 59.342081]]}, "properties": {"@id": "way/25749709", "highway": "residential", "maxspeed": "30", "name": "Birger Jarlsgatan", "oneway": "yes", "surface": "asphalt"}}, {"type": "Feature", "id": "way/26307808", "geometry": {"type": "LineString", "coordinates": [[18.050348, 59.34355], [18.050399, 59.343563], [18.050481, 59.343584], [18.051949, 59.343968], [18.052018, 59.343985], [18.05259, 59.344133], [18.052733, 59.34417]]}, "properties": {"@id": "way/26307808", "check_date": "2019-12-09", "cycleway:right": "shared_lane", "highway": "residential", "lit": "yes", "maxspeed": "30", "name": "Surbrunnsgatan", "oneway": "yes", "sidewalk": "separate", "surface": "asphalt", "wikidata": "Q10684144", "wikipedia": "sv:Surbrunnsgatan"}}, {"type": "Feature", "id": "way/27149534", "geometry": {"type": "LineString", "coordinates": [[18.065215, 59.336503], [18.065408, 59.336512], [18.066126, 59.336539], [18.067484, 59.336593]]}, "properties": {"@id": "way/27149534", "cycleway": "opposite", "highway": "residential", "maxspeed": "30", "name": "Brunnsgatan", "oneway": "yes", "surface": "asphalt"}}, {"type": "Feature", "id": "way/27423586", "geometry": {"type": "LineString", "coordinates": [[18.049002, 59.329176], [18.049323, 59.32982], [18.049067, 59.329855], [18.048735, 59.329217]]}, "properties": {"@id": "way/27423586", "highway": "residential", "maxspeed": "30", "name": "Kungsholms Kyrkoplan", "oneway": "yes", "surface": "asphalt"}}, {"type": "Feature", "id": "way/27423670", "geometry": {"type": "LineString", "coordinates": [[18.049323, 59.32982], [18.049398, 59.329978], [18.048223, 59.330135], [18.048042, 59.330159], [18.047812, 59.33019], [18.046968, 59.330302], [18.046893, 59.330125], [18.047729, 59.330018], [18.047765, 59.330014], [18.049067, 59.329855]]}, "properties": {"@id": "way/27423670", "highway": "residential", "lit": "yes", "maxspeed": "30", "name": "Kungsklippan", "name:de": "K\u00f6nigsklippe", "name:sv": "Kungsklippan", "oneway": "yes", "surface": "asphalt", "wikidata": "Q10550336", "wikipedia": "sv:Kungsklippan"}}, {"type": "Feature", "id": "way/27929222", "geometry": {"type": "LineString", "coordinates": [[18.049382, 59.332011], [18.049175, 59.331897], [18.049136, 59.331879], [18.049012, 59.331834]]}, "properties": {"@id": "way/27929222", "highway": "residential", "lanes": "1", "maxspeed": "30", "name": "Kungsgatan", "oneway": "yes", "surface": "asphalt", "wikidata": "Q836909", "wikipedia": "sv:Kungsgatan, Stockholm"}}, {"type": "Feature", "id": "way/28144167", "geometry": {"type": "LineString", "coordinates": [[18.04503, 59.33078], [18.044184, 59.330904]]}, "properties": {"@id": "way/28144167", "highway": "residential", "maxspeed": "30", "name": "Amarantergr\u00e4nd", "surface": "asphalt"}}, {"type": "Feature", "id": "way/28144179", "geometry": {"type": "LineString", "coordinates": [[18.045191, 59.330241], [18.043943, 59.330418]]}, "properties": {"@id": "way/28144179", "highway": "residential", "maxspeed": "30", "name": "Coldinutrappan", "surface": "asphalt"}}, {"type": "Feature", "id": "way/28167798", "geometry": {"type": "LineString", "coordinates": [[18.048839, 59.326826], [18.048863, 59.326901], [18.04933, 59.328177]]}, "properties": {"@id": "way/28167798", "highway": "residential", "lit": "yes", "maxspeed": "30", "name": "Skillinggr\u00e4nd", "oneway": "yes", "surface": "asphalt"}}, {"type": "Feature", "id": "way/28198007", "geometry": {"type": "LineString", "coordinates": [[18.05018, 59.3314], [18.050209, 59.331371], [18.050268, 59.331308], [18.050595, 59.331026]]}, "properties": {"@id": "way/28198007", "highway": "residential", "maxspeed": "30", "name": "Kungsbro strand", "surface": "asphalt"}}, {"type": "Feature", "id": "way/28198008", "geometry": {"type": "LineString", "coordinates": [[18.05018, 59.3314], [18.049311, 59.331164], [18.049178, 59.331047], [18.049086, 59.330908]]}, "properties": {"@id": "way/28198008", "highway": "residential", "maxspeed": "30", "name": "Kungsbro strand", "oneway": "yes", "surface": "asphalt"}}, {"type": "Feature", "id": "way/28473469", "geometry": {"type": "LineString", "coordinates": [[18.047333, 59.333548], [18.047265, 59.333425]]}, "properties": {"@id": "way/28473469", "highway": "residential", "layer": "-1", "maxheight": "4.3", "maxspeed": "30", "name": "Pipersgatan", "surface": "asphalt", "tunnel": "building_passage", "wikidata": "Q10632058", "wikipedia": "sv:Pipersgatan"}}, {"type": "Feature", "id": "way/28473470", "geometry": {"type": "LineString", "coordinates": [[18.047265, 59.333425], [18.046867, 59.332703], [18.046821, 59.332631], [18.046794, 59.332583]]}, "properties": {"@id": "way/28473470", "highway": "residential", "maxspeed": "30", "name": "Pipersgatan", "surface": "asphalt", "wikidata": "Q10632058", "wikipedia": "sv:Pipersgatan"}}, {"type": "Feature", "id": "way/28475690", "geometry": {"type": "LineString", "coordinates": [[18.05111, 59.329622], [18.051315, 59.329607], [18.051436, 59.329598], [18.051493, 59.329594], [18.052008, 59.329566], [18.052058, 59.329568], [18.052108, 59.329574], [18.052168, 59.329587], [18.052203, 59.329595]]}, "properties": {"@id": "way/28475690", "cycleway:right": "track", "highway": "residential", "lit": "yes", "maxspeed": "30", "name": "Bolinders plan", "oneway": "yes", "surface": "asphalt", "wikidata": "Q10432441", "wikipedia": "sv:Bolinders plan"}}, {"type": "Feature", "id": "way/28475695", "geometry": {"type": "LineString", "coordinates": [[18.04925, 59.330887], [18.049331, 59.331017], [18.049413, 59.331086], [18.050268, 59.331308]]}, "properties": {"@id": "way/28475695", "highway": "residential", "maxspeed": "30", "name": "Kungsbro strand", "oneway": "yes", "surface": "asphalt"}}, {"type": "Feature", "id": "way/28547936", "geometry": {"type": "LineString", "coordinates": [[18.048223, 59.330135], [18.048402, 59.330471], [18.048337, 59.330488], [18.048225, 59.330492], [18.048042, 59.330159]]}, "properties": {"@id": "way/28547936", "highway": "residential", "lit": "yes", "maxspeed": "30", "name": "Kungsklippan", "name:de": "K\u00f6nigsklippe", "name:sv": "Kungsklippan", "oneway": "yes", "surface": "asphalt", "wikidata": "Q10550336", "wikipedia": "sv:Kungsklippan"}}, {"type": "Feature", "id": "way/28547939", "geometry": {"type": "LineString", "coordinates": [[18.046968, 59.330302], [18.047076, 59.330511], [18.047071, 59.330535], [18.047029, 59.330563], [18.046968, 59.330561], [18.046909, 59.330542], [18.046875, 59.330465], [18.046968, 59.330302]]}, "properties": {"@id": "way/28547939", "highway": "residential", "maxspeed": "30", "name": "Kungsklippan", "name:de": "K\u00f6nigsklippe", "name:sv": "Kungsklippan", "oneway": "yes", "surface": "asphalt", "wikidata": "Q10550336", "wikipedia": "sv:Kungsklippan"}}, {"type": "Feature", "id": "way/28547949", "geometry": {"type": "LineString", "coordinates": [[18.046893, 59.330125], [18.046708, 59.33015], [18.046654, 59.330174], [18.04664, 59.330204], [18.046691, 59.330309], [18.046695, 59.330335], [18.046676, 59.330353], [18.046634, 59.330364], [18.046439, 59.33039], [18.046396, 59.330388], [18.046365, 59.330372], [18.046345, 59.330326], [18.046403, 59.330194]]}, "properties": {"@id": "way/28547949", "highway": "residential", "maxspeed": "30", "name": "Kungsklippan", "name:de": "K\u00f6nigsklippe", "name:sv": "Kungsklippan", "surface": "asphalt", "wikidata": "Q10550336", "wikipedia": "sv:Kungsklippan"}}, {"type": "Feature", "id": "way/28577820", "geometry": {"type": "LineString", "coordinates": [[18.051493, 59.32864], [18.051584, 59.328526], [18.051446, 59.327927]]}, "properties": {"@id": "way/28577820", "highway": "residential", "lit": "yes", "maxheight": "4", "maxspeed": "30", "name": "Serafimergr\u00e4nd", "surface": "asphalt"}}, {"type": "Feature", "id": "way/29136381", "geometry": {"type": "LineString", "coordinates": [[18.037637, 59.33248], [18.037772, 59.332462], [18.038798, 59.332321], [18.040547, 59.33208], [18.041736, 59.331913], [18.042566, 59.331798], [18.042718, 59.331782], [18.042899, 59.331757], [18.04459, 59.331525]]}, "properties": {"@id": "way/29136381", "highway": "residential", "maxspeed": "30", "name": "Kungsholmsgatan", "surface": "asphalt", "wikidata": "Q10550321", "wikipedia": "sv:Kungsholmsgatan"}}, {"type": "Feature", "id": "way/34209242", "geometry": {"type": "LineString", "coordinates": [[18.065619, 59.335399], [18.065297, 59.335355], [18.065236, 59.335355], [18.065211, 59.335355], [18.065187, 59.335363], [18.065078, 59.335489]]}, "properties": {"@id": "way/34209242", "highway": "residential", "maxspeed": "30", "name": "Oxtorgsgr\u00e4nd"}}, {"type": "Feature", "id": "way/34231301", "geometry": {"type": "LineString", "coordinates": [[18.053401, 59.329981], [18.053369, 59.330063], [18.053348, 59.330095]]}, "properties": {"@id": "way/34231301", "bridge": "yes", "highway": "residential", "layer": "2", "lit": "yes", "maxspeed": "30", "name": "Blekholmsterrassen", "surface": "asphalt", "wikidata": "Q10431225", "wikipedia": "sv:Blekholmsterrassen"}}, {"type": "Feature", "id": "way/34290567", "geometry": {"type": "LineString", "coordinates": [[18.038528, 59.338271], [18.038568, 59.338333], [18.038836, 59.338757]]}, "properties": {"@id": "way/34290567", "highway": "residential", "lit": "yes", "maxspeed": "30", "name": "V\u00f6lundsgatan", "sidewalk": "both", "surface": "asphalt"}}, {"type": "Feature", "id": "way/34387766", "geometry": {"type": "LineString", "coordinates": [[18.052414, 59.331087], [18.052923, 59.331211], [18.052985, 59.331252], [18.052996, 59.331279], [18.052982, 59.331317], [18.052925, 59.331365], [18.052853, 59.331377], [18.05275, 59.33137], [18.052254, 59.331251]]}, "properties": {"@id": "way/34387766", "bridge": "yes", "highway": "residential", "layer": "1", "lit": "yes", "maxspeed": "30", "name": "Blekholmstorget", "oneway": "yes", "surface": "paving_stones"}}, {"type": "Feature", "id": "way/35105925", "geometry": {"type": "LineString", "coordinates": [[18.051291, 59.336057], [18.051171, 59.336099], [18.051076, 59.336187]]}, "properties": {"@id": "way/35105925", "highway": "residential", "lit": "yes", "maxspeed": "30", "maxweight": "12", "name": "Dalagatan", "sidewalk": "separate", "surface": "asphalt", "wikidata": "Q10466054", "wikipedia": "sv:Dalagatan"}}, {"type": "Feature", "id": "way/35205844", "geometry": {"type": "LineString", "coordinates": [[18.061411, 59.341139], [18.061581, 59.341185], [18.062763, 59.341503], [18.062917, 59.341544], [18.063059, 59.341582], [18.064128, 59.34187], [18.064265, 59.341907]]}, "properties": {"@id": "way/35205844", "highway": "residential", "maxspeed": "30", "name": "R\u00e5dmansgatan", "surface": "asphalt", "wikidata": "Q10658680", "wikipedia": "sv:R\u00e5dmansgatan, Stockholm"}}, {"type": "Feature", "id": "way/35205845", "geometry": {"type": "LineString", "coordinates": [[18.052432, 59.338757], [18.052298, 59.338723], [18.05109, 59.338416], [18.050943, 59.33838]]}, "properties": {"@id": "way/35205845", "highway": "residential", "lit": "yes", "maxspeed": "30", "name": "R\u00e5dmansgatan", "sidewalk": "separate", "surface": "asphalt", "wikidata": "Q10658680", "wikipedia": "sv:R\u00e5dmansgatan, Stockholm"}}, {"type": "Feature", "id": "way/35205846", "geometry": {"type": "LineString", "coordinates": [[18.049307, 59.337973], [18.049178, 59.337936], [18.048626, 59.337799], [18.048475, 59.337726], [18.048378, 59.337635], [18.048318, 59.337538], [18.048319, 59.33741], [18.048327, 59.337371], [18.048334, 59.337338], [18.048367, 59.33714], [18.048385, 59.337039], [18.048547, 59.336863], [18.048576, 59.336811], [18.048537, 59.336765]]}, "properties": {"@id": "way/35205846", "highway": "residential", "maxspeed": "30", "name": "Crafoords V\u00e4g", "surface": "asphalt"}}, {"type": "Feature", "id": "way/35205847", "geometry": {"type": "LineString", "coordinates": [[18.048192, 59.336472], [18.048128, 59.336518], [18.047741, 59.336866], [18.047646, 59.336915], [18.047267, 59.337013], [18.04599, 59.337331], [18.045874, 59.337389], [18.045741, 59.337517]]}, "properties": {"@id": "way/35205847", "highway": "residential", "maxspeed": "30", "name": "H\u00e4lsobrunnsgatan", "oneway": "yes", "sidewalk": "separate", "surface": "asphalt"}}, {"type": "Feature", "id": "way/35277977", "geometry": {"type": "LineString", "coordinates": [[18.042718, 59.331782], [18.042779, 59.331897], [18.043031, 59.332367], [18.043316, 59.332901]]}, "properties": {"@id": "way/35277977", "highway": "residential", "maxspeed": "30", "name": "Norra Agnegatan", "oneway": "no", "parking:lane:both": "parallel", "surface": "asphalt", "wikidata": "Q15870363", "wikipedia": "sv:Agnegatan"}}, {"type": "Feature", "id": "way/35278615", "geometry": {"type": "LineString", "coordinates": [[18.039326, 59.329515], [18.039294, 59.329448], [18.039262, 59.329381], [18.038731, 59.328258]]}, "properties": {"@id": "way/35278615", "highway": "residential", "maxspeed": "30", "name": "Pilgatan", "parking:lane:both": "parallel", "surface": "asphalt"}}, {"type": "Feature", "id": "way/35551374", "geometry": {"type": "LineString", "coordinates": [[18.055118, 59.335766], [18.055075, 59.335838], [18.054799, 59.336372], [18.054751, 59.336427]]}, "properties": {"@id": "way/35551374", "cycleway": "opposite_lane", "highway": "residential", "lit": "yes", "maxspeed": "30", "name": "Upplandsgatan", "oneway": "yes", "oneway:bicycle": "no", "sidewalk": "separate", "surface": "asphalt", "wikidata": "Q15116497", "wikipedia": "sv:Upplandsgatan"}}, {"type": "Feature", "id": "way/37978846", "geometry": {"type": "LineString", "coordinates": [[18.065619, 59.335399], [18.066228, 59.335479], [18.066387, 59.335459], [18.06645, 59.335407], [18.06647, 59.335221]]}, "properties": {"@id": "way/37978846", "cycleway": "opposite", "highway": "residential", "maxspeed": "30", "name": "Oxtorget", "oneway": "yes"}}, {"type": "Feature", "id": "way/37988904", "geometry": {"type": "LineString", "coordinates": [[18.064931, 59.337104], [18.065187, 59.336557], [18.065215, 59.336503], [18.065236, 59.336437], [18.065411, 59.336004]]}, "properties": {"@id": "way/37988904", "cycleway": "opposite", "highway": "residential", "maxspeed": "30", "name": "Malmskillnadsgatan", "oneway": "yes", "surface": "asphalt", "wikidata": "Q4570166", "wikipedia": "sv:Malmskillnadsgatan"}}, {"type": "Feature", "id": "way/37988905", "geometry": {"type": "LineString", "coordinates": [[18.065924, 59.334306], [18.06602, 59.334094], [18.0661, 59.333819]]}, "properties": {"@id": "way/37988905", "highway": "residential", "maxspeed": "30", "name": "Malmskillnadsgatan", "surface": "asphalt", "wikidata": "Q4570166", "wikipedia": "sv:Malmskillnadsgatan"}}, {"type": "Feature", "id": "way/37988906", "geometry": {"type": "LineString", "coordinates": [[18.065659, 59.335277], [18.065708, 59.335111]]}, "properties": {"@id": "way/37988906", "bridge": "yes", "cycleway": "opposite", "highway": "residential", "layer": "1", "maxspeed": "30", "name": "Malmskillnadsgatan", "oneway": "yes", "wikidata": "Q4570166", "wikipedia": "sv:Malmskillnadsgatan"}}, {"type": "Feature", "id": "way/37988907", "geometry": {"type": "LineString", "coordinates": [[18.065708, 59.335111], [18.065824, 59.334627], [18.065842, 59.334531]]}, "properties": {"@id": "way/37988907", "cycleway": "opposite", "highway": "residential", "maxspeed": "30", "name": "Malmskillnadsgatan", "oneway": "yes", "wikidata": "Q4570166", "wikipedia": "sv:Malmskillnadsgatan"}}, {"type": "Feature", "id": "way/37988920", "geometry": {"type": "LineString", "coordinates": [[18.062237, 59.335761], [18.062617, 59.335392], [18.062662, 59.335345]]}, "properties": {"@id": "way/37988920", "cycleway": "opposite", "highway": "residential", "maxspeed": "30", "name": "Olofsgatan", "oneway": "yes", "surface": "asphalt"}}, {"type": "Feature", "id": "way/37988925", "geometry": {"type": "LineString", "coordinates": [[18.057455, 59.334864], [18.057697, 59.334609]]}, "properties": {"@id": "way/37988925", "cycleway": "opposite", "highway": "residential", "lit": "yes", "maxspeed": "30", "name": "Klara Norra Kyrkogata", "oneway": "yes", "surface": "asphalt", "wikidata": "Q10546043", "wikipedia": "sv:Klara norra kyrkogata"}}, {"type": "Feature", "id": "way/38048757", "geometry": {"type": "LineString", "coordinates": [[18.060639, 59.337383], [18.061744, 59.336279]]}, "properties": {"@id": "way/38048757", "cycleway": "opposite", "highway": "residential", "maxspeed": "30", "name": "Olofsgatan", "oneway": "yes", "sidewalk": "both", "surface": "asphalt"}}, {"type": "Feature", "id": "way/38048758", "geometry": {"type": "LineString", "coordinates": [[18.061744, 59.336279], [18.061985, 59.33601]]}, "properties": {"@id": "way/38048758", "highway": "residential", "maxspeed": "30", "name": "Olofsgatan", "surface": "asphalt"}}, {"type": "Feature", "id": "way/38048759", "geometry": {"type": "LineString", "coordinates": [[18.062237, 59.335761], [18.061985, 59.33601]]}, "properties": {"@id": "way/38048759", "cycleway": "opposite", "highway": "residential", "maxspeed": "30", "name": "Olofsgatan", "oneway": "yes", "surface": "asphalt"}}, {"type": "Feature", "id": "way/38213895", "geometry": {"type": "LineString", "coordinates": [[18.057697, 59.334609], [18.05805, 59.33425]]}, "properties": {"@id": "way/38213895", "access": "destination", "bicycle": "yes", "cycleway:left": "opposite", "highway": "residential", "lit": "yes", "maxspeed": "30", "name": "Klara Norra Kyrkogata", "oneway": "yes", "oneway:bicycle": "no", "surface": "asphalt", "wikidata": "Q10546043", "wikipedia": "sv:Klara norra kyrkogata"}}, {"type": "Feature", "id": "way/39091421", "geometry": {"type": "LineString", "coordinates": [[18.051188, 59.345852], [18.051249, 59.345784], [18.051761, 59.345225], [18.051836, 59.345144], [18.051905, 59.345071], [18.052348, 59.344592], [18.052669, 59.344239], [18.052733, 59.34417], [18.053227, 59.34365]]}, "properties": {"@id": "way/39091421", "check_date": "2019-12-09", "foot": "no", "highway": "residential", "lit": "yes", "maxspeed": "30", "name": "Hagagatan", "sidewalk": "separate", "surface": "asphalt", "wikidata": "Q10515899", "wikipedia": "sv:Hagagatan"}}, {"type": "Feature", "id": "way/39170800", "geometry": {"type": "LineString", "coordinates": [[18.040346, 59.34307], [18.040274, 59.343145], [18.039985, 59.343444], [18.039908, 59.343467], [18.039769, 59.343483], [18.039656, 59.343497], [18.03959, 59.34353], [18.039561, 59.343566], [18.039552, 59.343619], [18.039575, 59.343726], [18.039669, 59.343856], [18.039728, 59.343883], [18.039788, 59.343892], [18.040065, 59.343857], [18.040146, 59.343851], [18.040208, 59.34386], [18.041016, 59.344075], [18.041136, 59.344106]]}, "properties": {"@id": "way/39170800", "highway": "residential", "maxspeed": "30", "name": "H\u00e4lsingeh\u00f6jden", "oneway": "yes", "surface": "asphalt"}}, {"type": "Feature", "id": "way/39173823", "geometry": {"type": "LineString", "coordinates": [[18.040106, 59.344839], [18.040257, 59.344826], [18.040308, 59.344818], [18.040484, 59.344775], [18.041003, 59.344242], [18.041136, 59.344106], [18.041196, 59.344044], [18.041275, 59.343963], [18.041719, 59.343508], [18.041788, 59.343434]]}, "properties": {"@id": "way/39173823", "cycleway": "opposite", "highway": "residential", "maxspeed": "30", "name": "H\u00e4lsingegatan", "oneway": "yes", "sidewalk": "separate", "surface": "asphalt"}}, {"type": "Feature", "id": "way/39176408", "geometry": {"type": "LineString", "coordinates": [[18.04459, 59.331525], [18.046152, 59.33131], [18.046936, 59.331199], [18.047174, 59.331157], [18.048891, 59.330933]]}, "properties": {"@id": "way/39176408", "highway": "residential", "maxspeed": "30", "name": "Kungsholmsgatan", "surface": "asphalt", "wikidata": "Q10550321", "wikipedia": "sv:Kungsholmsgatan"}}, {"type": "Feature", "id": "way/39176409", "geometry": {"type": "LineString", "coordinates": [[18.045944, 59.328634], [18.046947, 59.328496]]}, "properties": {"@id": "way/39176409", "highway": "residential", "lit": "yes", "maxspeed": "30", "name": "Hantverkargatan", "oneway": "no", "sidewalk": "both", "surface": "asphalt", "wikidata": "Q10517486", "wikipedia": "sv:Hantverkargatan"}}, {"type": "Feature", "id": "way/39214608", "geometry": {"type": "LineString", "coordinates": [[18.048703, 59.34521], [18.048559, 59.345172], [18.047599, 59.344923], [18.04678, 59.34472], [18.046685, 59.344697], [18.046517, 59.344654], [18.046383, 59.344619], [18.046286, 59.344594], [18.04524, 59.344325], [18.045084, 59.344285], [18.044944, 59.344248], [18.043619, 59.343906], [18.043464, 59.343867], [18.043323, 59.343829], [18.041924, 59.343472], [18.041788, 59.343434], [18.041653, 59.343399], [18.040498, 59.343103], [18.040346, 59.34307], [18.040159, 59.343003]]}, "properties": {"@id": "way/39214608", "check_date": "2019-12-10", "highway": "residential", "maxspeed": "30", "name": "Frejgatan", "sidewalk": "separate", "surface": "asphalt", "wikidata": "Q10498840", "wikipedia": "sv:Frejgatan"}}, {"type": "Feature", "id": "way/39222722", "geometry": {"type": "LineString", "coordinates": [[18.059904, 59.333944], [18.05993, 59.333916]]}, "properties": {"@id": "way/39222722", "highway": "residential", "lit": "yes", "maxspeed": "30", "name": "Korgmakargr\u00e4nd", "oneway": "yes", "surface": "sett"}}, {"type": "Feature", "id": "way/39247923", "geometry": {"type": "LineString", "coordinates": [[18.039155, 59.335243], [18.039093, 59.335237], [18.03905, 59.335212], [18.038812, 59.334751], [18.03863, 59.3344], [18.03858, 59.334305], [18.038387, 59.33393], [18.038335, 59.333829], [18.038294, 59.333749], [18.038266, 59.333695], [18.038237, 59.333639], [18.037902, 59.332991], [18.037731, 59.33266], [18.037695, 59.332592], [18.037637, 59.33248], [18.03759, 59.332388], [18.036765, 59.330791], [18.036396, 59.330078], [18.036378, 59.330042], [18.036365, 59.330016], [18.036324, 59.32994]]}, "properties": {"@id": "way/39247923", "highway": "residential", "maxspeed": "30", "name": "Polhemsgatan", "surface": "asphalt", "wikidata": "Q10636001", "wikipedia": "sv:Polhemsgatan"}}, {"type": "Feature", "id": "way/39323804", "geometry": {"type": "LineString", "coordinates": [[18.06468, 59.337691], [18.064901, 59.337173], [18.064931, 59.337104]]}, "properties": {"@id": "way/39323804", "highway": "residential", "maxspeed": "30", "name": "Malmskillnadsgatan", "surface": "asphalt", "wikidata": "Q4570166", "wikipedia": "sv:Malmskillnadsgatan"}}, {"type": "Feature", "id": "way/39323806", "geometry": {"type": "LineString", "coordinates": [[18.066148, 59.337162], [18.064931, 59.337104]]}, "properties": {"@id": "way/39323806", "cycleway": "opposite", "highway": "residential", "maxspeed": "30", "name": "David Bagares Gata", "oneway": "yes", "surface": "asphalt", "wikidata": "Q10467140", "wikipedia": "sv:David Bagares gata"}}, {"type": "Feature", "id": "way/39325076", "geometry": {"type": "LineString", "coordinates": [[18.051936, 59.341944], [18.052037, 59.34197], [18.052429, 59.34207], [18.052505, 59.342087]]}, "properties": {"@id": "way/39325076", "check_date": "2019-12-06", "highway": "residential", "maxspeed:type": "SE:urban", "name": "Sand\u00e5sgatan", "surface": "asphalt"}}, {"type": "Feature", "id": "way/39331023", "geometry": {"type": "LineString", "coordinates": [[18.041025, 59.334679], [18.041047, 59.334728], [18.041139, 59.334919], [18.04111, 59.334969], [18.041035, 59.334988], [18.040817, 59.335018], [18.039947, 59.335136], [18.039155, 59.335243]]}, "properties": {"@id": "way/39331023", "highway": "residential", "maxspeed": "30", "name": "P O Hallmans Gata"}}, {"type": "Feature", "id": "way/40285901", "geometry": {"type": "LineString", "coordinates": [[18.045853, 59.33876], [18.045782, 59.338831], [18.04549, 59.339121], [18.045063, 59.339547], [18.044978, 59.339633]]}, "properties": {"@id": "way/40285901", "highway": "residential", "maxspeed": "30", "name": "Medevigatan", "sidewalk": "separate", "surface": "asphalt"}}, {"type": "Feature", "id": "way/40285913", "geometry": {"type": "LineString", "coordinates": [[18.046813, 59.339009], [18.046745, 59.339077], [18.046238, 59.33958], [18.046011, 59.339803], [18.045936, 59.33988]]}, "properties": {"@id": "way/40285913", "highway": "residential", "maxspeed": "30", "name": "Valentin Sabbats Gata", "sidewalk": "separate", "surface": "asphalt"}}, {"type": "Feature", "id": "way/40802591", "geometry": {"type": "LineString", "coordinates": [[18.062047, 59.344185], [18.062198, 59.343999], [18.062474, 59.343719], [18.062568, 59.343658], [18.062629, 59.343619]]}, "properties": {"@id": "way/40802591", "foot": "no", "highway": "residential", "maxspeed": "30", "name": "Roslagsgatan", "oneway": "yes", "source": "survey", "surface": "asphalt", "wikidata": "Q10657104", "wikipedia": "sv:Roslagsgatan"}}, {"type": "Feature", "id": "way/40924330", "geometry": {"type": "LineString", "coordinates": [[18.048156, 59.343026], [18.048081, 59.343102], [18.048048, 59.343134], [18.048004, 59.343179]]}, "properties": {"@id": "way/40924330", "access": "no", "bicycle": "yes", "highway": "residential", "maxspeed": "30", "name": "Upplandsgatan", "psv": "yes", "sidewalk": "separate", "surface": "asphalt", "wikidata": "Q15116497", "wikipedia": "sv:Upplandsgatan"}}, {"type": "Feature", "id": "way/41208823", "geometry": {"type": "LineString", "coordinates": [[18.054798, 59.344704], [18.054731, 59.344686], [18.054644, 59.344662], [18.054591, 59.344647], [18.053678, 59.344412], [18.052887, 59.34421], [18.052733, 59.34417]]}, "properties": {"@id": "way/41208823", "check_date": "2019-12-10", "cycleway": "shared_lane", "highway": "residential", "lit": "yes", "maxspeed": "30", "name": "Surbrunnsgatan", "sidewalk": "separate", "surface": "asphalt", "wikidata": "Q10684144", "wikipedia": "sv:Surbrunnsgatan"}}, {"type": "Feature", "id": "way/41208826", "geometry": {"type": "LineString", "coordinates": [[18.061099, 59.339857], [18.060966, 59.339919], [18.060235, 59.340712], [18.060155, 59.340797], [18.060104, 59.340851], [18.05931, 59.341703], [18.05925, 59.341768], [18.059178, 59.34185], [18.058557, 59.342517], [18.058505, 59.342573], [18.057662, 59.343457], [18.056934, 59.34424], [18.056901, 59.344275]]}, "properties": {"@id": "way/41208826", "cycleway": "opposite", "highway": "residential", "maxspeed": "30", "name": "Luntmakargatan", "oneway": "yes", "surface": "asphalt", "wikidata": "Q10570913", "wikipedia": "sv:Luntmakargatan"}}, {"type": "Feature", "id": "way/41208828", "geometry": {"type": "LineString", "coordinates": [[18.058045, 59.341451], [18.058186, 59.341489], [18.05925, 59.341768], [18.059324, 59.341787], [18.060286, 59.342039], [18.060441, 59.34208]]}, "properties": {"@id": "way/41208828", "cycleway": "opposite", "highway": "residential", "maxspeed": "30", "name": "Kungstensgatan", "oneway": "yes", "surface": "asphalt", "wikidata": "Q15120837", "wikipedia": "sv:Kungstensgatan"}}, {"type": "Feature", "id": "way/41519529", "geometry": {"type": "LineString", "coordinates": [[18.038079, 59.329685], [18.039326, 59.329515]]}, "properties": {"@id": "way/41519529", "highway": "residential", "maxspeed": "30", "name": "Hantverkargatan", "sidewalk": "both", "surface": "asphalt", "wikidata": "Q10517486", "wikipedia": "sv:Hantverkargatan"}}, {"type": "Feature", "id": "way/41519536", "geometry": {"type": "LineString", "coordinates": [[18.038731, 59.328258], [18.038701, 59.328187], [18.038373, 59.327545], [18.038372, 59.327461]]}, "properties": {"@id": "way/41519536", "highway": "residential", "maxspeed": "30", "name": "Pilgatan", "surface": "asphalt"}}, {"type": "Feature", "id": "way/41527693", "geometry": {"type": "LineString", "coordinates": [[18.051382, 59.339805], [18.051313, 59.339873], [18.050767, 59.340417], [18.050691, 59.340493], [18.05061, 59.340575], [18.04892, 59.342259], [18.048838, 59.342341]]}, "properties": {"@id": "way/41527693", "highway": "residential", "lit": "yes", "maxspeed": "30", "name": "Upplandsgatan", "sidewalk": "separate", "surface": "asphalt", "wikidata": "Q15116497", "wikipedia": "sv:Upplandsgatan"}}, {"type": "Feature", "id": "way/41527698", "geometry": {"type": "LineString", "coordinates": [[18.050265, 59.337013], [18.050126, 59.337153], [18.049394, 59.337886], [18.049307, 59.337973], [18.049229, 59.338051], [18.048391, 59.338891], [18.048373, 59.338909], [18.048267, 59.339016]]}, "properties": {"@id": "way/41527698", "highway": "residential", "lit": "yes", "maxspeed": "30", "name": "Dalagatan", "sidewalk": "separate", "surface": "asphalt", "wikidata": "Q10466054", "wikipedia": "sv:Dalagatan"}}, {"type": "Feature", "id": "way/41527699", "geometry": {"type": "LineString", "coordinates": [[18.051382, 59.339805], [18.051232, 59.339767], [18.050051, 59.339468], [18.049902, 59.33943], [18.049759, 59.339394], [18.048425, 59.339055], [18.048267, 59.339016]]}, "properties": {"@id": "way/41527699", "highway": "residential", "lit": "yes", "maxspeed": "30", "name": "Kungstensgatan", "sidewalk": "separate", "surface": "asphalt", "wikidata": "Q15120837", "wikipedia": "sv:Kungstensgatan"}}, {"type": "Feature", "id": "way/41568991", "geometry": {"type": "LineString", "coordinates": [[18.059699, 59.342817], [18.059838, 59.342853], [18.061105, 59.343182], [18.061268, 59.343224]]}, "properties": {"@id": "way/41568991", "highway": "residential", "maxspeed": "30", "name": "Rehnsgatan", "surface": "asphalt", "wikidata": "Q7309831", "wikipedia": "sv:Rehnsgatan"}}, {"type": "Feature", "id": "way/41568992", "geometry": {"type": "LineString", "coordinates": [[18.055433, 59.346941], [18.055512, 59.346865], [18.056419, 59.345993], [18.057068, 59.34537], [18.057136, 59.345304], [18.057198, 59.345244], [18.057709, 59.344753], [18.057781, 59.344686]]}, "properties": {"@id": "way/41568992", "highway": "residential", "maxspeed": "30", "name": "D\u00f6belnsgatan", "sidewalk": "separate", "surface": "asphalt", "wikidata": "Q10478625", "wikipedia": "sv:D\u00f6belnsgatan"}}, {"type": "Feature", "id": "way/41574203", "geometry": {"type": "LineString", "coordinates": [[18.044494, 59.34283], [18.044418, 59.342902], [18.044367, 59.342949], [18.044312, 59.343005], [18.043992, 59.343338], [18.043541, 59.343788], [18.043464, 59.343867], [18.043384, 59.343946], [18.042968, 59.344363], [18.042455, 59.344883], [18.041967, 59.345381]]}, "properties": {"@id": "way/41574203", "highway": "residential", "maxspeed": "30", "name": "Dalagatan", "sidewalk": "separate", "surface": "asphalt", "wikidata": "Q10466054", "wikipedia": "sv:Dalagatan"}}, {"type": "Feature", "id": "way/41574210", "geometry": {"type": "LineString", "coordinates": [[18.053046, 59.336122], [18.052987, 59.336208], [18.052664, 59.336661]]}, "properties": {"@id": "way/41574210", "highway": "residential", "maxspeed": "30", "name": "V\u00e4stmannagatan", "sidewalk": "separate", "surface": "asphalt", "wikidata": "Q15116455", "wikipedia": "sv:V\u00e4stmannagatan"}}, {"type": "Feature", "id": "way/41658690", "geometry": {"type": "LineString", "coordinates": [[18.048267, 59.339016], [18.048188, 59.339096], [18.048167, 59.339117], [18.047976, 59.33931], [18.047688, 59.339607], [18.047584, 59.339706], [18.047113, 59.340184], [18.047023, 59.340275], [18.046998, 59.3403], [18.046971, 59.340327], [18.045839, 59.341474], [18.04576, 59.341548]]}, "properties": {"@id": "way/41658690", "highway": "residential", "lit": "yes", "maxspeed": "50", "name": "Dalagatan", "sidewalk": "separate", "surface": "asphalt", "wikidata": "Q10466054", "wikipedia": "sv:Dalagatan"}}, {"type": "Feature", "id": "way/41658705", "geometry": {"type": "LineString", "coordinates": [[18.04569, 59.341619], [18.045622, 59.341687], [18.045303, 59.342012], [18.044761, 59.342565], [18.044683, 59.342644], [18.044577, 59.342752]]}, "properties": {"@id": "way/41658705", "highway": "residential", "lit": "yes", "maxspeed": "30", "name": "Dalagatan", "sidewalk": "separate", "surface": "asphalt", "wikidata": "Q10466054", "wikipedia": "sv:Dalagatan"}}, {"type": "Feature", "id": "way/42037282", "geometry": {"type": "LineString", "coordinates": [[18.059699, 59.342817], [18.060361, 59.342159], [18.060441, 59.34208], [18.060521, 59.342002], [18.061313, 59.341234], [18.061411, 59.341139], [18.0615, 59.341052], [18.062321, 59.340257], [18.062377, 59.340203]]}, "properties": {"@id": "way/42037282", "highway": "residential", "maxspeed": "30", "name": "D\u00f6belnsgatan", "surface": "asphalt", "wikidata": "Q10478625", "wikipedia": "sv:D\u00f6belnsgatan"}}, {"type": "Feature", "id": "way/42979013", "geometry": {"type": "LineString", "coordinates": [[18.052432, 59.338757], [18.05235, 59.33884], [18.052305, 59.338885], [18.052291, 59.3389], [18.051462, 59.339723], [18.051382, 59.339805]]}, "properties": {"@id": "way/42979013", "highway": "residential", "lit": "yes", "maxspeed": "30", "name": "Upplandsgatan", "sidewalk": "separate", "surface": "asphalt", "wikidata": "Q15116497", "wikipedia": "sv:Upplandsgatan"}}, {"type": "Feature", "id": "way/42979121", "geometry": {"type": "LineString", "coordinates": [[18.050943, 59.33838], [18.050789, 59.338341], [18.049461, 59.338011], [18.049307, 59.337973]]}, "properties": {"@id": "way/42979121", "highway": "residential", "maxspeed": "30", "name": "R\u00e5dmansgatan", "sidewalk": "separate", "surface": "asphalt", "wikidata": "Q10658680", "wikipedia": "sv:R\u00e5dmansgatan, Stockholm"}}, {"type": "Feature", "id": "way/42979122", "geometry": {"type": "LineString", "coordinates": [[18.050943, 59.33838], [18.051021, 59.338302], [18.051774, 59.337549], [18.051816, 59.33751], [18.051893, 59.337434], [18.05197, 59.337356], [18.052005, 59.337321], [18.052664, 59.336661]]}, "properties": {"@id": "way/42979122", "highway": "residential", "maxspeed": "30", "name": "V\u00e4stmannagatan", "sidewalk": "separate", "surface": "asphalt", "wikidata": "Q15116455", "wikipedia": "sv:V\u00e4stmannagatan"}}, {"type": "Feature", "id": "way/43055852", "geometry": {"type": "LineString", "coordinates": [[18.047403, 59.341979], [18.047478, 59.341897], [18.049146, 59.340201], [18.049225, 59.340122], [18.0493, 59.340045], [18.049833, 59.3395], [18.049902, 59.33943], [18.049991, 59.33934], [18.050873, 59.338451], [18.050943, 59.33838]]}, "properties": {"@id": "way/43055852", "highway": "residential", "maxspeed": "30", "name": "V\u00e4stmannagatan", "sidewalk": "separate", "surface": "asphalt", "wikidata": "Q15116455", "wikipedia": "sv:V\u00e4stmannagatan"}}, {"type": "Feature", "id": "way/49406441", "geometry": {"type": "LineString", "coordinates": [[18.038447, 59.345286], [18.038424, 59.345217], [18.038413, 59.345129], [18.038735, 59.34481], [18.038781, 59.344762], [18.038861, 59.344678], [18.038898, 59.344644], [18.039146, 59.3444], [18.039271, 59.344345], [18.039302, 59.344328], [18.039374, 59.344295]]}, "properties": {"@id": "way/49406441", "highway": "residential", "maxspeed": "30", "name": "Vanadisplan", "oneway": "yes", "sidewalk": "separate", "surface": "sett"}}, {"type": "Feature", "id": "way/49406442", "geometry": {"type": "LineString", "coordinates": [[18.03843, 59.344497], [18.038229, 59.344691]]}, "properties": {"@id": "way/49406442", "highway": "residential", "maxspeed": "30", "name": "R\u00f6dabergsbrinken", "oneway": "yes", "sidewalk": "separate", "surface": "asphalt"}}, {"type": "Feature", "id": "way/54046133", "geometry": {"type": "LineString", "coordinates": [[18.042256, 59.334542], [18.042285, 59.334576], [18.042438, 59.334865]]}, "properties": {"@id": "way/54046133", "highway": "residential", "name": "Grubbenstorget"}}, {"type": "Feature", "id": "way/55821488", "geometry": {"type": "LineString", "coordinates": [[18.035573, 59.337894], [18.035797, 59.337857], [18.03607, 59.337838], [18.0364, 59.337776], [18.036899, 59.337779], [18.037957, 59.337699], [18.038129, 59.337686]]}, "properties": {"@id": "way/55821488", "cycleway": "opposite", "highway": "residential", "maxspeed": "30", "name": "Atlasmuren", "oneway": "yes", "sidewalk": "separate", "surface": "asphalt"}}, {"type": "Feature", "id": "way/60049135", "geometry": {"type": "LineString", "coordinates": [[18.042288, 59.342934], [18.041865, 59.343358], [18.041788, 59.343434]]}, "properties": {"@id": "way/60049135", "highway": "residential", "maxspeed": "30", "name": "H\u00e4lsingegatan", "sidewalk": "separate", "surface": "asphalt"}}, {"type": "Feature", "id": "way/61414894", "geometry": {"type": "LineString", "coordinates": [[18.038508, 59.342239], [18.038594, 59.342221], [18.038658, 59.342207]]}, "properties": {"@id": "way/61414894", "fixme": "I don't think cars are allowed here. re-survey", "highway": "residential", "lit": "yes", "maxspeed": "30", "name": "G\u00e4strikegatan", "oneway": "yes", "sidewalk": "separate", "surface": "asphalt"}}, {"type": "Feature", "id": "way/62299039", "geometry": {"type": "LineString", "coordinates": [[18.038935, 59.343229], [18.038829, 59.343244], [18.038744, 59.343256], [18.038664, 59.343268], [18.038121, 59.343347], [18.037924, 59.343365], [18.03752, 59.34327], [18.037446, 59.34327], [18.037355, 59.343295], [18.036479, 59.344193]]}, "properties": {"@id": "way/62299039", "cycleway": "opposite", "highway": "residential", "maxspeed": "30", "name": "Falugatan", "oneway": "yes", "surface": "asphalt"}}, {"type": "Feature", "id": "way/67028081", "geometry": {"type": "LineString", "coordinates": [[18.037598, 59.344181], [18.037856, 59.343906], [18.038174, 59.343558], [18.038272, 59.343533]]}, "properties": {"@id": "way/67028081", "highway": "residential", "lit": "yes", "maxspeed": "30", "name": "S\u00e4tert\u00e4ppan", "surface": "asphalt"}}, {"type": "Feature", "id": "way/67028099", "geometry": {"type": "LineString", "coordinates": [[18.038781, 59.344762], [18.038728, 59.344749], [18.038422, 59.344674], [18.038326, 59.344672], [18.038229, 59.344691], [18.038066, 59.344879], [18.037971, 59.34494], [18.037909, 59.344943], [18.037836, 59.344927], [18.037633, 59.344761], [18.03778, 59.344597], [18.037985, 59.344389], [18.038149, 59.344207], [18.038167, 59.344187], [18.038549, 59.344154], [18.038612, 59.344315], [18.03843, 59.344497], [18.038445, 59.344552], [18.038507, 59.344594], [18.038808, 59.344665], [18.038861, 59.344678]]}, "properties": {"@id": "way/67028099", "highway": "residential", "maxspeed": "30", "name": "R\u00f6dabergsbrinken", "oneway": "yes", "sidewalk": "separate", "surface": "asphalt"}}, {"type": "Feature", "id": "way/68085816", "geometry": {"type": "LineString", "coordinates": [[18.06046, 59.338677], [18.060357, 59.338651], [18.059574, 59.338449], [18.058934, 59.338283], [18.057571, 59.337932]]}, "properties": {"@id": "way/68085816", "cycleway": "opposite", "highway": "residential", "maxspeed": "30", "name": "Kammakargatan", "oneway": "yes", "surface": "asphalt", "wikidata": "Q10543155", "wikipedia": "sv:Kammakargatan"}}, {"type": "Feature", "id": "way/73086490", "geometry": {"type": "LineString", "coordinates": [[18.043575, 59.345822], [18.043609, 59.345788], [18.044038, 59.34535], [18.045005, 59.344366], [18.045084, 59.344285], [18.045165, 59.344204], [18.045467, 59.343903], [18.04629, 59.343083], [18.046253, 59.343005], [18.046214, 59.342953], [18.046169, 59.342902]]}, "properties": {"@id": "way/73086490", "cycleway:left": "opposite", "cycleway:right": "shared_lane", "highway": "residential", "lit": "yes", "maxspeed": "30", "name": "V\u00e4stmannagatan", "oneway": "yes", "sidewalk": "separate", "surface": "asphalt", "wikidata": "Q15116455", "wikipedia": "sv:V\u00e4stmannagatan"}}, {"type": "Feature", "id": "way/79567399", "geometry": {"type": "LineString", "coordinates": [[18.066248, 59.341578], [18.06615, 59.341496], [18.065532, 59.34134], [18.065362, 59.3413], [18.065282, 59.34128], [18.065116, 59.341242]]}, "properties": {"@id": "way/79567399", "highway": "residential", "maxspeed": "30", "name": "Eriksbergsgatan", "wikidata": "Q10487724", "wikipedia": "sv:Eriksbergsgatan"}}, {"type": "Feature", "id": "way/79567407", "geometry": {"type": "LineString", "coordinates": [[18.063009, 59.344478], [18.062933, 59.344462], [18.062905, 59.344456], [18.062123, 59.344264], [18.062002, 59.344235]]}, "properties": {"@id": "way/79567407", "highway": "residential", "maxspeed": "30", "name": "Jarlaplan", "oneway": "yes", "oneway:bicycle": "no", "surface": "asphalt", "wikidata": "Q10539691", "wikipedia": "sv:Jarlaplan"}}, {"type": "Feature", "id": "way/88839447", "geometry": {"type": "LineString", "coordinates": [[18.049311, 59.331164], [18.049413, 59.331086]]}, "properties": {"@id": "way/88839447", "highway": "residential", "maxspeed": "30", "name": "Kungsbro strand", "oneway": "yes", "surface": "asphalt"}}, {"type": "Feature", "id": "way/88839453", "geometry": {"type": "LineString", "coordinates": [[18.051126, 59.329696], [18.051033, 59.329718], [18.050835, 59.329813]]}, "properties": {"@id": "way/88839453", "cycleway:right": "lane", "highway": "residential", "maxspeed": "30", "name": "Kungsholmsgatan", "oneway": "yes", "surface": "asphalt", "wikidata": "Q10550321", "wikipedia": "sv:Kungsholmsgatan"}}, {"type": "Feature", "id": "way/88839456", "geometry": {"type": "LineString", "coordinates": [[18.052109, 59.329655], [18.051983, 59.329643], [18.051862, 59.329641], [18.05158, 59.329662], [18.051456, 59.329671], [18.051344, 59.329678], [18.051126, 59.329696]]}, "properties": {"@id": "way/88839456", "cycleway:right": "track", "highway": "residential", "lit": "yes", "maxspeed": "30", "name": "Bolinders plan", "oneway": "yes", "surface": "asphalt", "wikidata": "Q10432441", "wikipedia": "sv:Bolinders plan"}}, {"type": "Feature", "id": "way/88850520", "geometry": {"type": "LineString", "coordinates": [[18.050835, 59.329813], [18.050953, 59.329672], [18.051027, 59.329646], [18.05111, 59.329622]]}, "properties": {"@id": "way/88850520", "cycleway:right": "lane", "highway": "residential", "maxspeed": "30", "name": "Kungsholmsgatan", "oneway": "yes", "surface": "asphalt", "wikidata": "Q10550321", "wikipedia": "sv:Kungsholmsgatan"}}, {"type": "Feature", "id": "way/112791730", "geometry": {"type": "LineString", "coordinates": [[18.051076, 59.336187], [18.050981, 59.336279]]}, "properties": {"@id": "way/112791730", "bridge": "yes", "highway": "residential", "layer": "1", "lit": "yes", "maxspeed": "30", "maxweight": "12", "name": "Dalagatan", "sidewalk": "separate", "surface": "asphalt", "wikidata": "Q10466054", "wikipedia": "sv:Dalagatan"}}, {"type": "Feature", "id": "way/112791734", "geometry": {"type": "LineString", "coordinates": [[18.050981, 59.336279], [18.050265, 59.337013]]}, "properties": {"@id": "way/112791734", "highway": "residential", "lit": "yes", "maxspeed": "30", "maxweight": "12", "name": "Dalagatan", "sidewalk": "separate", "surface": "asphalt", "wikidata": "Q10466054", "wikipedia": "sv:Dalagatan"}}, {"type": "Feature", "id": "way/124974809", "geometry": {"type": "LineString", "coordinates": [[18.042548, 59.328376], [18.042818, 59.328343], [18.042835, 59.328341], [18.043089, 59.328309]]}, "properties": {"@id": "way/124974809", "highway": "residential", "maxspeed": "30", "name": "Garvargatan", "surface": "asphalt", "wikidata": "Q10503183", "wikipedia": "sv:Garvargatan, Stockholm"}}, {"type": "Feature", "id": "way/129712685", "geometry": {"type": "LineString", "coordinates": [[18.058202, 59.337376], [18.05948, 59.337718]]}, "properties": {"@id": "way/129712685", "cycleway": "opposite", "highway": "residential", "maxspeed": "30", "name": "Wallingatan", "oneway": "yes", "oneway:bicycle": "no", "sidewalk": "separate", "wikidata": "Q10719196", "wikipedia": "sv:Wallingatan"}}, {"type": "Feature", "id": "way/129795627", "geometry": {"type": "LineString", "coordinates": [[18.058762, 59.336895], [18.059974, 59.33721]]}, "properties": {"@id": "way/129795627", "cycleway": "opposite", "highway": "residential", "maxspeed": "30", "name": "Adolf Fredriks Kyrkogata", "oneway": "yes", "oneway:bicycle": "no", "surface": "asphalt"}}, {"type": "Feature", "id": "way/129881110", "geometry": {"type": "LineString", "coordinates": [[18.057299, 59.33786], [18.05555, 59.337405], [18.054279, 59.337077], [18.054145, 59.337042], [18.053974, 59.336998], [18.052664, 59.336661], [18.051448, 59.336343]]}, "properties": {"@id": "way/129881110", "cycleway": "opposite", "highway": "residential", "maxspeed": "30", "name": "Kammakargatan", "oneway": "yes", "sidewalk": "separate", "surface": "asphalt", "wikidata": "Q10543155", "wikipedia": "sv:Kammakargatan"}}, {"type": "Feature", "id": "way/131441082", "geometry": {"type": "LineString", "coordinates": [[18.065972, 59.338205], [18.066457, 59.338225]]}, "properties": {"@id": "way/131441082", "highway": "residential", "maxspeed": "30", "name": "Drottninghusgr\u00e4nd"}}, {"type": "Feature", "id": "way/131692639", "geometry": {"type": "LineString", "coordinates": [[18.054458, 59.340679], [18.054392, 59.340625], [18.054317, 59.340562], [18.052944, 59.340203], [18.052806, 59.340167], [18.051532, 59.339843], [18.051382, 59.339805]]}, "properties": {"@id": "way/131692639", "highway": "residential", "lit": "yes", "maxspeed": "30", "name": "Kungstensgatan", "sidewalk": "separate", "surface": "asphalt", "wikidata": "Q15120837", "wikipedia": "sv:Kungstensgatan"}}, {"type": "Feature", "id": "way/132329943", "geometry": {"type": "LineString", "coordinates": [[18.065842, 59.334531], [18.065707, 59.334492], [18.065624, 59.334445], [18.065632, 59.334396], [18.065766, 59.334158], [18.065814, 59.334129], [18.06602, 59.334094]]}, "properties": {"@id": "way/132329943", "highway": "residential", "maxspeed": "30", "name": "Malmskillnadsgatan", "oneway": "yes", "surface": "asphalt", "wikidata": "Q4570166", "wikipedia": "sv:Malmskillnadsgatan"}}, {"type": "Feature", "id": "way/132465960", "geometry": {"type": "LineString", "coordinates": [[18.051069, 59.342884], [18.051147, 59.342802], [18.051198, 59.342745]]}, "properties": {"@id": "way/132465960", "check_date": "2019-12-06", "highway": "residential", "lit": "yes", "maxspeed": "30", "name": "Norrtullsgatan", "oneway": "yes", "sidewalk": "separate", "surface": "asphalt", "wikidata": "Q3344057", "wikipedia": "sv:Norrtullsgatan"}}, {"type": "Feature", "id": "way/132465961", "geometry": {"type": "LineString", "coordinates": [[18.051562, 59.342333], [18.05155, 59.342428], [18.051317, 59.342672], [18.051198, 59.342745]]}, "properties": {"@id": "way/132465961", "highway": "residential", "lit": "yes", "maxspeed": "30", "name": "Norrtullsgatan", "oneway": "yes", "sidewalk": "separate", "surface": "asphalt", "wikidata": "Q3344057", "wikipedia": "sv:Norrtullsgatan"}}, {"type": "Feature", "id": "way/136987368", "geometry": {"type": "LineString", "coordinates": [[18.051198, 59.342745], [18.051201, 59.342649], [18.051436, 59.342403], [18.051562, 59.342333]]}, "properties": {"@id": "way/136987368", "highway": "residential", "lit": "yes", "maxspeed": "30", "name": "Norrtullsgatan", "oneway": "yes", "sidewalk": "separate", "surface": "asphalt", "wikidata": "Q3344057", "wikipedia": "sv:Norrtullsgatan"}}, {"type": "Feature", "id": "way/138007087", "geometry": {"type": "LineString", "coordinates": [[18.062659, 59.34358], [18.062587, 59.343562], [18.062503, 59.34354], [18.061412, 59.343261], [18.061268, 59.343224]]}, "properties": {"@id": "way/138007087", "highway": "residential", "maxspeed": "30", "name": "Rehnsgatan", "oneway": "yes", "surface": "asphalt", "wikidata": "Q7309831", "wikipedia": "sv:Rehnsgatan"}}, {"type": "Feature", "id": "way/138313427", "geometry": {"type": "LineString", "coordinates": [[18.062917, 59.341544], [18.062824, 59.341639], [18.062065, 59.342413], [18.061992, 59.342486]]}, "properties": {"@id": "way/138313427", "highway": "residential", "maxspeed": "30", "name": "Tulegatan", "oneway": "no", "surface": "asphalt", "wikidata": "Q7852008", "wikipedia": "sv:Tulegatan"}}, {"type": "Feature", "id": "way/138313428", "geometry": {"type": "LineString", "coordinates": [[18.061992, 59.342486], [18.061914, 59.342566], [18.061324, 59.343166], [18.061268, 59.343224]]}, "properties": {"@id": "way/138313428", "highway": "residential", "maxspeed": "30", "name": "Tulegatan", "surface": "asphalt", "wikidata": "Q7852008", "wikipedia": "sv:Tulegatan"}}, {"type": "Feature", "id": "way/138313429", "geometry": {"type": "LineString", "coordinates": [[18.061268, 59.343224], [18.061201, 59.343293], [18.061104, 59.343396], [18.060441, 59.344095], [18.06036, 59.344182], [18.060288, 59.344256], [18.059721, 59.344851], [18.05967, 59.344909], [18.059613, 59.344968]]}, "properties": {"@id": "way/138313429", "highway": "residential", "maxspeed": "30", "name": "Tulegatan", "oneway": "yes", "surface": "asphalt", "wikidata": "Q7852008", "wikipedia": "sv:Tulegatan"}}, {"type": "Feature", "id": "way/138481201", "geometry": {"type": "LineString", "coordinates": [[18.057913, 59.344541], [18.057961, 59.344493]]}, "properties": {"@id": "way/138481201", "highway": "residential", "maxspeed": "30", "name": "D\u00f6belnsgatan", "oneway": "yes", "sidewalk": "separate", "surface": "asphalt", "wikidata": "Q10478625", "wikipedia": "sv:D\u00f6belnsgatan"}}, {"type": "Feature", "id": "way/138481234", "geometry": {"type": "LineString", "coordinates": [[18.062047, 59.344185], [18.062002, 59.344235], [18.061931, 59.34431], [18.061103, 59.345171], [18.061036, 59.345233], [18.060973, 59.345299]]}, "properties": {"@id": "way/138481234", "foot": "no", "highway": "residential", "maxspeed": "30", "name": "Roslagsgatan", "source": "survey", "surface": "asphalt"}}, {"type": "Feature", "id": "way/138615449", "geometry": {"type": "LineString", "coordinates": [[18.063354, 59.342844], [18.06351, 59.342894]]}, "properties": {"@id": "way/138615449", "foot": "no", "highway": "residential", "maxspeed": "30", "name": "Kungstensgatan", "oneway": "yes", "surface": "asphalt", "wikidata": "Q15120837", "wikipedia": "sv:Kungstensgatan"}}, {"type": "Feature", "id": "way/138615451", "geometry": {"type": "LineString", "coordinates": [[18.064447, 59.341966], [18.064494, 59.341979], [18.064593, 59.342008], [18.064844, 59.342081], [18.064934, 59.342135], [18.065207, 59.342356], [18.065579, 59.342706], [18.065656, 59.342759], [18.065808, 59.342808], [18.06726, 59.34317], [18.067488, 59.343229]]}, "properties": {"@id": "way/138615451", "highway": "residential", "maxspeed": "30", "name": "R\u00e5dmansgatan", "surface": "asphalt", "wikidata": "Q10658680", "wikipedia": "sv:R\u00e5dmansgatan, Stockholm"}}, {"type": "Feature", "id": "way/141889092", "geometry": {"type": "LineString", "coordinates": [[18.064222, 59.337749], [18.06442, 59.337718]]}, "properties": {"@id": "way/141889092", "highway": "residential", "maxspeed": "30", "name": "Johannes Plan", "surface": "asphalt"}}, {"type": "Feature", "id": "way/141889095", "geometry": {"type": "LineString", "coordinates": [[18.063997, 59.337944], [18.064095, 59.337831], [18.064222, 59.337749]]}, "properties": {"@id": "way/141889095", "highway": "residential", "maxspeed": "30", "name": "Johannes Plan", "oneway": "yes", "surface": "asphalt"}}, {"type": "Feature", "id": "way/161366796", "geometry": {"type": "LineString", "coordinates": [[18.038833, 59.339904], [18.038774, 59.33988], [18.038646, 59.339826]]}, "properties": {"@id": "way/161366796", "access": "destination", "bicycle": "yes", "cycleway:right": "lane", "foot": "no", "highway": "residential", "name": "Sankt Eriksplan", "psv": "yes", "sidewalk": "separate", "surface": "asphalt", "wikidata": "Q7418755", "wikipedia": "sv:Sankt Eriksplan"}}, {"type": "Feature", "id": "way/177035834", "geometry": {"type": "LineString", "coordinates": [[18.065592, 59.340871], [18.065663, 59.340941]]}, "properties": {"@id": "way/177035834", "highway": "residential", "maxspeed": "30", "name": "Runebergsgatan", "oneway": "yes", "wikidata": "Q10657800", "wikipedia": "sv:Runebergsgatan"}}, {"type": "Feature", "id": "way/177560538", "geometry": {"type": "LineString", "coordinates": [[18.039326, 59.329515], [18.039452, 59.329498], [18.039607, 59.329478], [18.040408, 59.32937], [18.041246, 59.329259], [18.041428, 59.329235], [18.041589, 59.329214], [18.042725, 59.329062], [18.042842, 59.329047], [18.043057, 59.329018]]}, "properties": {"@id": "way/177560538", "highway": "residential", "lanes": "2", "lit": "yes", "maxspeed": "30", "name": "Hantverkargatan", "sidewalk": "both", "surface": "asphalt", "wikidata": "Q10517486", "wikipedia": "sv:Hantverkargatan"}}, {"type": "Feature", "id": "way/177560542", "geometry": {"type": "LineString", "coordinates": [[18.037449, 59.328454], [18.038731, 59.328258]]}, "properties": {"@id": "way/177560542", "highway": "residential", "maxspeed": "30", "name": "Pontonj\u00e4rgatan", "parking:lane:both": "parallel", "surface": "asphalt"}}, {"type": "Feature", "id": "way/178204660", "geometry": {"type": "LineString", "coordinates": [[18.038646, 59.339826], [18.038575, 59.339808], [18.037353, 59.339501]]}, "properties": {"@id": "way/178204660", "access": "destination", "bicycle": "yes", "cycleway:right": "share_busway", "foot": "no", "highway": "residential", "name": "Sankt Eriksplan", "psv": "yes", "sidewalk": "separate", "surface": "asphalt", "wikidata": "Q7418755", "wikipedia": "sv:Sankt Eriksplan"}}, {"type": "Feature", "id": "way/213548259", "geometry": {"type": "LineString", "coordinates": [[18.044577, 59.342752], [18.044494, 59.34283]]}, "properties": {"@id": "way/213548259", "highway": "residential", "lit": "yes", "maxspeed": "30", "name": "Dalagatan", "sidewalk": "separate", "surface": "asphalt", "wikidata": "Q10466054", "wikipedia": "sv:Dalagatan"}}, {"type": "Feature", "id": "way/213548260", "geometry": {"type": "LineString", "coordinates": [[18.04576, 59.341548], [18.04569, 59.341619]]}, "properties": {"@id": "way/213548260", "check_date": "2019-12-16", "highway": "residential", "lit": "yes", "maxspeed": "50", "name": "Dalagatan", "surface": "asphalt", "wikidata": "Q10466054", "wikipedia": "sv:Dalagatan"}}, {"type": "Feature", "id": "way/220019530", "geometry": {"type": "LineString", "coordinates": [[18.054878, 59.335596], [18.054529, 59.335681], [18.054375, 59.335721], [18.054186, 59.335759]]}, "properties": {"@id": "way/220019530", "highway": "residential", "maxspeed": "30", "name": "V\u00e4stmannagatan", "oneway": "yes", "sidewalk": "separate", "surface": "asphalt", "wikidata": "Q15116455", "wikipedia": "sv:V\u00e4stmannagatan"}}, {"type": "Feature", "id": "way/220019531", "geometry": {"type": "LineString", "coordinates": [[18.054186, 59.335759], [18.054325, 59.335676], [18.054361, 59.335639], [18.05443, 59.335576]]}, "properties": {"@id": "way/220019531", "highway": "residential", "maxspeed": "30", "name": "V\u00e4stmannagatan", "oneway": "yes", "sidewalk": "separate", "surface": "asphalt", "wikidata": "Q15116455", "wikipedia": "sv:V\u00e4stmannagatan"}}, {"type": "Feature", "id": "way/251962203", "geometry": {"type": "LineString", "coordinates": [[18.051691, 59.330075], [18.051563, 59.330193], [18.051205, 59.330486], [18.050859, 59.330793], [18.050639, 59.330988], [18.050595, 59.331026]]}, "properties": {"@id": "way/251962203", "highway": "residential", "maxspeed": "30", "name": "Kungsbro strand", "surface": "asphalt"}}, {"type": "Feature", "id": "way/252133179", "geometry": {"type": "LineString", "coordinates": [[18.065663, 59.340941], [18.065729, 59.340944], [18.065888, 59.340954], [18.066103, 59.340943], [18.066441, 59.340908], [18.067149, 59.340821], [18.067464, 59.340815], [18.06776, 59.340839], [18.068545, 59.340987], [18.068829, 59.341042], [18.069793, 59.341341], [18.069875, 59.341348], [18.069952, 59.341345], [18.070182, 59.341294], [18.070227, 59.341285], [18.070404, 59.341247]]}, "properties": {"@id": "way/252133179", "highway": "residential", "maxspeed": "30", "name": "Runebergsgatan", "oneway": "yes", "surface": "asphalt", "wikidata": "Q10657800", "wikipedia": "sv:Runebergsgatan"}}, {"type": "Feature", "id": "way/252472363", "geometry": {"type": "LineString", "coordinates": [[18.043324, 59.328982], [18.043527, 59.328955], [18.043635, 59.32894], [18.044822, 59.328783], [18.044968, 59.328763], [18.045944, 59.328634]]}, "properties": {"@id": "way/252472363", "highway": "residential", "lanes": "2", "lit": "yes", "maxspeed": "30", "name": "Hantverkargatan", "sidewalk": "both", "surface": "asphalt", "wikidata": "Q10517486", "wikipedia": "sv:Hantverkargatan"}}, {"type": "Feature", "id": "way/252558065", "geometry": {"type": "LineString", "coordinates": [[18.05295, 59.33824], [18.052535, 59.338649], [18.052525, 59.338659], [18.052508, 59.338676], [18.052432, 59.338757]]}, "properties": {"@id": "way/252558065", "highway": "residential", "maxspeed": "30", "name": "Upplandsgatan", "sidewalk": "separate", "surface": "asphalt", "wikidata": "Q15116497", "wikipedia": "sv:Upplandsgatan"}}, {"type": "Feature", "id": "way/252558066", "geometry": {"type": "LineString", "coordinates": [[18.053708, 59.337484], [18.053457, 59.337733], [18.053366, 59.337823]]}, "properties": {"@id": "way/252558066", "highway": "residential", "maxspeed": "30", "name": "Upplandsgatan", "sidewalk": "separate", "surface": "asphalt", "wikidata": "Q15116497", "wikipedia": "sv:Upplandsgatan"}}, {"type": "Feature", "id": "way/252592789", "geometry": {"type": "LineString", "coordinates": [[18.049594, 59.34432], [18.049502, 59.344412], [18.049432, 59.344482], [18.049194, 59.344722], [18.048773, 59.345139], [18.048703, 59.34521], [18.04864, 59.345273], [18.048571, 59.34534], [18.048531, 59.345381], [18.048157, 59.345754], [18.048129, 59.345783], [18.047692, 59.346229], [18.047639, 59.346283], [18.047608, 59.346315], [18.047236, 59.346698], [18.047186, 59.346749], [18.047152, 59.346784], [18.047077, 59.346859]]}, "properties": {"@id": "way/252592789", "check_date": "2019-12-10", "highway": "residential", "lit": "yes", "maxspeed": "30", "name": "Norrtullsgatan", "sidewalk": "separate", "surface": "asphalt", "wikidata": "Q3344057", "wikipedia": "sv:Norrtullsgatan"}}, {"type": "Feature", "id": "way/259732436", "geometry": {"type": "LineString", "coordinates": [[18.042438, 59.334865], [18.042798, 59.334818], [18.043196, 59.334766]]}, "properties": {"@id": "way/259732436", "highway": "residential", "maxspeed": "10", "name": "Grubbenstorget"}}, {"type": "Feature", "id": "way/262392016", "geometry": {"type": "LineString", "coordinates": [[18.053309, 59.330173], [18.052414, 59.331087], [18.05234, 59.331162], [18.052254, 59.331251], [18.05132, 59.332197], [18.05127, 59.332243], [18.051219, 59.332288]]}, "properties": {"@id": "way/262392016", "bridge": "yes", "highway": "residential", "layer": "1", "maxspeed": "30", "name": "Blekholmsterrassen", "surface": "asphalt", "wikidata": "Q10431225", "wikipedia": "sv:Blekholmsterrassen"}}, {"type": "Feature", "id": "way/275027893", "geometry": {"type": "LineString", "coordinates": [[18.048004, 59.343179], [18.047424, 59.343764], [18.046589, 59.34457], [18.046517, 59.344654], [18.046453, 59.344729], [18.045028, 59.346152], [18.044995, 59.346186], [18.04495, 59.346231], [18.044873, 59.346309]]}, "properties": {"@id": "way/275027893", "check_date": "2019-12-10", "highway": "residential", "lit": "yes", "maxspeed": "30", "name": "Upplandsgatan", "sidewalk": "separate", "surface": "asphalt", "wikidata": "Q15116497", "wikipedia": "sv:Upplandsgatan"}}, {"type": "Feature", "id": "way/328128157", "geometry": {"type": "LineString", "coordinates": [[18.039509, 59.339061], [18.039595, 59.339079], [18.039726, 59.339109]]}, "properties": {"@id": "way/328128157", "access": "destination", "foot": "yes", "highway": "residential", "name": "Sankt Eriksplan", "oneway": "yes", "sidewalk": "both", "surface": "asphalt"}}, {"type": "Feature", "id": "way/328219656", "geometry": {"type": "LineString", "coordinates": [[18.036765, 59.330791], [18.037945, 59.330636], [18.039837, 59.330388], [18.039965, 59.330371], [18.0409, 59.330248], [18.041901, 59.33012], [18.043205, 59.329946]]}, "properties": {"@id": "way/328219656", "highway": "residential", "maxspeed": "30", "name": "Bergsgatan", "surface": "asphalt", "wikidata": "Q10428499", "wikipedia": "sv:Bergsgatan, Stockholm"}}, {"type": "Feature", "id": "way/328219906", "geometry": {"type": "LineString", "coordinates": [[18.048129, 59.329295], [18.048735, 59.329217], [18.049002, 59.329176], [18.049067, 59.329129], [18.049291, 59.329097], [18.050238, 59.328965]]}, "properties": {"@id": "way/328219906", "highway": "residential", "maxspeed": "30", "name": "Bergsgatan", "surface": "asphalt", "wikidata": "Q10428499", "wikipedia": "sv:Bergsgatan, Stockholm"}}, {"type": "Feature", "id": "way/328220336", "geometry": {"type": "LineString", "coordinates": [[18.049585, 59.328141], [18.049906, 59.328099]]}, "properties": {"@id": "way/328220336", "highway": "residential", "lit": "yes", "maxspeed": "30", "name": "Hantverkargatan", "oneway": "no", "sidewalk": "both", "surface": "asphalt", "wikidata": "Q10517486", "wikipedia": "sv:Hantverkargatan"}}, {"type": "Feature", "id": "way/328378894", "geometry": {"type": "LineString", "coordinates": [[18.056875, 59.34026], [18.056201, 59.340928]]}, "properties": {"@id": "way/328378894", "highway": "residential", "lit": "yes", "maxspeed": "30", "name": "Holl\u00e4ndargatan", "oneway": "yes", "sidewalk": "separate", "surface": "asphalt", "wikidata": "Q10525252", "wikipedia": "sv:Holl\u00e4ndargatan"}}, {"type": "Feature", "id": "way/328656907", "geometry": {"type": "LineString", "coordinates": [[18.057781, 59.344686], [18.057836, 59.344631]]}, "properties": {"@id": "way/328656907", "highway": "residential", "maxspeed": "30", "name": "D\u00f6belnsgatan", "sidewalk": "separate", "surface": "asphalt", "wikidata": "Q10478625", "wikipedia": "sv:D\u00f6belnsgatan"}}, {"type": "Feature", "id": "way/328656918", "geometry": {"type": "LineString", "coordinates": [[18.057961, 59.344493], [18.058723, 59.343752], [18.05961, 59.342879], [18.059699, 59.342817]]}, "properties": {"@id": "way/328656918", "highway": "residential", "maxspeed": "30", "name": "D\u00f6belnsgatan", "oneway": "yes", "surface": "asphalt", "wikidata": "Q10478625", "wikipedia": "sv:D\u00f6belnsgatan"}}, {"type": "Feature", "id": "way/328657994", "geometry": {"type": "LineString", "coordinates": [[18.06442, 59.337718], [18.06468, 59.337691]]}, "properties": {"@id": "way/328657994", "highway": "residential", "maxspeed": "30", "name": "Johannes Plan", "surface": "asphalt"}}, {"type": "Feature", "id": "way/340405797", "geometry": {"type": "LineString", "coordinates": [[18.059974, 59.33721], [18.060639, 59.337383], [18.061333, 59.337564], [18.061474, 59.337601]]}, "properties": {"@id": "way/340405797", "highway": "residential", "maxspeed": "30", "name": "Adolf Fredriks Kyrkogata", "oneway": "yes", "surface": "asphalt"}}, {"type": "Feature", "id": "way/377337316", "geometry": {"type": "LineString", "coordinates": [[18.046947, 59.328496], [18.04842, 59.328299], [18.04933, 59.328177]]}, "properties": {"@id": "way/377337316", "highway": "residential", "lit": "yes", "maxspeed": "30", "name": "Hantverkargatan", "sidewalk": "both", "surface": "asphalt", "wikidata": "Q10517486", "wikipedia": "sv:Hantverkargatan"}}, {"type": "Feature", "id": "way/377337317", "geometry": {"type": "LineString", "coordinates": [[18.04933, 59.328177], [18.049585, 59.328141]]}, "properties": {"@id": "way/377337317", "highway": "residential", "lit": "yes", "maxspeed": "30", "name": "Hantverkargatan", "oneway": "no", "sidewalk": "both", "surface": "asphalt", "wikidata": "Q10517486", "wikipedia": "sv:Hantverkargatan"}}, {"type": "Feature", "id": "way/382769102", "geometry": {"type": "LineString", "coordinates": [[18.053708, 59.337484], [18.053842, 59.337522], [18.055843, 59.338053], [18.055904, 59.338085], [18.055904, 59.338123], [18.055885, 59.338159], [18.055722, 59.338319], [18.055617, 59.338414]]}, "properties": {"@id": "way/382769102", "highway": "residential", "maxspeed": "30", "name": "Tegn\u00e9rlunden", "oneway": "yes", "sidewalk": "separate", "surface": "asphalt"}}, {"type": "Feature", "id": "way/382769103", "geometry": {"type": "LineString", "coordinates": [[18.053366, 59.337823], [18.053301, 59.337887], [18.05295, 59.33824]]}, "properties": {"@id": "way/382769103", "highway": "residential", "maxspeed": "30", "name": "Upplandsgatan", "sidewalk": "separate", "surface": "asphalt", "wikidata": "Q15116497", "wikipedia": "sv:Upplandsgatan"}}, {"type": "Feature", "id": "way/403119116", "geometry": {"type": "LineString", "coordinates": [[18.061474, 59.337601], [18.061639, 59.337635]]}, "properties": {"@id": "way/403119116", "check_date": "2019-12-19", "highway": "residential", "lit": "yes", "maxspeed": "30", "name": "Adolf Fredriks Kyrkogata", "surface": "asphalt"}}, {"type": "Feature", "id": "way/430633401", "geometry": {"type": "LineString", "coordinates": [[18.049829, 59.331837], [18.049864, 59.331742], [18.05018, 59.3314]]}, "properties": {"@id": "way/430633401", "highway": "residential", "maxspeed": "30", "name": "Kungsbroplan", "surface": "asphalt"}}, {"type": "Feature", "id": "way/437167331", "geometry": {"type": "LineString", "coordinates": [[18.050238, 59.328965], [18.050182, 59.329056], [18.050276, 59.329364]]}, "properties": {"@id": "way/437167331", "highway": "residential", "maxspeed": "30", "name": "Kaplansbacken", "surface": "asphalt"}}, {"type": "Feature", "id": "way/444128350", "geometry": {"type": "LineString", "coordinates": [[18.065619, 59.335399], [18.065659, 59.335277]]}, "properties": {"@id": "way/444128350", "cycleway": "opposite", "highway": "residential", "maxspeed": "30", "name": "Malmskillnadsgatan", "oneway": "yes"}}, {"type": "Feature", "id": "way/444128351", "geometry": {"type": "LineString", "coordinates": [[18.064337, 59.336313], [18.063332, 59.336045], [18.063185, 59.336004], [18.06302, 59.33596]]}, "properties": {"@id": "way/444128351", "highway": "residential", "lit": "yes", "maxspeed": "30", "name": "Apelbergsgatan", "oneway": "yes", "surface": "asphalt", "wikidata": "Q15802429", "wikipedia": "sv:Apelbergsgatan"}}, {"type": "Feature", "id": "way/444135638", "geometry": {"type": "LineString", "coordinates": [[18.040301, 59.337983], [18.040463, 59.338076], [18.040523, 59.33811], [18.040583, 59.338133], [18.040672, 59.338168]]}, "properties": {"@id": "way/444135638", "highway": "residential", "lit": "yes", "maxspeed": "30", "name": "Lokstallsgatan", "sidewalk": "separate", "surface": "asphalt"}}, {"type": "Feature", "id": "way/444137467", "geometry": {"type": "LineString", "coordinates": [[18.060441, 59.34208], [18.060607, 59.342124], [18.061845, 59.342448], [18.061992, 59.342486], [18.06214, 59.342525], [18.063204, 59.342804], [18.063303, 59.34283], [18.063354, 59.342844]]}, "properties": {"@id": "way/444137467", "highway": "residential", "maxspeed": "30", "name": "Kungstensgatan", "oneway": "no", "surface": "asphalt", "wikidata": "Q15120837", "wikipedia": "sv:Kungstensgatan"}}, {"type": "Feature", "id": "way/444137468", "geometry": {"type": "LineString", "coordinates": [[18.057662, 59.343457], [18.058723, 59.343752], [18.06036, 59.344182]]}, "properties": {"@id": "way/444137468", "highway": "residential", "maxspeed": "30", "name": "Markvardsgatan", "oneway": "yes", "surface": "asphalt"}}, {"type": "Feature", "id": "way/444137469", "geometry": {"type": "LineString", "coordinates": [[18.058066, 59.339031], [18.058006, 59.339091], [18.057199, 59.339899], [18.057163, 59.339936]]}, "properties": {"@id": "way/444137469", "cycleway": "opposite", "highway": "residential", "maxspeed": "30", "name": "Holl\u00e4ndargatan", "oneway": "yes", "surface": "asphalt", "wikidata": "Q10525252", "wikipedia": "sv:Holl\u00e4ndargatan"}}, {"type": "Feature", "id": "way/444137470", "geometry": {"type": "LineString", "coordinates": [[18.057163, 59.339936], [18.057147, 59.339993], [18.056875, 59.34026]]}, "properties": {"@id": "way/444137470", "highway": "residential", "maxspeed": "30", "name": "Holl\u00e4ndargatan", "oneway": "yes", "sidewalk": "separate", "surface": "asphalt", "wikidata": "Q10525252", "wikipedia": "sv:Holl\u00e4ndargatan"}}, {"type": "Feature", "id": "way/467760755", "geometry": {"type": "LineString", "coordinates": [[18.053348, 59.330095], [18.053309, 59.330173]]}, "properties": {"@id": "way/467760755", "bridge": "yes", "highway": "residential", "layer": "1", "lit": "yes", "maxspeed": "30", "name": "Blekholmsterrassen", "surface": "asphalt", "wikidata": "Q10431225", "wikipedia": "sv:Blekholmsterrassen"}}, {"type": "Feature", "id": "way/543587650", "geometry": {"type": "LineString", "coordinates": [[18.056775, 59.338701], [18.057952, 59.339001], [18.058066, 59.339031], [18.058711, 59.339194], [18.058796, 59.339228], [18.058891, 59.339276], [18.059581, 59.339451], [18.059698, 59.339486], [18.059857, 59.339528]]}, "properties": {"@id": "way/543587650", "highway": "residential", "maxspeed": "30", "name": "Tegn\u00e9rgatan", "surface": "asphalt", "wikidata": "Q10691873", "wikipedia": "sv:Tegn\u00e9rgatan"}}, {"type": "Feature", "id": "way/579265734", "geometry": {"type": "LineString", "coordinates": [[18.052275, 59.343147], [18.052319, 59.343098], [18.052831, 59.342573], [18.052859, 59.342504]]}, "properties": {"@id": "way/579265734", "highway": "residential", "lit": "yes", "maxspeed": "30", "name": "Gyld\u00e9ngatan", "sidewalk": "separate", "surface": "asphalt"}}, {"type": "Feature", "id": "way/579265736", "geometry": {"type": "LineString", "coordinates": [[18.052231, 59.3432], [18.052275, 59.343147]]}, "properties": {"@id": "way/579265736", "check_date": "2019-12-06", "highway": "residential", "lit": "yes", "maxspeed": "30", "name": "Gyld\u00e9ngatan", "surface": "asphalt"}}, {"type": "Feature", "id": "way/599791021", "geometry": {"type": "LineString", "coordinates": [[18.065842, 59.334531], [18.065805, 59.334485], [18.065837, 59.334404], [18.065924, 59.334306]]}, "properties": {"@id": "way/599791021", "highway": "residential", "maxspeed": "30", "name": "Malmskillnadsgatan", "oneway": "yes", "surface": "asphalt", "wikidata": "Q4570166", "wikipedia": "sv:Malmskillnadsgatan"}}, {"type": "Feature", "id": "way/599791022", "geometry": {"type": "LineString", "coordinates": [[18.065924, 59.334306], [18.065934, 59.334498], [18.065932, 59.334514], [18.06591, 59.334527], [18.065872, 59.33453], [18.065842, 59.334531]]}, "properties": {"@id": "way/599791022", "highway": "residential", "maxspeed": "30", "name": "Malmskillnadsgatan", "oneway": "yes", "surface": "asphalt", "wikidata": "Q4570166", "wikipedia": "sv:Malmskillnadsgatan"}}, {"type": "Feature", "id": "way/671117334", "geometry": {"type": "LineString", "coordinates": [[18.049594, 59.34432], [18.049682, 59.344226], [18.049706, 59.344202], [18.050284, 59.343615], [18.050348, 59.34355]]}, "properties": {"@id": "way/671117334", "check_date": "2019-12-09", "highway": "residential", "lit": "yes", "maxspeed": "30", "name": "Norrtullsgatan", "oneway": "yes", "sidewalk": "separate", "surface": "asphalt", "wikidata": "Q3344057", "wikipedia": "sv:Norrtullsgatan"}}, {"type": "Feature", "id": "way/683693850", "geometry": {"type": "LineString", "coordinates": [[18.045741, 59.337517], [18.044896, 59.338368], [18.044782, 59.338483]]}, "properties": {"@id": "way/683693850", "highway": "residential", "maxspeed": "30", "name": "H\u00e4lsobrunnsgatan", "sidewalk": "separate", "surface": "asphalt"}}, {"type": "Feature", "id": "way/695998358", "geometry": {"type": "LineString", "coordinates": [[18.057163, 59.339936], [18.055927, 59.339623]]}, "properties": {"@id": "way/695998358", "check_date": "2020-02-13", "cycleway": "opposite", "highway": "residential", "maxspeed": "30", "name": "R\u00e5dmansgatan", "oneway": "yes", "sidewalk": "separate", "surface": "asphalt", "wikidata": "Q10658680", "wikipedia": "sv:R\u00e5dmansgatan, Stockholm"}}, {"type": "Feature", "id": "way/754355049", "geometry": {"type": "LineString", "coordinates": [[18.0453, 59.32967], [18.047452, 59.329383]]}, "properties": {"@id": "way/754355049", "highway": "residential", "lit": "yes", "maxspeed": "30", "name": "Bergsgatan", "surface": "asphalt", "wikidata": "Q10428499", "wikipedia": "sv:Bergsgatan, Stockholm"}}, {"type": "Feature", "id": "way/754355050", "geometry": {"type": "LineString", "coordinates": [[18.047452, 59.329383], [18.048129, 59.329295]]}, "properties": {"@id": "way/754355050", "highway": "residential", "lit": "yes", "maxspeed": "30", "name": "Bergsgatan", "surface": "asphalt", "wikidata": "Q10428499", "wikipedia": "sv:Bergsgatan, Stockholm"}}, {"type": "Feature", "id": "way/754828779", "geometry": {"type": "LineString", "coordinates": [[18.038129, 59.337686], [18.039416, 59.337569], [18.039655, 59.337547]]}, "properties": {"@id": "way/754828779", "cycleway": "opposite", "highway": "residential", "lit": "yes", "maxspeed": "30", "name": "Atlasmuren", "oneway": "yes", "sidewalk": "separate", "surface": "asphalt"}}, {"type": "Feature", "id": "way/756927421", "geometry": {"type": "LineString", "coordinates": [[18.051153, 59.336265], [18.051448, 59.336343]]}, "properties": {"@id": "way/756927421", "highway": "residential", "lit": "yes", "maxspeed": "30", "name": "Kammakargatan", "sidewalk": "separate", "source": "survey", "surface": "asphalt", "wikidata": "Q10543155", "wikipedia": "sv:Kammakargatan"}}, {"type": "Feature", "id": "way/756927422", "geometry": {"type": "LineString", "coordinates": [[18.050907, 59.336201], [18.051153, 59.336265]]}, "properties": {"@id": "way/756927422", "highway": "residential", "lit": "yes", "maxspeed": "30", "name": "Kammakargatan", "sidewalk": "separate", "source": "survey", "surface": "asphalt", "tunnel": "yes", "wikidata": "Q10543155", "wikipedia": "sv:Kammakargatan"}}, {"type": "Feature", "id": "way/756933040", "geometry": {"type": "LineString", "coordinates": [[18.044978, 59.339633], [18.044876, 59.339607], [18.044416, 59.339488], [18.043812, 59.339332]]}, "properties": {"@id": "way/756933040", "highway": "residential", "maxspeed": "30", "name": "Eastmansv\u00e4gen", "sidewalk": "separate", "surface": "asphalt", "wikidata": "Q60971004", "wikipedia": "sv:Eastmansv\u00e4gen"}}, {"type": "Feature", "id": "way/756933041", "geometry": {"type": "LineString", "coordinates": [[18.045853, 59.33876], [18.046813, 59.339009], [18.047104, 59.339084], [18.047693, 59.339237], [18.047817, 59.339269], [18.047976, 59.33931]]}, "properties": {"@id": "way/756933041", "highway": "residential", "lit": "yes", "maxspeed": "30", "name": "Olivecronas V\u00e4g", "sidewalk": "separate", "surface": "asphalt"}}, {"type": "Feature", "id": "way/776187800", "geometry": {"type": "LineString", "coordinates": [[18.048891, 59.330933], [18.049086, 59.330908], [18.04925, 59.330887], [18.049366, 59.330867], [18.049461, 59.330838]]}, "properties": {"@id": "way/776187800", "cycleway": "lane", "highway": "residential", "maxspeed": "30", "name": "Kungsholmsgatan", "surface": "asphalt", "wikidata": "Q10550321", "wikipedia": "sv:Kungsholmsgatan"}}, {"type": "Feature", "id": "way/778509287", "geometry": {"type": "LineString", "coordinates": [[18.038149, 59.344207], [18.038612, 59.344315]]}, "properties": {"@id": "way/778509287", "highway": "residential", "maxspeed": "30", "name": "R\u00f6dabergsbrinken", "oneway": "yes", "sidewalk": "separate", "surface": "asphalt"}}, {"type": "Feature", "id": "way/779850071", "geometry": {"type": "LineString", "coordinates": [[18.049461, 59.330838], [18.049564, 59.330792], [18.049972, 59.33049], [18.050351, 59.330198], [18.050575, 59.330021], [18.0506, 59.330001], [18.050719, 59.329905], [18.050835, 59.329813]]}, "properties": {"@id": "way/779850071", "cycleway:left": "lane", "cycleway:right": "track", "highway": "residential", "maxspeed": "30", "name": "Kungsholmsgatan", "surface": "asphalt", "wikidata": "Q10550321", "wikipedia": "sv:Kungsholmsgatan"}}, {"type": "Feature", "id": "way/780535746", "geometry": {"type": "LineString", "coordinates": [[18.038658, 59.342207], [18.038972, 59.342139], [18.039003, 59.342102]]}, "properties": {"@id": "way/780535746", "fixme": "I don't think cars are allowed here. re-survey", "foot": "yes", "highway": "residential", "lit": "yes", "maxspeed": "30", "name": "G\u00e4strikegatan", "oneway": "yes", "surface": "asphalt"}}, {"type": "Feature", "id": "way/780535747", "geometry": {"type": "LineString", "coordinates": [[18.039003, 59.342102], [18.039063, 59.342035]]}, "properties": {"@id": "way/780535747", "fixme": "I don't think cars are allowed here. re-survey", "highway": "residential", "lit": "yes", "maxspeed": "30", "name": "G\u00e4strikegatan", "oneway": "yes", "sidewalk": "separate", "surface": "asphalt"}}]}