{"type": "FeatureCollection", "features": {"type": "FeatureCollection", "features": [{"type": "Feature", "id": "way/1682316", "geometry": {"type": "LineString", "coordinates": [[673441.1819871755, 6582174.406021399], [673446.3902551105, 6582165.1660085535], [673554.6082689792, 6581974.084967752]]}, "properties": {"@id": "way/1682316", "cycleway": "opposite", "highway": "residential", "lit": "yes", "maxspeed": "30", "name": "Vegagatan", "oneway": "yes", "sidewalk": "separate", "surface": "asphalt", "wikidata": "Q15904442", "wikipedia": "sv:Vegagatan"}}, {"type": "Feature", "id": "way/1767266", "geometry": {"type": "LineString", "coordinates": [[673352.137784669, 6582330.1258748295], [673348.6590858446, 6582336.43433949], [673302.8168438355, 6582418.304740056], [673298.0478572816, 6582426.67291672]]}, "properties": {"@id": "way/1767266", "check_date": "2019-12-10", "highway": "residential", "lit": "yes", "maxspeed": "30", "name": "Heimdalsgatan", "sidewalk": "separate", "surface": "asphalt"}}, {"type": "Feature", "id": "way/1767268", "geometry": {"type": "LineString", "coordinates": [[673294.0079410475, 6582297.242832311], [673302.1129052835, 6582301.851570473], [673352.137784669, 6582330.1258748295], [673406.7360459436, 6582360.5062195705], [673414.5150114632, 6582364.765731635]]}, "properties": {"@id": "way/1767268", "check_date": "2019-12-09", "highway": "residential", "lit": "yes", "maxspeed": "30", "name": "Vidargatan", "sidewalk": "separate", "surface": "asphalt"}}, {"type": "Feature", "id": "way/1767273", "geometry": {"type": "LineString", "coordinates": [[674040.8857667259, 6581600.648915544], [674036.7447397884, 6581608.933674237], [674012.5572303744, 6581651.758627291], [674010.2025195449, 6581655.887952158], [674009.0768994524, 6581658.066509023], [674008.3281921034, 6581659.481787043], [673976.2723722556, 6581717.334308936]]}, "properties": {"@id": "way/1767273", "cycleway": "opposite", "highway": "residential", "maxspeed": "30", "name": "Holl\u00e4ndargatan", "oneway": "yes", "oneway:bicycle": "no", "surface": "asphalt", "wikidata": "Q10525252", "wikipedia": "sv:Holl\u00e4ndargatan"}}, {"type": "Feature", "id": "way/2000692", "geometry": {"type": "LineString", "coordinates": [[673652.5787354843, 6581461.4852147605], [673642.1171564962, 6581459.778606337], [673565.9616031717, 6581449.483298555], [673559.480386402, 6581449.186105353], [673553.1340105825, 6581449.6757077575]]}, "properties": {"@id": "way/2000692", "highway": "residential", "maxspeed": "30", "name": "Wallingatan", "sidewalk": "separate", "surface": "asphalt", "wikidata": "Q10719196", "wikipedia": "sv:Wallingatan"}}, {"type": "Feature", "id": "way/2001192", "geometry": {"type": "LineString", "coordinates": [[673117.0087370607, 6581996.528365818], [673113.7363632033, 6582002.065877408], [673108.6882535932, 6582010.310008673], [673035.7213172801, 6582138.5591511], [673034.2154940839, 6582142.839331878], [673033.3459836899, 6582148.152233012], [673032.8489271742, 6582154.039733918], [673031.8386814795, 6582164.921888072]]}, "properties": {"@id": "way/2001192", "highway": "residential", "maxspeed": "30", "name": "H\u00e4lsingegatan", "oneway": "yes", "oneway:bicycle": "no", "sidewalk": "separate", "surface": "asphalt"}}, {"type": "Feature", "id": "way/2407293", "geometry": {"type": "LineString", "coordinates": [[673217.7488925661, 6581503.005102178], [673219.5468470065, 6581509.778221549], [673225.9927703444, 6581534.494781746], [673233.0554188449, 6581561.915921991], [673232.7956630134, 6581567.591246342], [673230.7472394605, 6581572.515621063], [673219.8612445509, 6581592.535966412], [673197.1732101262, 6581630.193020176], [673159.6215055211, 6581696.386754463], [673111.7095115833, 6581777.384281631], [673108.8094751346, 6581783.4964061715], [673107.9033438546, 6581788.36156738], [673109.1616521897, 6581791.987564621], [673111.2616332102, 6581794.648436925]]}, "properties": {"@id": "way/2407293", "highway": "residential", "maxspeed": "30", "name": "Torsgr\u00e4nd", "surface": "asphalt"}}, {"type": "Feature", "id": "way/2407898", "geometry": {"type": "LineString", "coordinates": [[672918.5285407961, 6581635.405914666], [672909.2527779182, 6581636.431814378], [672906.42646679, 6581637.1948026065], [672876.5097005579, 6581644.860776627], [672820.6001341002, 6581661.599229839], [672816.2703726188, 6581662.85119892], [672809.2229648024, 6581664.9827057775], [672751.7587991164, 6581682.097207768], [672745.517514413, 6581684.042597198]]}, "properties": {"@id": "way/2407898", "cycleway": "opposite", "highway": "residential", "lit": "yes", "maxspeed": "30", "name": "Atlasgatan", "oneway": "yes", "sidewalk": "both", "surface": "asphalt"}}, {"type": "Feature", "id": "way/2407900", "geometry": {"type": "LineString", "coordinates": [[672816.2703726188, 6581662.85119892], [672814.0992726643, 6581655.503703969], [672798.1968436933, 6581602.0318794185], [672796.5595675118, 6581596.716009151]]}, "properties": {"@id": "way/2407900", "highway": "residential", "lit": "yes", "maxspeed": "30", "name": "V\u00f6lundsgatan", "oneway": "yes", "sidewalk": "both", "surface": "asphalt"}}, {"type": "Feature", "id": "way/2407902", "geometry": {"type": "LineString", "coordinates": [[672884.0197615324, 6581585.209627207], [672912.5592872361, 6581621.417048707], [672918.5285407961, 6581635.405914666]]}, "properties": {"@id": "way/2407902", "cycleway": "opposite", "highway": "residential", "lit": "yes", "maxspeed": "30", "motor_vehicle": "designated", "name": "Lokstallsgatan", "oneway": "yes", "sidewalk": "separate", "surface": "asphalt"}}, {"type": "Feature", "id": "way/2427012", "geometry": {"type": "LineString", "coordinates": [[672926.758187474, 6581894.158643377], [672923.9662196455, 6581899.160689808], [672923.1509518111, 6581900.796140247], [672919.7193496099, 6581907.330151442], [672827.5554014829, 6582083.102652458]]}, "properties": {"@id": "way/2427012", "highway": "residential", "maxspeed": "30", "name": "G\u00e4strikegatan", "sidewalk": "separate", "surface": "asphalt"}}, {"type": "Feature", "id": "way/4352603", "geometry": {"type": "LineString", "coordinates": [[672891.9766470067, 6581145.318498855], [672890.715954603, 6581139.239203841], [672889.3567895656, 6581132.820872394], [672861.8546083432, 6581001.429006729]]}, "properties": {"@id": "way/4352603", "highway": "residential", "maxspeed": "30", "name": "Celsiusgatan", "oneway": "yes", "parking:lane:both": "parallel", "surface": "asphalt", "wikidata": "Q15890678", "wikipedia": "sv:Celsiusgatan, Stockholm"}}, {"type": "Feature", "id": "way/4352604", "geometry": {"type": "LineString", "coordinates": [[672973.988665069, 6581043.796426028], [673102.30589465, 6581017.545812319]]}, "properties": {"@id": "way/4352604", "highway": "residential", "maxspeed": "30", "name": "Hj\u00e4rnegatan", "oneway": "yes", "parking:lane:both": "parallel", "surface": "asphalt"}}, {"type": "Feature", "id": "way/4352605", "geometry": {"type": "LineString", "coordinates": [[672962.5268590059, 6580979.152541305], [672973.988665069, 6581043.796426028], [672986.2547416645, 6581113.27220823], [672987.292951236, 6581119.22986322]]}, "properties": {"@id": "way/4352605", "highway": "residential", "maxspeed": "30", "name": "Wargentinsgatan", "parking:lane:both": "parallel", "surface": "asphalt", "wikidata": "Q15145488", "wikipedia": "sv:Wargentinsgatan"}}, {"type": "Feature", "id": "way/4352606", "geometry": {"type": "LineString", "coordinates": [[673315.1662532222, 6581051.372069771], [673313.657550015, 6581044.500643147], [673285.1471441712, 6580908.0405890085], [673275.9225733959, 6580865.577628873], [673262.7463540277, 6580804.8686127765], [673257.6856824907, 6580782.222732549], [673245.0527703066, 6580723.322908241]]}, "properties": {"@id": "way/4352606", "highway": "residential", "maxspeed": "30", "name": "Pipersgatan", "oneway": "yes", "surface": "asphalt", "wikidata": "Q10632058", "wikipedia": "sv:Pipersgatan"}}, {"type": "Feature", "id": "way/4352645", "geometry": {"type": "LineString", "coordinates": [[673347.2661269497, 6581187.773867824], [673343.4098174432, 6581171.204704728], [673340.8957786412, 6581160.161202156]]}, "properties": {"@id": "way/4352645", "highway": "residential", "maxspeed": "30", "name": "Pipersgatan", "surface": "asphalt", "wikidata": "Q10632058", "wikipedia": "sv:Pipersgatan"}}, {"type": "Feature", "id": "way/4352648", "geometry": {"type": "LineString", "coordinates": [[673222.3879022773, 6580623.373160079], [673224.5293449515, 6580632.615261422], [673245.0527703066, 6580723.322908241]]}, "properties": {"@id": "way/4352648", "highway": "residential", "maxspeed": "30", "name": "Pipersgatan", "oneway": "yes", "surface": "asphalt", "wikidata": "Q10632058", "wikipedia": "sv:Pipersgatan"}}, {"type": "Feature", "id": "way/4352652", "geometry": {"type": "LineString", "coordinates": [[673047.7179630308, 6581158.4565307805], [673034.6372327469, 6581152.951988365], [673019.7083362902, 6581150.485398252], [672993.2378342694, 6581154.962809195], [672974.0492619202, 6581158.434975923], [672958.8841755084, 6581164.878904829], [672947.9598442183, 6581174.527500176], [672938.2901470307, 6581189.140029785], [672935.4741947282, 6581197.151858042], [672933.6095581658, 6581205.541688056], [672933.3632536648, 6581214.674531139], [672934.1972122621, 6581223.856725888], [672936.1054095887, 6581231.972864592], [672940.0553206529, 6581240.293796886], [672949.3431851021, 6581253.988234307], [672960.9014994674, 6581262.879850651], [672976.4895646017, 6581269.613867939], [672984.8787270451, 6581270.554802479], [672993.1430916345, 6581270.486431064], [673014.8632878277, 6581266.461024474], [673039.4304989522, 6581261.227721949], [673047.1754180767, 6581257.567286862], [673056.7642762635, 6581252.206949495], [673061.1131540468, 6581248.0567424055], [673066.0916518231, 6581242.597162675], [673074.3538342477, 6581225.132739862], [673076.1727481378, 6581210.273079698], [673074.3639206173, 6581196.251175212], [673070.2027083859, 6581181.341125596], [673063.0561607246, 6581169.416978675], [673047.7179630308, 6581158.4565307805]]}, "properties": {"@id": "way/4352652", "highway": "residential", "maxspeed": "30", "name": "Grubbensringen", "oneway": "yes"}}, {"type": "Feature", "id": "way/4352756", "geometry": {"type": "LineString", "coordinates": [[673027.0889154448, 6580664.847104054], [673022.6724435897, 6580655.50117468], [673009.881326719, 6580591.2425285475], [673010.1434522418, 6580589.247265968], [673010.3954080413, 6580587.474565398]]}, "properties": {"@id": "way/4352756", "cycleway": "opposite", "highway": "residential", "maxspeed": "30", "name": "S\u00f6dra Agnegatan", "oneway": "yes", "surface": "asphalt", "wikidata": "Q15870363", "wikipedia": "sv:Agnegatan"}}, {"type": "Feature", "id": "way/4352757", "geometry": {"type": "LineString", "coordinates": [[672930.7569343988, 6580789.020696086], [672929.4951732043, 6580781.7147017075], [672915.3717215947, 6580700.445565398], [672913.3881041815, 6580688.980625018]]}, "properties": {"@id": "way/4352757", "highway": "residential", "maxspeed": "30", "name": "Pilgatan", "surface": "asphalt"}}, {"type": "Feature", "id": "way/4352791", "geometry": {"type": "LineString", "coordinates": [[673021.3790674931, 6581946.434307303], [673018.6438469597, 6581951.438884459], [673014.7166510904, 6581958.842269169], [672912.192236416, 6582139.380389054], [672909.9674065642, 6582149.426460218], [672908.4145194788, 6582159.726262503]]}, "properties": {"@id": "way/4352791", "cycleway": "opposite", "highway": "residential", "maxspeed": "30", "name": "Sigtunagatan", "oneway": "yes", "sidewalk": "separate", "surface": "asphalt"}}, {"type": "Feature", "id": "way/4352795", "geometry": {"type": "LineString", "coordinates": [[673489.9267393453, 6581553.385855959], [673499.3604159609, 6581556.383112055], [673504.074698542, 6581557.937389326], [673572.7154497039, 6581597.884381518], [673580.3318788114, 6581604.478494562]]}, "properties": {"@id": "way/4352795", "highway": "residential", "maxspeed": "30", "name": "Tegn\u00e9rgatan", "oneway": "yes", "sidewalk": "separate", "surface": "asphalt"}}, {"type": "Feature", "id": "way/4353030", "geometry": {"type": "LineString", "coordinates": [[673580.3318788114, 6581604.478494562], [673587.1611649907, 6581608.360171989], [673654.0786708037, 6581647.337596327], [673662.0863353513, 6581651.608029143]]}, "properties": {"@id": "way/4353030", "highway": "residential", "maxspeed": "30", "name": "Tegn\u00e9rgatan", "sidewalk": "separate", "surface": "asphalt"}}, {"type": "Feature", "id": "way/4353032", "geometry": {"type": "LineString", "coordinates": [[672712.4424837122, 6581390.145931811], [672719.2842134773, 6581388.785424391], [672813.7299303953, 6581369.120907489], [672851.0183769003, 6581361.010346622], [672861.6859569461, 6581354.472162847]]}, "properties": {"@id": "way/4353032", "highway": "residential", "maxspeed": "30", "name": "\u00c5ngstr\u00f6msgatan"}}, {"type": "Feature", "id": "way/4485702", "geometry": {"type": "LineString", "coordinates": [[673676.8479429698, 6581450.332102735], [673685.354101933, 6581467.338117003], [673738.6695306128, 6581494.87583853], [673747.9543990515, 6581499.874152643], [673757.6736255394, 6581505.338490729], [673896.6086539106, 6581582.642785786], [673920.554000912, 6581595.898189133]]}, "properties": {"@id": "way/4485702", "cycleway": "opposite", "highway": "residential", "lit": "yes", "maxspeed": "30", "name": "Wallingatan", "oneway": "yes", "oneway:bicycle": "no", "sidewalk": "separate", "surface": "asphalt", "wikidata": "Q10719196", "wikipedia": "sv:Wallingatan"}}, {"type": "Feature", "id": "way/4486542", "geometry": {"type": "LineString", "coordinates": [[673787.0352051952, 6581723.248638505], [673798.8731429843, 6581729.702532249], [673836.1132413904, 6581749.924346971]]}, "properties": {"@id": "way/4486542", "highway": "residential", "maxspeed": "30", "name": "Tegn\u00e9rgatan", "sidewalk": "separate", "surface": "asphalt", "wikidata": "Q10691873", "wikipedia": "sv:Tegn\u00e9rgatan"}}, {"type": "Feature", "id": "way/4486548", "geometry": {"type": "LineString", "coordinates": [[674293.5212846571, 6581512.244607114], [674260.144130002, 6581575.1639437275], [674237.6378652682, 6581616.05775218], [674233.7145657383, 6581627.028724774]]}, "properties": {"@id": "way/4486548", "cycleway": "opposite", "highway": "residential", "lit": "yes", "maxspeed": "30", "name": "Luntmakargatan", "oneway": "yes", "surface": "asphalt", "wikidata": "Q10570913", "wikipedia": "sv:Luntmakargatan"}}, {"type": "Feature", "id": "way/4486574", "geometry": {"type": "LineString", "coordinates": [[673963.5934234067, 6581822.133517359], [673905.5411654152, 6581923.84380432], [673901.4569670095, 6581930.904619442], [673881.1760424738, 6581966.884275677], [673848.7411244662, 6582023.158999706], [673846.1025632487, 6582027.275364362]]}, "properties": {"@id": "way/4486574", "cycleway": "opposite", "highway": "residential", "maxspeed": "30", "name": "Saltm\u00e4targatan", "oneway": "yes", "sidewalk": "separate", "surface": "asphalt", "wikidata": "Q15813074", "wikipedia": "sv:Saltm\u00e4targatan"}}, {"type": "Feature", "id": "way/4488171", "geometry": {"type": "LineString", "coordinates": [[673963.5934234067, 6581822.133517359], [673967.3060604061, 6581815.724768849], [674011.80630674, 6581737.479467713]]}, "properties": {"@id": "way/4488171", "cycleway": "opposite", "highway": "residential", "maxspeed": "30", "name": "Saltm\u00e4targatan", "oneway": "yes", "surface": "asphalt", "wikidata": "Q15813074", "wikipedia": "sv:Saltm\u00e4targatan"}}, {"type": "Feature", "id": "way/4490151", "geometry": {"type": "LineString", "coordinates": [[674241.8580466462, 6581984.700479447], [674237.6805449118, 6581992.537283987], [674191.0479397222, 6582081.164419042], [674185.9979913388, 6582090.633847126]]}, "properties": {"@id": "way/4490151", "highway": "residential", "maxspeed": "30", "name": "Tulegatan", "surface": "asphalt", "wikidata": "Q7852008", "wikipedia": "sv:Tulegatan"}}, {"type": "Feature", "id": "way/4490982", "geometry": {"type": "LineString", "coordinates": [[673614.6070040707, 6582007.280580283], [673621.161480322, 6582010.9267319925], [673628.4164529378, 6582010.478987429], [673652.2894453248, 6581999.196233208], [673695.350376298, 6581979.427013999], [673709.5780771074, 6581972.2740210565], [673719.9518931559, 6581967.174464838], [673728.392352657, 6581960.759516045]]}, "properties": {"@id": "way/4490982", "highway": "residential", "lit": "yes", "maxspeed": "30", "name": "Drottninggatan", "sidewalk": "separate", "surface": "asphalt", "wikidata": "Q2066219", "wikipedia": "sv:Drottninggatan, Stockholm"}}, {"type": "Feature", "id": "way/4490987", "geometry": {"type": "LineString", "coordinates": [[673787.0352051952, 6581723.248638505], [673782.1194114265, 6581731.051998401], [673765.1276399663, 6581761.161476975], [673762.2814186577, 6581763.59564402], [673759.0002041687, 6581764.337116947], [673754.4261620243, 6581763.458028563], [673715.4170844269, 6581740.814024143], [673707.3061894765, 6581736.315694925], [673643.8140548328, 6581700.951306606], [673636.3079131208, 6581696.9269450465]]}, "properties": {"@id": "way/4490987", "highway": "residential", "maxspeed": "30", "name": "Tegn\u00e9rlunden", "oneway": "yes", "sidewalk": "separate", "surface": "asphalt"}}, {"type": "Feature", "id": "way/4491056", "geometry": {"type": "LineString", "coordinates": [[673881.3467170749, 6582157.806276775], [673933.1841724804, 6582187.509852455], [673996.5624080126, 6582223.878189244]]}, "properties": {"@id": "way/4491056", "access": "yes", "highway": "residential", "lit": "yes", "maxspeed": "30", "motor_vehicle": "yes", "name": "Rehnsgatan", "oneway": "no", "surface": "asphalt", "wikidata": "Q7309831", "wikipedia": "sv:Rehnsgatan"}}, {"type": "Feature", "id": "way/4491058", "geometry": {"type": "LineString", "coordinates": [[673810.461431347, 6582251.344922236], [673817.7906182212, 6582255.47309884], [673877.5041108311, 6582289.775353723]]}, "properties": {"@id": "way/4491058", "cycleway": "opposite", "highway": "residential", "lit": "yes", "maxspeed": "30", "name": "Markvardsgatan", "oneway": "yes", "sidewalk": "separate", "surface": "asphalt"}}, {"type": "Feature", "id": "way/4491064", "geometry": {"type": "LineString", "coordinates": [[674373.0517087088, 6582341.907780755], [674366.2535732954, 6582332.45017627], [674361.0845503261, 6582327.193754968], [674319.4748789525, 6582303.084907492], [674300.3366147814, 6582291.943805449], [674290.8475765024, 6582286.488498561], [674262.2512465382, 6582270.451328097], [674239.8876300382, 6582257.600794101], [674233.1221399844, 6582253.60924517], [674221.5656639813, 6582247.278318256], [674216.9554559678, 6582244.724224936], [674212.7897236169, 6582242.413632758]]}, "properties": {"@id": "way/4491064", "highway": "residential", "maxspeed": "30", "name": "Kungstensgatan", "surface": "asphalt", "wikidata": "Q15120837", "wikipedia": "sv:Kungstensgatan"}}, {"type": "Feature", "id": "way/4491067", "geometry": {"type": "LineString", "coordinates": [[673618.2840384779, 6581910.988992501], [673622.6155145972, 6581903.493189817], [673656.3903364188, 6581845.270908259], [673679.2869795709, 6581804.392021663], [673683.6391065441, 6581796.451163585], [673687.604200882, 6581789.49618113], [673715.4170844269, 6581740.814024143]]}, "properties": {"@id": "way/4491067", "cycleway": "opposite", "highway": "residential", "lit": "yes", "maxspeed": "30", "name": "Teknologgatan", "oneway": "yes", "sidewalk": "separate", "surface": "asphalt"}}, {"type": "Feature", "id": "way/4491173", "geometry": {"type": "LineString", "coordinates": [[673330.2915713715, 6580897.7291728845], [673333.3235547577, 6580909.911503859], [673445.0974991263, 6580973.7987385485]]}, "properties": {"@id": "way/4491173", "highway": "residential", "maxspeed": "30", "name": "Kungsgatan", "surface": "asphalt", "wikidata": "Q836909", "wikipedia": "sv:Kungsgatan, Stockholm"}}, {"type": "Feature", "id": "way/4491235", "geometry": {"type": "LineString", "coordinates": [[674260.7625540849, 6582134.556276974], [674270.805555319, 6582141.598216295]]}, "properties": {"@id": "way/4491235", "foot": "no", "highway": "residential", "maxspeed": "30", "name": "R\u00e5dmansgatan", "surface": "asphalt", "wikidata": "Q10658680", "wikipedia": "sv:R\u00e5dmansgatan, Stockholm"}}, {"type": "Feature", "id": "way/4491237", "geometry": {"type": "LineString", "coordinates": [[674337.5058351711, 6582013.081531811], [674341.5039429847, 6582022.7445894955]]}, "properties": {"@id": "way/4491237", "highway": "residential", "maxspeed": "30", "name": "Runebergsgatan", "oneway": "yes", "surface": "asphalt", "wikidata": "Q10657800", "wikipedia": "sv:Runebergsgatan"}}, {"type": "Feature", "id": "way/4491239", "geometry": {"type": "LineString", "coordinates": [[674290.8475765024, 6582286.488498561], [674295.0510204579, 6582279.322052297], [674322.0173372224, 6582233.058388667], [674324.2490733466, 6582231.599975016], [674331.3575611602, 6582226.909232801]]}, "properties": {"@id": "way/4491239", "highway": "residential", "lit": "yes", "maxspeed": "30", "name": "Fryxellsgatan", "source": "survey", "surface": "asphalt", "wikidata": "Q28065016", "wikipedia": "sv:Fryxellsgatan"}}, {"type": "Feature", "id": "way/4491243", "geometry": {"type": "LineString", "coordinates": [[674187.9063116759, 6582325.128051242], [674184.1014873196, 6582333.53962568], [674178.9161767944, 6582339.7688544765], [674168.9051467909, 6582346.8911203155]]}, "properties": {"@id": "way/4491243", "highway": "residential", "maxspeed": "50", "name": "Roslagsgatan", "oneway": "yes", "surface": "asphalt", "wikidata": "Q10657104", "wikipedia": "sv:Roslagsgatan"}}, {"type": "Feature", "id": "way/4491309", "geometry": {"type": "LineString", "coordinates": [[673782.1730380777, 6581392.383465758], [673781.1702327529, 6581401.816195371], [673775.762341143, 6581417.849095259], [673772.1960505827, 6581427.275651435]]}, "properties": {"@id": "way/4491309", "cycleway:left": "opposite_lane", "foot": "no", "highway": "residential", "maxspeed": "30", "name": "Upplandsgatan", "oneway": "yes", "oneway:bicycle": "no", "surface": "asphalt", "wikidata": "Q15116497", "wikipedia": "sv:Upplandsgatan"}}, {"type": "Feature", "id": "way/4491325", "geometry": {"type": "LineString", "coordinates": [[673480.469250912, 6581426.606532159], [673482.7361717061, 6581431.840093996], [673489.5630158158, 6581439.5129474625], [673491.3262021844, 6581440.82042228], [673500.9227522672, 6581447.728135206], [673530.5678853616, 6581464.699160691]]}, "properties": {"@id": "way/4491325", "highway": "residential", "lit": "yes", "maxspeed": "30", "name": "Kammakargatan", "sidewalk": "separate", "source": "survey", "surface": "asphalt", "wikidata": "Q10543155", "wikipedia": "sv:Kammakargatan"}}, {"type": "Feature", "id": "way/4491342", "geometry": {"type": "LineString", "coordinates": [[673772.1960505827, 6581427.275651435], [673777.7536416852, 6581430.318675225], [673832.8327347159, 6581460.392029775], [673858.7900042989, 6581474.519985052], [673884.1683392285, 6581488.844564086], [673956.4396489374, 6581527.850295835]]}, "properties": {"@id": "way/4491342", "cycleway": "opposite", "highway": "residential", "maxspeed": "30", "name": "Barnhusgatan", "oneway": "yes", "oneway:bicycle": "no", "sidewalk": "separate", "surface": "asphalt", "wikidata": "Q10426539", "wikipedia": "sv:Barnhusgatan"}}, {"type": "Feature", "id": "way/4491363", "geometry": {"type": "LineString", "coordinates": [[673890.6298486784, 6581368.035963599], [673894.3063136039, 6581361.179407793], [673909.6734840794, 6581333.002990213]]}, "properties": {"@id": "way/4491363", "highway": "residential", "lit": "yes", "maxspeed": "30", "name": "Klara Norra Kyrkogata", "surface": "asphalt", "wikidata": "Q10546043", "wikipedia": "sv:Klara norra kyrkogata"}}, {"type": "Feature", "id": "way/4492350", "geometry": {"type": "LineString", "coordinates": [[674460.9649960235, 6581620.992553876], [674449.138964347, 6581705.757364105], [674445.2890677648, 6581736.135359257], [674438.1176823678, 6581800.261197681], [674435.4146531789, 6581814.410689262], [674431.2836095003, 6581823.699166609], [674368.2726094837, 6581938.779570104], [674365.3543141528, 6581942.77120677]]}, "properties": {"@id": "way/4492350", "cycleway": "opposite", "highway": "residential", "maxspeed": "30", "name": "Regeringsgatan", "oneway": "yes", "oneway:bicycle": "no", "wikidata": "Q10650487", "wikipedia": "sv:Regeringsgatan, Stockholm"}}, {"type": "Feature", "id": "way/4492780", "geometry": {"type": "LineString", "coordinates": [[674102.4654204629, 6582041.625943612], [674093.3733738938, 6582036.189453932], [674032.8195189282, 6582000.284084804], [673974.7094563564, 6581965.718769517], [673966.9455289992, 6581961.124270082]]}, "properties": {"@id": "way/4492780", "highway": "residential", "lit": "yes", "maxspeed": "30", "name": "R\u00e5dmansgatan", "oneway": "yes", "surface": "asphalt", "wikidata": "Q10658680", "wikipedia": "sv:R\u00e5dmansgatan, Stockholm"}}, {"type": "Feature", "id": "way/4492792", "geometry": {"type": "LineString", "coordinates": [[673905.5411654152, 6581923.84380432], [673951.1640827586, 6581951.254573744], [673958.2459054509, 6581955.817683816], [673966.9455289992, 6581961.124270082]]}, "properties": {"@id": "way/4492792", "highway": "residential", "lit": "yes", "maxspeed": "30", "name": "R\u00e5dmansgatan", "surface": "asphalt", "wikidata": "Q10658680", "wikipedia": "sv:R\u00e5dmansgatan, Stockholm"}}, {"type": "Feature", "id": "way/4492795", "geometry": {"type": "LineString", "coordinates": [[673846.1025632487, 6582027.275364362], [673895.8076606453, 6582056.322758901], [673902.0827030491, 6582059.845061894]]}, "properties": {"@id": "way/4492795", "cycleway": "opposite", "highway": "residential", "lit": "yes", "maxspeed": "30", "name": "Kungstensgatan", "oneway": "yes", "sidewalk": "separate", "surface": "asphalt", "wikidata": "Q15120837", "wikipedia": "sv:Kungstensgatan"}}, {"type": "Feature", "id": "way/4492815", "geometry": {"type": "LineString", "coordinates": [[673779.6483050461, 6581848.14082965], [673745.9034791843, 6581829.975741329], [673689.7544502618, 6581799.742716303], [673683.6391065441, 6581796.451163585], [673611.9545199956, 6581757.142828639], [673604.2210729293, 6581753.10809818]]}, "properties": {"@id": "way/4492815", "cycleway": "opposite", "highway": "residential", "maxspeed": "30", "name": "R\u00e5dmansgatan", "oneway": "yes", "sidewalk": "separate", "surface": "asphalt", "wikidata": "Q10658680", "wikipedia": "sv:R\u00e5dmansgatan, Stockholm"}}, {"type": "Feature", "id": "way/4494027", "geometry": {"type": "LineString", "coordinates": [[673976.2723722556, 6581717.334308936], [673967.5904256726, 6581717.827348801], [673926.7632034108, 6581791.78130773], [673923.1023518955, 6581798.303987879]]}, "properties": {"@id": "way/4494027", "cycleway": "opposite", "highway": "residential", "maxspeed": "30", "name": "Holl\u00e4ndargatan", "oneway": "yes", "oneway:bicycle": "no", "surface": "asphalt", "wikidata": "Q10525252", "wikipedia": "sv:Holl\u00e4ndargatan"}}, {"type": "Feature", "id": "way/4498215", "geometry": {"type": "LineString", "coordinates": [[673747.9543990515, 6581499.874152643], [673744.0406896189, 6581506.94296696], [673713.6448802102, 6581560.970699356], [673710.3610848251, 6581566.730274047], [673707.0153404761, 6581572.5985227525], [673686.2959706215, 6581609.451192709], [673683.2600795326, 6581614.776103328]]}, "properties": {"@id": "way/4498215", "highway": "residential", "lit": "yes", "maxspeed": "30", "name": "Upplandsgatan", "sidewalk": "separate", "surface": "asphalt", "wikidata": "Q15116497", "wikipedia": "sv:Upplandsgatan"}}, {"type": "Feature", "id": "way/4524383", "geometry": {"type": "LineString", "coordinates": [[674110.1102425859, 6581477.93163867], [674043.4463487803, 6581594.521794416], [674040.8857667259, 6581600.648915544]]}, "properties": {"@id": "way/4524383", "cycleway": "opposite", "highway": "residential", "maxspeed": "30", "name": "Holl\u00e4ndargatan", "oneway": "yes", "sidewalk": "both", "surface": "asphalt", "wikidata": "Q10525252", "wikipedia": "sv:Holl\u00e4ndargatan"}}, {"type": "Feature", "id": "way/4647980", "geometry": {"type": "LineString", "coordinates": [[673138.8325452382, 6581211.800375678], [673084.8237499294, 6581222.935131742], [673074.3538342477, 6581225.132739862]]}, "properties": {"@id": "way/4647980", "highway": "residential", "maxspeed": "30", "name": "Ivan Oljelunds Gr\u00e4nd", "oneway": "yes"}}, {"type": "Feature", "id": "way/4647981", "geometry": {"type": "LineString", "coordinates": [[673063.0561607246, 6581169.416978675], [673131.4164214157, 6581154.700700573]]}, "properties": {"@id": "way/4647981", "highway": "residential", "maxspeed": "30", "name": "Maria Sandels Gr\u00e4nd", "oneway": "yes"}}, {"type": "Feature", "id": "way/4647982", "geometry": {"type": "LineString", "coordinates": [[673118.842751351, 6581092.012538425], [673119.9478009853, 6581097.750271234], [673121.8565770629, 6581107.093198522], [673126.493955994, 6581130.277099705], [673131.4164214157, 6581154.700700573], [673141.7694648169, 6581206.135993564], [673138.8325452382, 6581211.800375678]]}, "properties": {"@id": "way/4647982", "highway": "residential", "maxspeed": "30", "name": "Carl-Gustaf Lindstedts Gata"}}, {"type": "Feature", "id": "way/4647983", "geometry": {"type": "LineString", "coordinates": [[673010.3954080413, 6580587.474565398], [673014.736603494, 6580586.000236833], [673028.0616476823, 6580583.709810278], [673089.3995332038, 6580573.243296861], [673095.1471645185, 6580572.167893637]]}, "properties": {"@id": "way/4647983", "cycleway": "opposite", "highway": "residential", "lit": "yes", "maxspeed": "30", "name": "Garvargatan", "oneway": "yes", "surface": "asphalt", "wikidata": "Q10503183", "wikipedia": "sv:Garvargatan, Stockholm"}}, {"type": "Feature", "id": "way/4648011", "geometry": {"type": "LineString", "coordinates": [[673614.6070040707, 6582007.280580283], [673608.6445355741, 6582018.047005029], [673559.7587089691, 6582106.466083487], [673536.5143095151, 6582148.779268011]]}, "properties": {"@id": "way/4648011", "highway": "residential", "lit": "yes", "maxspeed": "30", "name": "Norrtullsgatan", "sidewalk": "separate", "surface": "asphalt", "wikidata": "Q3344057", "wikipedia": "sv:Norrtullsgatan"}}, {"type": "Feature", "id": "way/4672473", "geometry": {"type": "LineString", "coordinates": [[672685.1350760041, 6581254.415418857], [672725.2305054876, 6581245.985574804], [672839.378516587, 6581221.644885318]]}, "properties": {"@id": "way/4672473", "highway": "residential", "maxspeed": "30", "name": "Grubbens Gata", "oneway": "yes", "parking:lane:left": "parallel", "surface": "asphalt", "wikidata": "Q15795270", "wikipedia": "sv:Grubbens gata"}}, {"type": "Feature", "id": "way/4689693", "geometry": {"type": "LineString", "coordinates": [[674092.8017221203, 6581170.467900711], [674094.1031949157, 6581168.185931049]]}, "properties": {"@id": "way/4689693", "highway": "residential", "lit": "yes", "maxspeed": "30", "name": "Korgmakargr\u00e4nd", "oneway": "yes", "surface": "sett"}}, {"type": "Feature", "id": "way/4692445", "geometry": {"type": "LineString", "coordinates": [[673567.8607435058, 6582251.472303256], [673570.1162898435, 6582247.003658548]]}, "properties": {"@id": "way/4692445", "check_date": "2019-12-06", "highway": "residential", "lit": "yes", "maxspeed": "30", "name": "Gyld\u00e9ngatan", "surface": "asphalt"}}, {"type": "Feature", "id": "way/4693770", "geometry": {"type": "LineString", "coordinates": [[673719.2446445313, 6581424.064446696], [673676.8479429698, 6581450.332102735], [673663.1046103842, 6581458.065124533], [673652.5787354843, 6581461.4852147605]]}, "properties": {"@id": "way/4693770", "highway": "residential", "lit": "yes", "maxspeed": "30", "name": "V\u00e4stmannagatan", "sidewalk": "separate", "surface": "asphalt", "wikidata": "Q15116455", "wikipedia": "sv:V\u00e4stmannagatan"}}, {"type": "Feature", "id": "way/4706306", "geometry": {"type": "LineString", "coordinates": [[674340.5948116436, 6581541.622469513], [674335.3057324602, 6581536.472147287], [674293.5212846571, 6581512.244607114]]}, "properties": {"@id": "way/4706306", "cycleway": "opposite", "highway": "residential", "maxspeed": "30", "name": "Apelbergsgatan", "oneway": "yes", "surface": "asphalt", "wikidata": "Q15802429", "wikipedia": "sv:Apelbergsgatan"}}, {"type": "Feature", "id": "way/4743520", "geometry": {"type": "LineString", "coordinates": [[673159.6215055211, 6581696.386754463], [673170.7265317639, 6581702.693572389], [673230.2007719019, 6581736.304677043]]}, "properties": {"@id": "way/4743520", "highway": "residential", "lit": "yes", "maxspeed": "30", "name": "Olivecronas V\u00e4g", "sidewalk": "separate", "surface": "asphalt"}}, {"type": "Feature", "id": "way/4995831", "geometry": {"type": "LineString", "coordinates": [[673039.9002095737, 6580722.415967461], [673029.1119773486, 6580674.195171555], [673027.0889154448, 6580664.847104054]]}, "properties": {"@id": "way/4995831", "highway": "residential", "maxspeed": "30", "name": "S\u00f6dra Agnegatan", "oneway": "no", "parking:lane:both": "parallel", "source": "survey", "surface": "asphalt", "wikidata": "Q15870363", "wikipedia": "sv:Agnegatan"}}, {"type": "Feature", "id": "way/4995837", "geometry": {"type": "LineString", "coordinates": [[673368.8856549346, 6580696.986855014], [673357.7645182235, 6580647.411463572], [673353.7825303731, 6580637.304396596], [673344.6883940173, 6580596.96602437]]}, "properties": {"@id": "way/4995837", "highway": "residential", "lit": "yes", "maxspeed": "30", "name": "Parmm\u00e4targatan", "oneway": "yes", "parking:lane:right": "parallel", "surface": "asphalt", "wikidata": "Q19978363", "wikipedia": "sv:Parmm\u00e4targatan"}}, {"type": "Feature", "id": "way/4995842", "geometry": {"type": "LineString", "coordinates": [[673344.6883940173, 6580596.96602437], [673343.5139260503, 6580587.768109655], [673329.9027737473, 6580526.592921836]]}, "properties": {"@id": "way/4995842", "cycleway": "opposite", "highway": "residential", "maxspeed": "30", "name": "Parmm\u00e4targatan", "oneway": "yes", "parking:lane:both": "parallel", "surface": "asphalt", "wikidata": "Q19978363", "wikipedia": "sv:Parmm\u00e4targatan"}}, {"type": "Feature", "id": "way/4995847", "geometry": {"type": "LineString", "coordinates": [[673236.5331073666, 6580544.622550661], [673126.2524986954, 6580566.118648262]]}, "properties": {"@id": "way/4995847", "cycleway": "opposite", "highway": "residential", "maxspeed": "30", "name": "Garvargatan", "oneway": "yes", "surface": "asphalt", "wikidata": "Q10503183", "wikipedia": "sv:Garvargatan, Stockholm"}}, {"type": "Feature", "id": "way/4996012", "geometry": {"type": "LineString", "coordinates": [[673541.2201964823, 6580747.5921599185], [673536.9180396748, 6580737.024129187], [673534.0224953797, 6580710.685542334], [673535.529286463, 6580706.405547365], [673531.5245009101, 6580666.96894982], [673529.4406864356, 6580657.729268695], [673525.7419869164, 6580620.313974237], [673516.3838414247, 6580568.365499203], [673514.9779742361, 6580560.495073501]]}, "properties": {"@id": "way/4996012", "highway": "residential", "maxspeed": "30", "name": "Kaplansbacken", "surface": "asphalt"}}, {"type": "Feature", "id": "way/4996023", "geometry": {"type": "LineString", "coordinates": [[673368.8856549346, 6580696.986855014], [673369.625471391, 6580705.718826155], [673383.4683942134, 6580768.020013612]]}, "properties": {"@id": "way/4996023", "highway": "residential", "lit": "yes", "maxspeed": "30", "name": "Parmm\u00e4targatan", "surface": "asphalt", "wikidata": "Q19978363", "wikipedia": "sv:Parmm\u00e4targatan"}}, {"type": "Feature", "id": "way/15802886", "geometry": {"type": "LineString", "coordinates": [[673151.3896587146, 6580742.902077507], [673245.0527703066, 6580723.322908241]]}, "properties": {"@id": "way/15802886", "highway": "residential", "lit": "yes", "maxspeed": "30", "name": "Bergsgatan", "surface": "asphalt", "wikidata": "Q10428499", "wikipedia": "sv:Bergsgatan, Stockholm"}}, {"type": "Feature", "id": "way/19881101", "geometry": {"type": "LineString", "coordinates": [[672724.8131632388, 6581451.150477248], [672731.9746026369, 6581449.023997058], [672777.4287289388, 6581435.486738562], [672825.450793112, 6581420.617582447], [672850.5356749845, 6581411.503806284], [672881.5772851289, 6581399.205338359], [672926.8999507383, 6581381.091747656], [672940.5300272988, 6581375.804258687], [672950.0195157749, 6581376.349349648]]}, "properties": {"@id": "way/19881101", "highway": "residential", "maxspeed": "30", "name": "Kungsholms Strand", "wikidata": "Q10550319", "wikipedia": "sv:Kungsholms strand"}}, {"type": "Feature", "id": "way/23089363", "geometry": {"type": "LineString", "coordinates": [[674356.164284558, 6581480.671299122], [674360.0037066698, 6581465.347436907], [674363.6464987348, 6581449.345423104]]}, "properties": {"@id": "way/23089363", "bridge": "yes", "bridge:name": "Malmskillnadsbron", "cycleway": "opposite", "highway": "residential", "layer": "1", "maxspeed": "30", "name": "Malmskillnadsgatan", "oneway": "yes", "surface": "asphalt", "wikidata": "Q6744389", "wikipedia": "sv:Malmskillnadsbron"}}, {"type": "Feature", "id": "way/23089372", "geometry": {"type": "LineString", "coordinates": [[674363.6464987348, 6581449.345423104], [674371.0910711938, 6581413.891729553]]}, "properties": {"@id": "way/23089372", "cycleway": "opposite", "highway": "residential", "maxspeed": "30", "name": "Malmskillnadsgatan", "oneway": "yes", "surface": "asphalt"}}, {"type": "Feature", "id": "way/23089542", "geometry": {"type": "LineString", "coordinates": [[673323.7840917683, 6581846.081714706], [673331.6160046512, 6581850.454920538], [673407.5043267258, 6581892.515347191], [673414.9483288515, 6581896.647934029], [673423.2814527971, 6581901.26733813], [673487.5006514373, 6581936.884493685], [673496.3918539608, 6581941.752682538], [673503.9391548869, 6581946.113221098], [673545.500039106, 6581968.9836511], [673554.6082689792, 6581974.084967752], [673610.1251298923, 6582004.39861174], [673614.6070040707, 6582007.280580283]]}, "properties": {"@id": "way/23089542", "highway": "residential", "lit": "yes", "maxspeed": "30", "name": "Observatoriegatan", "sidewalk": "separate", "surface": "asphalt", "wikidata": "Q15905329", "wikipedia": "sv:Observatoriegatan"}}, {"type": "Feature", "id": "way/23089562", "geometry": {"type": "LineString", "coordinates": [[673807.3861832821, 6582004.532131732], [673733.6131870705, 6581963.675550472], [673728.392352657, 6581960.759516045]]}, "properties": {"@id": "way/23089562", "highway": "residential", "maxspeed": "30", "name": "Kungstensgatan", "oneway": "yes", "sidewalk": "separate", "surface": "asphalt", "wikidata": "Q15120837", "wikipedia": "sv:Kungstensgatan"}}, {"type": "Feature", "id": "way/24491945", "geometry": {"type": "LineString", "coordinates": [[674312.0067264262, 6582186.987149182], [674335.4202030707, 6582173.345622777], [674348.760936124, 6582169.38809802]]}, "properties": {"@id": "way/24491945", "highway": "residential", "maxspeed": "30", "name": "Lodgatan", "wikidata": "Q10568801", "wikipedia": "sv:Lodgatan"}}, {"type": "Feature", "id": "way/24911338", "geometry": {"type": "LineString", "coordinates": [[673294.573541614, 6581898.047817733], [673286.13677005, 6581893.200932019], [673229.214296683, 6581861.155242096], [673205.9456481466, 6581848.046720804], [673176.0130698031, 6581831.176481327]]}, "properties": {"@id": "way/24911338", "highway": "residential", "maxspeed": "30", "name": "Eastmansv\u00e4gen", "sidewalk": "separate", "surface": "asphalt", "wikidata": "Q60971004", "wikipedia": "sv:Eastmansv\u00e4gen"}}, {"type": "Feature", "id": "way/25749709", "geometry": {"type": "LineString", "coordinates": [[674335.6889363655, 6582074.777751603], [674296.7476422734, 6582146.026979429], [674292.7826204945, 6582155.434733607]]}, "properties": {"@id": "way/25749709", "highway": "residential", "maxspeed": "30", "name": "Birger Jarlsgatan", "oneway": "yes", "surface": "asphalt"}}, {"type": "Feature", "id": "way/26307808", "geometry": {"type": "LineString", "coordinates": [[673461.299588255, 6582281.043950673], [673464.1321238836, 6582282.623488513], [673468.6858919004, 6582285.174051983], [673550.1673575491, 6582331.731976786], [673554.0025149094, 6582333.803631551], [673585.7591519689, 6582351.764529729], [673593.6982654852, 6582356.25479669]]}, "properties": {"@id": "way/26307808", "check_date": "2019-12-09", "cycleway:right": "shared_lane", "highway": "residential", "lit": "yes", "maxspeed": "30", "name": "Surbrunnsgatan", "oneway": "yes", "sidewalk": "separate", "surface": "asphalt", "wikidata": "Q10684144", "wikipedia": "sv:Surbrunnsgatan"}}, {"type": "Feature", "id": "way/27149534", "geometry": {"type": "LineString", "coordinates": [[674342.4634469575, 6581535.686678349], [674353.3896841253, 6581537.193621108], [674394.070725844, 6581542.078737555], [674470.9981611086, 6581551.645875006]]}, "properties": {"@id": "way/27149534", "cycleway": "opposite", "highway": "residential", "maxspeed": "30", "name": "Brunnsgatan", "oneway": "yes", "surface": "asphalt"}}, {"type": "Feature", "id": "way/27423586", "geometry": {"type": "LineString", "coordinates": [[673458.0802154035, 6580677.988784667], [673473.0500431096, 6580750.489802363], [673458.3146052136, 6580753.717658792], [673442.6884256325, 6580681.855732461]]}, "properties": {"@id": "way/27423586", "highway": "residential", "maxspeed": "30", "name": "Kungsholms Kyrkoplan", "oneway": "yes", "surface": "asphalt"}}, {"type": "Feature", "id": "way/27423670", "geometry": {"type": "LineString", "coordinates": [[673473.0500431096, 6580750.489802363], [673476.5091542643, 6580768.267547468], [673408.8948969375, 6580782.677740905], [673398.4804170008, 6580784.877079053], [673385.2440049637, 6580787.727806919], [673336.6812695083, 6580797.9936653515], [673333.3183553051, 6580778.101723762], [673381.4009426106, 6580768.371389293], [673383.4683942134, 6580768.020013612], [673458.3146052136, 6580753.717658792]]}, "properties": {"@id": "way/27423670", "highway": "residential", "lit": "yes", "maxspeed": "30", "name": "Kungsklippan", "name:de": "K\u00f6nigsklippe", "name:sv": "Kungsklippan", "oneway": "yes", "surface": "asphalt", "wikidata": "Q10550336", "wikipedia": "sv:Kungsklippan"}}, {"type": "Feature", "id": "way/27929222", "geometry": {"type": "LineString", "coordinates": [[673465.2331310993, 6580994.4593456155], [673454.0444450886, 6580981.2340571955], [673451.918688447, 6580979.129403127], [673445.0974991263, 6580973.7987385485]]}, "properties": {"@id": "way/27929222", "highway": "residential", "lanes": "1", "maxspeed": "30", "name": "Kungsgatan", "oneway": "yes", "surface": "asphalt", "wikidata": "Q836909", "wikipedia": "sv:Kungsgatan, Stockholm"}}, {"type": "Feature", "id": "way/28144167", "geometry": {"type": "LineString", "coordinates": [[673224.047860529, 6580846.142106327], [673175.3116099143, 6580857.740181456]]}, "properties": {"@id": "way/28144167", "highway": "residential", "maxspeed": "30", "name": "Amarantergr\u00e4nd", "surface": "asphalt"}}, {"type": "Feature", "id": "way/28144179", "geometry": {"type": "LineString", "coordinates": [[673235.9471575208, 6580786.580635687], [673164.081640736, 6580803.030859463]]}, "properties": {"@id": "way/28144179", "highway": "residential", "maxspeed": "30", "name": "Coldinutrappan", "surface": "asphalt"}}, {"type": "Feature", "id": "way/28167798", "geometry": {"type": "LineString", "coordinates": [[673460.791407592, 6580416.054731826], [673461.7739047925, 6580424.463300384], [673481.8253832716, 6580567.674029795]]}, "properties": {"@id": "way/28167798", "highway": "residential", "lit": "yes", "maxspeed": "30", "name": "Skillinggr\u00e4nd", "oneway": "yes", "surface": "asphalt"}}, {"type": "Feature", "id": "way/28198007", "geometry": {"type": "LineString", "coordinates": [[673513.7233874124, 6580928.546278057], [673515.5202555313, 6580925.394718472], [673519.1963631159, 6580918.537805054], [673539.2283103145, 6580888.008953757]]}, "properties": {"@id": "way/28198007", "highway": "residential", "maxspeed": "30", "name": "Kungsbro strand", "surface": "asphalt"}}, {"type": "Feature", "id": "way/28198008", "geometry": {"type": "LineString", "coordinates": [[673513.7233874124, 6580928.546278057], [673465.5148578672, 6580900.019677241], [673458.5488843841, 6580886.653338244], [673454.0263417403, 6580870.945651026]]}, "properties": {"@id": "way/28198008", "highway": "residential", "maxspeed": "30", "name": "Kungsbro strand", "oneway": "yes", "surface": "asphalt"}}, {"type": "Feature", "id": "way/28473469", "geometry": {"type": "LineString", "coordinates": [[673340.8957786412, 6581160.161202156], [673337.6562524263, 6581146.296630257]]}, "properties": {"@id": "way/28473469", "highway": "residential", "layer": "-1", "maxheight": "4.3", "maxspeed": "30", "name": "Pipersgatan", "surface": "asphalt", "tunnel": "building_passage", "wikidata": "Q10632058", "wikipedia": "sv:Pipersgatan"}}, {"type": "Feature", "id": "way/28473470", "geometry": {"type": "LineString", "coordinates": [[673337.6562524263, 6581146.296630257], [673318.7055555123, 6581064.91579244], [673316.4568888075, 6581056.783831414], [673315.1662532222, 6581051.372069771]]}, "properties": {"@id": "way/28473470", "highway": "residential", "maxspeed": "30", "name": "Pipersgatan", "surface": "asphalt", "wikidata": "Q10632058", "wikipedia": "sv:Pipersgatan"}}, {"type": "Feature", "id": "way/28475690", "geometry": {"type": "LineString", "coordinates": [[673575.6747971149, 6580733.113550488], [673587.4083547052, 6580731.978791702], [673594.3347665323, 6580731.292739304], [673597.5963999259, 6580730.9962325], [673627.0240319653, 6580729.22325651], [673629.857005824, 6580729.57620599], [673632.6695654475, 6580730.374279438], [673636.0150349342, 6580731.977397002], [673637.9644310415, 6580732.958917162]]}, "properties": {"@id": "way/28475690", "cycleway:right": "track", "highway": "residential", "lit": "yes", "maxspeed": "30", "name": "Bolinders plan", "oneway": "yes", "surface": "asphalt", "wikidata": "Q10432441", "wikipedia": "sv:Bolinders plan"}}, {"type": "Feature", "id": "way/28475695", "geometry": {"type": "LineString", "coordinates": [[673463.4586915853, 6580869.0360198915], [673467.4016154929, 6580883.713534065], [673471.7124051427, 6580891.605541076], [673519.1963631159, 6580918.537805054]]}, "properties": {"@id": "way/28475695", "highway": "residential", "maxspeed": "30", "name": "Kungsbro strand", "oneway": "yes", "surface": "asphalt"}}, {"type": "Feature", "id": "way/28547936", "geometry": {"type": "LineString", "coordinates": [[673408.8948969375, 6580782.677740905], [673417.3606378598, 6580820.534256964], [673413.5779430543, 6580822.256729529], [673407.1889925293, 6580822.410146196], [673398.4804170008, 6580784.877079053]]}, "properties": {"@id": "way/28547936", "highway": "residential", "lit": "yes", "maxspeed": "30", "name": "Kungsklippan", "name:de": "K\u00f6nigsklippe", "name:sv": "Kungsklippan", "oneway": "yes", "surface": "asphalt", "wikidata": "Q10550336", "wikipedia": "sv:Kungsklippan"}}, {"type": "Feature", "id": "way/28547939", "geometry": {"type": "LineString", "coordinates": [[673336.6812695083, 6580797.9936653515], [673341.7575475655, 6580821.53250854], [673341.3509547855, 6580824.190228443], [673338.8200854491, 6580827.196743273], [673335.3616888804, 6580826.815373342], [673332.1036278009, 6580824.547440847], [673330.5626121345, 6580815.890311391], [673336.6812695083, 6580797.9936653515]]}, "properties": {"@id": "way/28547939", "highway": "residential", "maxspeed": "30", "name": "Kungsklippan", "name:de": "K\u00f6nigsklippe", "name:sv": "Kungsklippan", "oneway": "yes", "surface": "asphalt", "wikidata": "Q10550336", "wikipedia": "sv:Kungsklippan"}}, {"type": "Feature", "id": "way/28547949", "geometry": {"type": "LineString", "coordinates": [[673333.3183553051, 6580778.101723762], [673322.6713741029, 6580780.402137162], [673319.4785196774, 6580782.932303874], [673318.5296111059, 6580786.234282137], [673320.8946923615, 6580798.051520256], [673320.9896868537, 6580800.955232122], [673319.8176006577, 6580802.908825365], [673317.3733407346, 6580804.023581872], [673306.1527250126, 6580806.409290057], [673303.717830729, 6580806.074802578], [673302.0365992431, 6580804.213620654], [673301.1336686086, 6580799.042648352], [673305.1040943022, 6580784.504557063]]}, "properties": {"@id": "way/28547949", "highway": "residential", "maxspeed": "30", "name": "Kungsklippan", "name:de": "K\u00f6nigsklippe", "name:sv": "Kungsklippan", "surface": "asphalt", "wikidata": "Q10550336", "wikipedia": "sv:Kungsklippan"}}, {"type": "Feature", "id": "way/28577820", "geometry": {"type": "LineString", "coordinates": [[673602.4640953597, 6580624.834650047], [673608.220514592, 6580612.385948943], [673603.4293598748, 6580545.369125331]]}, "properties": {"@id": "way/28577820", "highway": "residential", "lit": "yes", "maxheight": "4", "maxspeed": "30", "name": "Serafimergr\u00e4nd", "surface": "asphalt"}}, {"type": "Feature", "id": "way/29136381", "geometry": {"type": "LineString", "coordinates": [[672795.0332745723, 6581016.108967929], [672802.80068644, 6581014.456282177], [672861.8546083432, 6581001.429006729], [672962.5268590059, 6580979.152541305], [673030.982422936, 6580963.6580343945], [673078.7612460748, 6580953.018065364], [673087.4853896408, 6580951.632714196], [673097.9042790156, 6580949.321249915], [673195.2359145669, 6580927.901665818]]}, "properties": {"@id": "way/29136381", "highway": "residential", "maxspeed": "30", "name": "Kungsholmsgatan", "surface": "asphalt", "wikidata": "Q10550321", "wikipedia": "sv:Kungsholmsgatan"}}, {"type": "Feature", "id": "way/34209242", "geometry": {"type": "LineString", "coordinates": [[674371.0910711938, 6581413.891729553], [674353.0097773317, 6581408.152111057], [674349.5417083536, 6581407.992364554], [674348.1203685811, 6581407.926895594], [674346.7148771778, 6581408.754284926], [674339.8720274993, 6581422.490114351]]}, "properties": {"@id": "way/34209242", "highway": "residential", "maxspeed": "30", "name": "Oxtorgsgr\u00e4nd"}}, {"type": "Feature", "id": "way/34231301", "geometry": {"type": "LineString", "coordinates": [[673704.1161821755, 6580779.038046481], [673701.8779112773, 6580788.079554495], [673700.5204156413, 6580791.585740966]]}, "properties": {"@id": "way/34231301", "bridge": "yes", "highway": "residential", "layer": "2", "lit": "yes", "maxspeed": "30", "name": "Blekholmsterrassen", "surface": "asphalt", "wikidata": "Q10431225", "wikipedia": "sv:Blekholmsterrassen"}}, {"type": "Feature", "id": "way/34290567", "geometry": {"type": "LineString", "coordinates": [[672816.2703726188, 6581662.85119892], [672818.2293094243, 6581669.8544682665], [672831.3102626471, 6581717.733421651]]}, "properties": {"@id": "way/34290567", "highway": "residential", "lit": "yes", "maxspeed": "30", "name": "V\u00f6lundsgatan", "sidewalk": "both", "surface": "asphalt"}}, {"type": "Feature", "id": "way/34387766", "geometry": {"type": "LineString", "coordinates": [[673642.3474551514, 6580899.539643734], [673670.6567218376, 6580914.666011651], [673673.9727880904, 6580919.3902351055], [673674.4604205742, 6580922.423500453], [673673.4703799462, 6580926.615638042], [673669.984286174, 6580931.808416367], [673665.8290667441, 6580932.955975942], [673660.00816118, 6580931.908353977], [673632.412664202, 6580917.372368742]]}, "properties": {"@id": "way/34387766", "bridge": "yes", "highway": "residential", "layer": "1", "lit": "yes", "maxspeed": "30", "name": "Blekholmstorget", "oneway": "yes", "surface": "paving_stones"}}, {"type": "Feature", "id": "way/35105925", "geometry": {"type": "LineString", "coordinates": [[673553.1340105825, 6581449.6757077575], [673546.097383816, 6581454.036680878], [673540.2473934768, 6581463.581739475]]}, "properties": {"@id": "way/35105925", "highway": "residential", "lit": "yes", "maxspeed": "30", "maxweight": "12", "name": "Dalagatan", "sidewalk": "separate", "surface": "asphalt", "wikidata": "Q10466054", "wikipedia": "sv:Dalagatan"}}, {"type": "Feature", "id": "way/35205844", "geometry": {"type": "LineString", "coordinates": [[674102.4654204629, 6582041.625943612], [674111.8933851982, 6582047.189427811], [674177.4541226161, 6582085.668436566], [674185.9979913388, 6582090.633847126], [674193.8750868423, 6582095.234037937], [674253.1647068844, 6582130.080311727], [674260.7625540849, 6582134.556276974]]}, "properties": {"@id": "way/35205844", "highway": "residential", "maxspeed": "30", "name": "R\u00e5dmansgatan", "surface": "asphalt", "wikidata": "Q10658680", "wikipedia": "sv:R\u00e5dmansgatan, Stockholm"}}, {"type": "Feature", "id": "way/35205845", "geometry": {"type": "LineString", "coordinates": [[673604.2210729293, 6581753.10809818], [673596.7769556472, 6581748.975140932], [673529.6705953022, 6581711.6627029115], [673521.4974884267, 6581707.2734504305]]}, "properties": {"@id": "way/35205845", "highway": "residential", "lit": "yes", "maxspeed": "30", "name": "R\u00e5dmansgatan", "sidewalk": "separate", "surface": "asphalt", "wikidata": "Q10658680", "wikipedia": "sv:R\u00e5dmansgatan, Stockholm"}}, {"type": "Feature", "id": "way/35205846", "geometry": {"type": "LineString", "coordinates": [[673430.5680523169, 6581657.719275204], [673423.4231148167, 6581653.265848134], [673392.740523423, 6581636.582604845], [673384.5283252725, 6581628.065848592], [673379.4777565452, 6581617.686685352], [673376.5612061549, 6581606.736199672], [673377.2705418527, 6581592.494868403], [673377.924150988, 6581588.175753049], [673378.4903250153, 6581584.521718039], [673381.3757248671, 6581562.574071228], [673382.9139042539, 6581551.38159354], [673393.0210282116, 6581532.218090174], [673394.9348142395, 6581526.507021246], [673392.9521046625, 6581521.286534703]]}, "properties": {"@id": "way/35205846", "highway": "residential", "maxspeed": "30", "name": "Crafoords V\u00e4g", "surface": "asphalt"}}, {"type": "Feature", "id": "way/35205847", "geometry": {"type": "LineString", "coordinates": [[673374.8317856918, 6581487.782801767], [673370.9587778667, 6581492.735052463], [673347.1834274598, 6581530.453040834], [673341.5328112587, 6581535.658447292], [673319.4867341961, 6581545.577240778], [673245.2678627339, 6581577.640802141], [673238.3777529517, 6581583.7932406515], [673230.164679185, 6581597.691118412]]}, "properties": {"@id": "way/35205847", "highway": "residential", "maxspeed": "30", "name": "H\u00e4lsobrunnsgatan", "oneway": "yes", "sidewalk": "separate", "surface": "asphalt"}}, {"type": "Feature", "id": "way/35277977", "geometry": {"type": "LineString", "coordinates": [[673087.4853896408, 6580951.632714196], [673090.3687413542, 6580964.588606739], [673102.30589465, 6581017.545812319], [673115.7932729401, 6581077.710847865]]}, "properties": {"@id": "way/35277977", "highway": "residential", "maxspeed": "30", "name": "Norra Agnegatan", "oneway": "no", "parking:lane:both": "parallel", "surface": "asphalt", "wikidata": "Q15870363", "wikipedia": "sv:Agnegatan"}}, {"type": "Feature", "id": "way/35278615", "geometry": {"type": "LineString", "coordinates": [[672906.1368390922, 6580690.545185981], [672904.657685568, 6580683.006251945], [672903.1785246053, 6580675.467318623], [672878.6896141685, 6580549.119813845]]}, "properties": {"@id": "way/35278615", "highway": "residential", "maxspeed": "30", "name": "Pilgatan", "parking:lane:both": "parallel", "surface": "asphalt"}}, {"type": "Feature", "id": "way/35551374", "geometry": {"type": "LineString", "coordinates": [[673772.1960505827, 6581427.275651435], [673769.3835342117, 6581435.175605952], [673750.9642560427, 6581493.8789992165], [673747.9543990515, 6581499.874152643]]}, "properties": {"@id": "way/35551374", "cycleway": "opposite_lane", "highway": "residential", "lit": "yes", "maxspeed": "30", "name": "Upplandsgatan", "oneway": "yes", "oneway:bicycle": "no", "sidewalk": "separate", "surface": "asphalt", "wikidata": "Q15116497", "wikipedia": "sv:Upplandsgatan"}}, {"type": "Feature", "id": "way/37978846", "geometry": {"type": "LineString", "coordinates": [[674371.0910711938, 6581413.891729553], [674405.3046605918, 6581424.389302737], [674414.4468974463, 6581422.580235258], [674418.2953047205, 6581416.958730579], [674420.3861440369, 6581396.313081335]]}, "properties": {"@id": "way/37978846", "cycleway": "opposite", "highway": "residential", "maxspeed": "30", "name": "Oxtorget", "oneway": "yes"}}, {"type": "Feature", "id": "way/37988904", "geometry": {"type": "LineString", "coordinates": [[674323.2372662888, 6581601.822229555], [674340.5948116436, 6581541.622469513], [674342.4634469575, 6581535.686678349], [674343.9956343248, 6581528.397198339], [674356.164284558, 6581480.671299122]]}, "properties": {"@id": "way/37988904", "cycleway": "opposite", "highway": "residential", "maxspeed": "30", "name": "Malmskillnadsgatan", "oneway": "yes", "surface": "asphalt", "wikidata": "Q4570166", "wikipedia": "sv:Malmskillnadsgatan"}}, {"type": "Feature", "id": "way/37988905", "geometry": {"type": "LineString", "coordinates": [[674394.0350441078, 6581293.061732184], [674400.5800757487, 6581269.721876911], [674406.5384834611, 6581239.329490344]]}, "properties": {"@id": "way/37988905", "highway": "residential", "maxspeed": "30", "name": "Malmskillnadsgatan", "surface": "asphalt", "wikidata": "Q4570166", "wikipedia": "sv:Malmskillnadsgatan"}}, {"type": "Feature", "id": "way/37988906", "geometry": {"type": "LineString", "coordinates": [[674373.9906370668, 6581400.420351658], [674377.6274701065, 6581382.076234992]]}, "properties": {"@id": "way/37988906", "bridge": "yes", "cycleway": "opposite", "highway": "residential", "layer": "1", "maxspeed": "30", "name": "Malmskillnadsgatan", "oneway": "yes", "wikidata": "Q4570166", "wikipedia": "sv:Malmskillnadsgatan"}}, {"type": "Feature", "id": "way/37988907", "geometry": {"type": "LineString", "coordinates": [[674377.6274701065, 6581382.076234992], [674386.7038505091, 6581328.520622972], [674388.2194004576, 6581317.884906316]]}, "properties": {"@id": "way/37988907", "cycleway": "opposite", "highway": "residential", "maxspeed": "30", "name": "Malmskillnadsgatan", "oneway": "yes", "wikidata": "Q4570166", "wikipedia": "sv:Malmskillnadsgatan"}}, {"type": "Feature", "id": "way/37988920", "geometry": {"type": "LineString", "coordinates": [[674176.9586607621, 6581445.322211866], [674200.452577078, 6581405.25410021], [674203.2516959056, 6581400.141684604]]}, "properties": {"@id": "way/37988920", "cycleway": "opposite", "highway": "residential", "maxspeed": "30", "name": "Olofsgatan", "oneway": "yes", "surface": "asphalt"}}, {"type": "Feature", "id": "way/37988925", "geometry": {"type": "LineString", "coordinates": [[673909.6734840794, 6581333.002990213], [673924.7361359769, 6581305.258691144]]}, "properties": {"@id": "way/37988925", "cycleway": "opposite", "highway": "residential", "lit": "yes", "maxspeed": "30", "name": "Klara Norra Kyrkogata", "oneway": "yes", "surface": "asphalt", "wikidata": "Q10546043", "wikipedia": "sv:Klara norra kyrkogata"}}, {"type": "Feature", "id": "way/38048757", "geometry": {"type": "LineString", "coordinates": [[674077.805985034, 6581621.638995821], [674146.2780131636, 6581501.675607107]]}, "properties": {"@id": "way/38048757", "cycleway": "opposite", "highway": "residential", "maxspeed": "30", "name": "Olofsgatan", "oneway": "yes", "sidewalk": "both", "surface": "asphalt"}}, {"type": "Feature", "id": "way/38048758", "geometry": {"type": "LineString", "coordinates": [[674146.2780131636, 6581501.675607107], [674161.3567469178, 6581472.3716916675]]}, "properties": {"@id": "way/38048758", "highway": "residential", "maxspeed": "30", "name": "Olofsgatan", "surface": "asphalt"}}, {"type": "Feature", "id": "way/38048759", "geometry": {"type": "LineString", "coordinates": [[674176.9586607621, 6581445.322211866], [674161.3567469178, 6581472.3716916675]]}, "properties": {"@id": "way/38048759", "cycleway": "opposite", "highway": "residential", "maxspeed": "30", "name": "Olofsgatan", "oneway": "yes", "surface": "asphalt"}}, {"type": "Feature", "id": "way/38213895", "geometry": {"type": "LineString", "coordinates": [[673924.7361359769, 6581305.258691144], [673946.6417642904, 6581266.231307774]]}, "properties": {"@id": "way/38213895", "access": "destination", "bicycle": "yes", "cycleway:left": "opposite", "highway": "residential", "lit": "yes", "maxspeed": "30", "name": "Klara Norra Kyrkogata", "oneway": "yes", "oneway:bicycle": "no", "surface": "asphalt", "wikidata": "Q10546043", "wikipedia": "sv:Klara norra kyrkogata"}}, {"type": "Feature", "id": "way/39091421", "geometry": {"type": "LineString", "coordinates": [[673497.2989174483, 6582539.401139885], [673501.11293334, 6582531.993034211], [673533.0662011148, 6582471.12167211], [673537.7424183445, 6582462.303447514], [673542.0367977165, 6582454.359832344], [673569.6610241032, 6582402.211343768], [673589.7083018348, 6582363.766271577], [673593.6982654852, 6582356.25479669], [673624.431977896, 6582299.677174261]]}, "properties": {"@id": "way/39091421", "check_date": "2019-12-09", "foot": "no", "highway": "residential", "lit": "yes", "maxspeed": "30", "name": "Hagagatan", "sidewalk": "separate", "surface": "asphalt", "wikidata": "Q10515899", "wikipedia": "sv:Hagagatan"}}, {"type": "Feature", "id": "way/39170800", "geometry": {"type": "LineString", "coordinates": [[672895.2226230113, 6582201.610154529], [672890.7487197059, 6582209.769255891], [672872.8015261078, 6582242.291833676], [672868.307865162, 6582244.651352326], [672860.3256760417, 6582246.070916876], [672853.8315165851, 6582247.335444362], [672849.912288232, 6582250.836358611], [672848.0809162485, 6582254.767187365], [672847.2999421811, 6582260.641726268], [672848.0633649377, 6582272.608538261], [672852.7455044603, 6582287.319168382], [672855.9618107078, 6582290.476956755], [672859.326456398, 6582291.634282066], [672875.2490651202, 6582288.458727918], [672879.8836107012, 6582288.001386693], [672883.3619326825, 6582289.163927248], [672928.1952230434, 6582315.188000338], [672934.8583146917, 6582318.949439227]]}, "properties": {"@id": "way/39170800", "highway": "residential", "maxspeed": "30", "name": "H\u00e4lsingeh\u00f6jden", "oneway": "yes", "surface": "asphalt"}}, {"type": "Feature", "id": "way/39173823", "geometry": {"type": "LineString", "coordinates": [[672872.586854632, 6582397.84337504], [672881.2355446414, 6582396.788848202], [672884.1749781691, 6582396.031043767], [672894.397181959, 6582391.703034827], [672926.6070033939, 6582333.738190201], [672934.8583146917, 6582318.949439227], [672938.5840187849, 6582312.2058716025], [672943.4863265122, 6582303.397324307], [672971.0377025683, 6582253.917934859], [672975.3361333461, 6582245.862412324]]}, "properties": {"@id": "way/39173823", "cycleway": "opposite", "highway": "residential", "maxspeed": "30", "name": "H\u00e4lsingegatan", "oneway": "yes", "sidewalk": "separate", "surface": "asphalt"}}, {"type": "Feature", "id": "way/39176408", "geometry": {"type": "LineString", "coordinates": [[673195.2359145669, 6580927.901665818], [673285.1471441712, 6580908.0405890085], [673330.2915713715, 6580897.7291728845], [673344.0384931283, 6580893.674999819], [673442.8109063638, 6580873.2196721025]]}, "properties": {"@id": "way/39176408", "highway": "residential", "maxspeed": "30", "name": "Kungsholmsgatan", "surface": "asphalt", "wikidata": "Q10550321", "wikipedia": "sv:Kungsholmsgatan"}}, {"type": "Feature", "id": "way/39176409", "geometry": {"type": "LineString", "coordinates": [[673286.949406362, 6580609.711911705], [673344.6883940173, 6580596.96602437]]}, "properties": {"@id": "way/39176409", "highway": "residential", "lit": "yes", "maxspeed": "30", "name": "Hantverkargatan", "oneway": "no", "sidewalk": "both", "surface": "asphalt", "wikidata": "Q10517486", "wikipedia": "sv:Hantverkargatan"}}, {"type": "Feature", "id": "way/39214608", "geometry": {"type": "LineString", "coordinates": [[673359.3337325042, 6582461.484985208], [673351.3428665078, 6582456.881325421], [673298.0478572816, 6582426.67291672], [673252.5318594646, 6582401.95114282], [673247.2494016483, 6582399.144445469], [673237.9196258755, 6582393.92216658], [673230.4815795015, 6582389.678632652], [673225.0956010881, 6582386.6442005355], [673167.0123495742, 6582353.988274185], [673158.3491507799, 6582349.131252884], [673150.5800813562, 6582344.6497103805], [673077.0088728821, 6582303.146036622], [673068.3971990645, 6582298.403105987], [673060.5761744061, 6582293.807870938], [672982.8731520684, 6582250.444475658], [672975.3361333461, 6582245.862412324], [672967.8406774097, 6582241.6168059595], [672903.6947056963, 6582205.677204952], [672895.2226230113, 6582201.610154529], [672884.9339370378, 6582193.668668047]]}, "properties": {"@id": "way/39214608", "check_date": "2019-12-10", "highway": "residential", "maxspeed": "30", "name": "Frejgatan", "sidewalk": "separate", "surface": "asphalt", "wikidata": "Q10498840", "wikipedia": "sv:Frejgatan"}}, {"type": "Feature", "id": "way/39222722", "geometry": {"type": "LineString", "coordinates": [[674053.6177685169, 6581237.024969558], [674055.239296585, 6581233.977097697]]}, "properties": {"@id": "way/39222722", "highway": "residential", "lit": "yes", "maxspeed": "30", "name": "Korgmakargr\u00e4nd", "oneway": "yes", "surface": "sett"}}, {"type": "Feature", "id": "way/39247923", "geometry": {"type": "LineString", "coordinates": [[672867.3037491967, 6581327.519481836], [672863.8092657303, 6581326.690814622], [672861.4915720935, 6581323.797139564], [672850.3027742084, 6581271.878595325], [672841.7386071428, 6581232.346401015], [672839.378516587, 6581221.644885318], [672830.3105829733, 6581179.413417497], [672827.8671820238, 6581168.039031555], [672825.9424978931, 6581159.03010663], [672824.6248511418, 6581152.948239348], [672823.2605029506, 6581146.641214448], [672807.5051268187, 6581073.661452892], [672799.4637081744, 6581036.383549628], [672797.7621980053, 6581028.722993625], [672795.0332745723, 6581016.108967929], [672792.8281944518, 6581005.7491170075], [672754.0287013986, 6580825.892148644], [672736.6666973749, 6580745.591246865], [672735.8259387203, 6580741.538423343], [672735.2187227402, 6580738.611384273], [672733.2731868521, 6580730.047641631]]}, "properties": {"@id": "way/39247923", "highway": "residential", "maxspeed": "30", "name": "Polhemsgatan", "surface": "asphalt", "wikidata": "Q10636001", "wikipedia": "sv:Polhemsgatan"}}, {"type": "Feature", "id": "way/39323804", "geometry": {"type": "LineString", "coordinates": [[674305.9594235679, 6581666.486351501], [674321.1781026449, 6581609.421991472], [674323.2372662888, 6581601.822229555]]}, "properties": {"@id": "way/39323804", "highway": "residential", "maxspeed": "30", "name": "Malmskillnadsgatan", "surface": "asphalt", "wikidata": "Q4570166", "wikipedia": "sv:Malmskillnadsgatan"}}, {"type": "Feature", "id": "way/39323806", "geometry": {"type": "LineString", "coordinates": [[674392.1271287698, 6581611.46371237], [674323.2372662888, 6581601.822229555]]}, "properties": {"@id": "way/39323806", "cycleway": "opposite", "highway": "residential", "maxspeed": "30", "name": "David Bagares Gata", "oneway": "yes", "surface": "asphalt", "wikidata": "Q10467140", "wikipedia": "sv:David Bagares gata"}}, {"type": "Feature", "id": "way/39325076", "geometry": {"type": "LineString", "coordinates": [[673559.7587089691, 6582106.466083487], [673565.3671381949, 6582109.62269818], [673587.139070825, 6582121.772829309], [673591.3723331009, 6582123.862770934]]}, "properties": {"@id": "way/39325076", "check_date": "2019-12-06", "highway": "residential", "maxspeed:type": "SE:urban", "name": "Sand\u00e5sgatan", "surface": "asphalt"}}, {"type": "Feature", "id": "way/39331023", "geometry": {"type": "LineString", "coordinates": [[672976.4895646017, 6581269.613867939], [672977.4912058779, 6581275.123799055], [672981.750580174, 6581296.6175142815], [672979.8475198401, 6581302.106220673], [672975.4867868153, 6581304.025701128], [672962.9398897103, 6581306.797768199], [672912.8763836296, 6581317.669081373], [672867.3037491967, 6581327.519481836]]}, "properties": {"@id": "way/39331023", "highway": "residential", "maxspeed": "30", "name": "P O Hallmans Gata"}}, {"type": "Feature", "id": "way/40285901", "geometry": {"type": "LineString", "coordinates": [[673230.2007719019, 6581736.304677043], [673225.8029072955, 6581744.020878024], [673207.7262738025, 6581775.5326024685], [673181.2829900893, 6581821.827429529], [673176.0130698031, 6581831.176481327]]}, "properties": {"@id": "way/40285901", "highway": "residential", "maxspeed": "30", "name": "Medevigatan", "sidewalk": "separate", "surface": "asphalt"}}, {"type": "Feature", "id": "way/40285913", "geometry": {"type": "LineString", "coordinates": [[673283.5065324042, 6581766.511949779], [673279.2944125901, 6581773.902056013], [673247.9101957913, 6581828.556836055], [673233.8700079944, 6581852.781769493], [673229.214296683, 6581861.155242096]]}, "properties": {"@id": "way/40285913", "highway": "residential", "maxspeed": "30", "name": "Valentin Sabbats Gata", "sidewalk": "separate", "surface": "asphalt"}}, {"type": "Feature", "id": "way/40802591", "geometry": {"type": "LineString", "coordinates": [[674123.0202848784, 6582382.248654271], [674132.5554860038, 6582361.945514645], [674149.6771443625, 6582331.50905817], [674155.3324975232, 6582324.966878181], [674158.9994739785, 6582320.786536028]]}, "properties": {"@id": "way/40802591", "foot": "no", "highway": "residential", "maxspeed": "30", "name": "Roslagsgatan", "oneway": "yes", "source": "survey", "surface": "asphalt", "wikidata": "Q10657104", "wikipedia": "sv:Roslagsgatan"}}, {"type": "Feature", "id": "way/40924330", "geometry": {"type": "LineString", "coordinates": [[673339.3768128025, 6582217.023298769], [673334.7263178944, 6582225.285359917], [673332.6874462764, 6582228.760424154], [673329.9570624114, 6582233.653500041]]}, "properties": {"@id": "way/40924330", "access": "no", "bicycle": "yes", "highway": "residential", "maxspeed": "30", "name": "Upplandsgatan", "psv": "yes", "sidewalk": "separate", "surface": "asphalt", "wikidata": "Q15116497", "wikipedia": "sv:Upplandsgatan"}}, {"type": "Feature", "id": "way/41208823", "geometry": {"type": "LineString", "coordinates": [[673708.3430021855, 6582421.065193222], [673704.6267975904, 6582418.887317323], [673699.8044743201, 6582415.989576834], [673696.868671297, 6582414.18207987], [673646.1753973456, 6582385.649297049], [673602.2472741079, 6582361.107607871], [673593.6982654852, 6582356.25479669]]}, "properties": {"@id": "way/41208823", "check_date": "2019-12-10", "cycleway": "shared_lane", "highway": "residential", "lit": "yes", "maxspeed": "30", "name": "Surbrunnsgatan", "sidewalk": "separate", "surface": "asphalt", "wikidata": "Q10684144", "wikipedia": "sv:Surbrunnsgatan"}}, {"type": "Feature", "id": "way/41208826", "geometry": {"type": "LineString", "coordinates": [[674091.2927564732, 6581898.148891452], [674083.4148489623, 6581904.700471972], [674037.8020886541, 6581991.034403485], [674032.8195189282, 6582000.284084804], [674029.6441018382, 6582006.159894863], [673980.1505936508, 6582098.8953316845], [673976.4074625601, 6582105.971746528], [673971.8952582828, 6582114.908570024], [673933.1841724804, 6582187.509852455], [673929.9419681022, 6582193.605689945], [673877.5041108311, 6582289.775353723], [673832.1214902286, 6582375.006673495], [673830.0668761174, 6582378.815317467]]}, "properties": {"@id": "way/41208826", "cycleway": "opposite", "highway": "residential", "maxspeed": "30", "name": "Luntmakargatan", "oneway": "yes", "surface": "asphalt", "wikidata": "Q10570913", "wikipedia": "sv:Luntmakargatan"}}, {"type": "Feature", "id": "way/41208828", "geometry": {"type": "LineString", "coordinates": [[673909.5327624222, 6582067.547442412], [673917.3533641143, 6582072.144439335], [673976.4074625601, 6582105.971746528], [673980.5166379606, 6582108.279460235], [674033.9098865007, 6582138.836552968], [674042.5106380491, 6582143.804253054]]}, "properties": {"@id": "way/41208828", "cycleway": "opposite", "highway": "residential", "maxspeed": "30", "name": "Kungstensgatan", "oneway": "yes", "surface": "asphalt", "wikidata": "Q15120837", "wikipedia": "sv:Kungstensgatan"}}, {"type": "Feature", "id": "way/41519529", "geometry": {"type": "LineString", "coordinates": [[672834.3637884227, 6580706.225299768], [672906.1368390922, 6580690.545185981]]}, "properties": {"@id": "way/41519529", "highway": "residential", "maxspeed": "30", "name": "Hantverkargatan", "sidewalk": "both", "surface": "asphalt", "wikidata": "Q10517486", "wikipedia": "sv:Hantverkargatan"}}, {"type": "Feature", "id": "way/41519536", "geometry": {"type": "LineString", "coordinates": [[672878.6896141685, 6580549.119813845], [672877.344378023, 6580541.140961612], [672861.9538546768, 6580468.846895469], [672862.3237383387, 6580459.496685557]]}, "properties": {"@id": "way/41519536", "highway": "residential", "maxspeed": "30", "name": "Pilgatan", "surface": "asphalt"}}, {"type": "Feature", "id": "way/41527693", "geometry": {"type": "LineString", "coordinates": [[673539.1827274135, 6581866.992617106], [673534.9133369427, 6581874.379839054], [673501.0998381161, 6581933.493416889], [673496.3918539608, 6581941.752682538], [673491.3690532427, 6581950.666607742], [673386.7142720276, 6582133.660483981], [673381.6350999543, 6582142.571943514]]}, "properties": {"@id": "way/41527693", "highway": "residential", "lit": "yes", "maxspeed": "30", "name": "Upplandsgatan", "sidewalk": "separate", "surface": "asphalt", "wikidata": "Q15116497", "wikipedia": "sv:Upplandsgatan"}}, {"type": "Feature", "id": "way/41527698", "geometry": {"type": "LineString", "coordinates": [[673489.9267393453, 6581553.385855959], [673481.3103464267, 6581568.602936752], [673435.957613522, 6581648.264494699], [673430.5680523169, 6581657.719275204], [673425.7360529532, 6581666.195981189], [673373.8140927809, 6581757.489165142], [673372.6990681747, 6581759.445343478], [673366.1277360966, 6581771.076347464]]}, "properties": {"@id": "way/41527698", "highway": "residential", "lit": "yes", "maxspeed": "30", "name": "Dalagatan", "sidewalk": "separate", "surface": "asphalt", "wikidata": "Q10466054", "wikipedia": "sv:Dalagatan"}}, {"type": "Feature", "id": "way/41527699", "geometry": {"type": "LineString", "coordinates": [[673539.1827274135, 6581866.992617106], [673530.8496489068, 6581862.372957001], [673465.238903079, 6581826.022258099], [673456.9624967744, 6581821.405369226], [673449.0169541573, 6581817.0266922], [673374.9108892567, 6581775.827752732], [673366.1277360966, 6581771.076347464]]}, "properties": {"@id": "way/41527699", "highway": "residential", "lit": "yes", "maxspeed": "30", "name": "Kungstensgatan", "sidewalk": "separate", "surface": "asphalt", "wikidata": "Q15120837", "wikipedia": "sv:Kungstensgatan"}}, {"type": "Feature", "id": "way/41568991", "geometry": {"type": "LineString", "coordinates": [[673996.5624080126, 6582223.878189244], [674004.2791253928, 6582228.247585351], [674074.6126565081, 6582268.17110998], [674083.6626543913, 6582273.271108638]]}, "properties": {"@id": "way/41568991", "highway": "residential", "maxspeed": "30", "name": "Rehnsgatan", "surface": "asphalt", "wikidata": "Q7309831", "wikipedia": "sv:Rehnsgatan"}}, {"type": "Feature", "id": "way/41568992", "geometry": {"type": "LineString", "coordinates": [[673733.0044381331, 6582671.656789586], [673737.8827260772, 6582663.40564909], [673793.8889708889, 6582568.736609721], [673833.9607012615, 6582501.103438908], [673838.1630591719, 6582493.936501793], [673841.9937313194, 6582487.421583078], [673873.5483668726, 6582434.117460432], [673877.9833289138, 6582426.849732625]]}, "properties": {"@id": "way/41568992", "highway": "residential", "maxspeed": "30", "name": "D\u00f6belnsgatan", "sidewalk": "separate", "surface": "asphalt", "wikidata": "Q10478625", "wikipedia": "sv:D\u00f6belnsgatan"}}, {"type": "Feature", "id": "way/41574203", "geometry": {"type": "LineString", "coordinates": [[673132.2221235771, 6582185.682881613], [673127.535587305, 6582193.497465784], [673124.3973838117, 6582198.595043781], [673120.9860026188, 6582204.683751366], [673101.1016063286, 6582240.908217388], [673073.1759724342, 6582289.812084317], [673068.3971990645, 6582298.403105987], [673063.4479262524, 6582306.986334414], [673037.6804890733, 6582352.309164552], [673005.8762175185, 6582408.842027785], [672975.6056732609, 6582462.991919494]]}, "properties": {"@id": "way/41574203", "highway": "residential", "maxspeed": "30", "name": "Dalagatan", "sidewalk": "separate", "surface": "asphalt", "wikidata": "Q10466054", "wikipedia": "sv:Dalagatan"}}, {"type": "Feature", "id": "way/41574210", "geometry": {"type": "LineString", "coordinates": [[673652.5787354843, 6581461.4852147605], [673648.7853767388, 6581470.90144869], [673628.1095714018, 6581520.469100691]]}, "properties": {"@id": "way/41574210", "highway": "residential", "maxspeed": "30", "name": "V\u00e4stmannagatan", "sidewalk": "separate", "surface": "asphalt", "wikidata": "Q15116455", "wikipedia": "sv:V\u00e4stmannagatan"}}, {"type": "Feature", "id": "way/41658690", "geometry": {"type": "LineString", "coordinates": [[673366.1277360966, 6581771.076347464], [673361.2289595928, 6581779.7730894], [673359.9281116526, 6581782.055301612], [673348.0864619378, 6581803.035146199], [673330.2007182998, 6581835.33567997], [673323.7840917683, 6581846.081714706], [673294.573541614, 6581898.047817733], [673288.9937116789, 6581907.940104638], [673287.4451790799, 6581910.657052156], [673285.7727661668, 6581913.5913561545], [673215.5810457923, 6582038.2846159795], [673210.7134647063, 6582046.31385805]]}, "properties": {"@id": "way/41658690", "highway": "residential", "lit": "yes", "maxspeed": "50", "name": "Dalagatan", "sidewalk": "separate", "surface": "asphalt", "wikidata": "Q10466054", "wikipedia": "sv:Dalagatan"}}, {"type": "Feature", "id": "way/41658705", "geometry": {"type": "LineString", "coordinates": [[673206.3727752464, 6582054.032679036], [673202.1610687673, 6582061.422865346], [673182.3728557181, 6582096.759278837], [673148.748177615, 6582156.887828774], [673143.9122510168, 6582165.476158662], [673137.3371192195, 6582177.218822182]]}, "properties": {"@id": "way/41658705", "highway": "residential", "lit": "yes", "maxspeed": "30", "name": "Dalagatan", "sidewalk": "separate", "surface": "asphalt", "wikidata": "Q10466054", "wikipedia": "sv:Dalagatan"}}, {"type": "Feature", "id": "way/42037282", "geometry": {"type": "LineString", "coordinates": [[673996.5624080126, 6582223.878189244], [674037.5589239821, 6582152.38624508], [674042.5106380491, 6582143.804253054], [674047.4572545693, 6582135.333547395], [674096.4083565894, 6582051.9412707845], [674102.4654204629, 6582041.625943612], [674107.9699589654, 6582032.177329101], [674158.7103064544, 6581945.8571016025], [674162.1701977048, 6581939.994476472]]}, "properties": {"@id": "way/42037282", "highway": "residential", "maxspeed": "30", "name": "D\u00f6belnsgatan", "surface": "asphalt", "wikidata": "Q10478625", "wikipedia": "sv:D\u00f6belnsgatan"}}, {"type": "Feature", "id": "way/42979013", "geometry": {"type": "LineString", "coordinates": [[673604.2210729293, 6581753.10809818], [673599.1358568027, 6581762.130559976], [673596.3479999986, 6581767.020845123], [673595.4755638567, 6581768.653548133], [673544.1488868161, 6581858.0761456005], [673539.1827274135, 6581866.992617106]]}, "properties": {"@id": "way/42979013", "highway": "residential", "lit": "yes", "maxspeed": "30", "name": "Upplandsgatan", "sidewalk": "separate", "surface": "asphalt", "wikidata": "Q15116497", "wikipedia": "sv:Upplandsgatan"}}, {"type": "Feature", "id": "way/42979121", "geometry": {"type": "LineString", "coordinates": [[673521.4974884267, 6581707.2734504305], [673512.9417256841, 6581702.53213009], [673439.1291126297, 6581662.349125285], [673430.5680523169, 6581657.719275204]]}, "properties": {"@id": "way/42979121", "highway": "residential", "maxspeed": "30", "name": "R\u00e5dmansgatan", "sidewalk": "separate", "surface": "asphalt", "wikidata": "Q10658680", "wikipedia": "sv:R\u00e5dmansgatan, Stockholm"}}, {"type": "Feature", "id": "way/42979122", "geometry": {"type": "LineString", "coordinates": [[673521.4974884267, 6581707.2734504305], [673526.3296665133, 6581698.796863774], [673572.9797926641, 6581616.965502709], [673575.5665360996, 6581612.735061538], [673580.3318788114, 6581604.478494562], [673585.1074479343, 6581595.999372182], [673587.2758477948, 6581592.195809617], [673628.1095714018, 6581520.469100691]]}, "properties": {"@id": "way/42979122", "highway": "residential", "maxspeed": "30", "name": "V\u00e4stmannagatan", "sidewalk": "separate", "surface": "asphalt", "wikidata": "Q15116455", "wikipedia": "sv:V\u00e4stmannagatan"}}, {"type": "Feature", "id": "way/43055852", "geometry": {"type": "LineString", "coordinates": [[673301.9111911717, 6582098.551835152], [673306.5923157543, 6582089.62204817], [673410.0546665824, 6581905.233332166], [673414.9483288515, 6581896.647934029], [673419.6044282633, 6581888.274683718], [673452.6830297983, 6581829.015243258], [673456.9624967744, 6581821.405369226], [673462.4809338773, 6581811.62199669], [673517.1558334078, 6581714.991929224], [673521.4974884267, 6581707.2734504305]]}, "properties": {"@id": "way/43055852", "highway": "residential", "maxspeed": "30", "name": "V\u00e4stmannagatan", "sidewalk": "separate", "surface": "asphalt", "wikidata": "Q15116455", "wikipedia": "sv:V\u00e4stmannagatan"}}, {"type": "Feature", "id": "way/49406441", "geometry": {"type": "LineString", "coordinates": [[672776.020580546, 6582443.27918463], [672775.0639310202, 6582435.541079177], [672774.8858766843, 6582425.719772966], [672794.8088127869, 6582391.056782852], [672797.6673158502, 6582385.83468068], [672802.6412942361, 6582376.694708946], [672804.9171181876, 6582373.007188439], [672820.2532662016, 6582346.49833756], [672827.6377083381, 6582340.702376221], [672829.4861317353, 6582338.891074893], [672833.7462936805, 6582335.40571829]]}, "properties": {"@id": "way/49406441", "highway": "residential", "maxspeed": "30", "name": "Vanadisplan", "oneway": "yes", "sidewalk": "separate", "surface": "sett"}}, {"type": "Feature", "id": "way/49406442", "geometry": {"type": "LineString", "coordinates": [[672779.0635572574, 6582355.434095203], [672766.6532012325, 6582376.501015502]]}, "properties": {"@id": "way/49406442", "highway": "residential", "maxspeed": "30", "name": "R\u00f6dabergsbrinken", "oneway": "yes", "sidewalk": "separate", "surface": "asphalt"}}, {"type": "Feature", "id": "way/54046133", "geometry": {"type": "LineString", "coordinates": [[673047.1754180767, 6581257.567286862], [673048.6512606988, 6581261.426217354], [673055.8798449597, 6581293.984113386]]}, "properties": {"@id": "way/54046133", "highway": "residential", "name": "Grubbenstorget"}}, {"type": "Feature", "id": "way/55821488", "geometry": {"type": "LineString", "coordinates": [[672650.1940585168, 6581613.231275043], [672663.1163140587, 6581609.694782153], [672678.7328689903, 6581608.28848849], [672697.8082383778, 6581602.24501789], [672726.161285924, 6581603.873374415], [672786.7152590548, 6581597.716255193], [672796.5595675118, 6581596.716009151]]}, "properties": {"@id": "way/55821488", "cycleway": "opposite", "highway": "residential", "maxspeed": "30", "name": "Atlasmuren", "oneway": "yes", "sidewalk": "separate", "surface": "asphalt"}}, {"type": "Feature", "id": "way/60049135", "geometry": {"type": "LineString", "coordinates": [[673006.3003422578, 6582191.521123721], [672980.0994812426, 6582237.605119281], [672975.3361333461, 6582245.862412324]]}, "properties": {"@id": "way/60049135", "highway": "residential", "maxspeed": "30", "name": "H\u00e4lsingegatan", "sidewalk": "separate", "surface": "asphalt"}}, {"type": "Feature", "id": "way/61414894", "geometry": {"type": "LineString", "coordinates": [[672794.9708882411, 6582104.363350988], [672799.9508322327, 6582102.583510947], [672803.659912906, 6582101.191696668]]}, "properties": {"@id": "way/61414894", "fixme": "I don't think cars are allowed here. re-survey", "highway": "residential", "lit": "yes", "maxspeed": "30", "name": "G\u00e4strikegatan", "oneway": "yes", "sidewalk": "separate", "surface": "asphalt"}}, {"type": "Feature", "id": "way/62299039", "geometry": {"type": "LineString", "coordinates": [[672814.2114416984, 6582215.640205894], [672808.1100570344, 6582217.034264943], [672803.2175847118, 6582218.149000065], [672798.6093207436, 6582219.276719774], [672767.3432574199, 6582226.658625169], [672756.0541497726, 6582228.150452285], [672733.5730105723, 6582216.530402857], [672729.3667726646, 6582216.338398467], [672724.0672490201, 6582218.88432542], [672669.7144087292, 6582316.542540375]]}, "properties": {"@id": "way/62299039", "cycleway": "opposite", "highway": "residential", "maxspeed": "30", "name": "Falugatan", "oneway": "yes", "surface": "asphalt"}}, {"type": "Feature", "id": "way/67028081", "geometry": {"type": "LineString", "coordinates": [[672733.3787907541, 6582318.110105506], [672749.440493301, 6582288.177198126], [672769.283758684, 6582250.2765309345], [672774.981159156, 6582247.748834609]]}, "properties": {"@id": "way/67028081", "highway": "residential", "lit": "yes", "maxspeed": "30", "name": "S\u00e4tert\u00e4ppan", "surface": "asphalt"}}, {"type": "Feature", "id": "way/67028099", "geometry": {"type": "LineString", "coordinates": [[672797.6673158502, 6582385.83468068], [672794.7209385306, 6582384.25045329], [672777.7094446353, 6582375.11012654], [672772.2630936654, 6582374.638410678], [672766.6532012325, 6582376.501015502], [672756.4333141401, 6582396.998898708], [672750.7237531639, 6582403.540533115], [672747.184540291, 6582403.713489554], [672743.1166348842, 6582401.743559831], [672732.421754262, 6582382.744111143], [672741.6101892274, 6582364.875399778], [672754.3189176794, 6582342.260840474], [672764.5652625514, 6582322.433233508], [672765.6899912382, 6582320.254320173], [672787.5703700103, 6582317.57346293], [672790.333114173, 6582335.653273574], [672779.0635572574, 6582355.434095203], [672779.6366651233, 6582361.593499109], [672782.9472527555, 6582366.428231797], [672799.6949112568, 6582375.110477775], [672802.6412942361, 6582376.694708946]]}, "properties": {"@id": "way/67028099", "highway": "residential", "maxspeed": "30", "name": "R\u00f6dabergsbrinken", "oneway": "yes", "sidewalk": "separate", "surface": "asphalt"}}, {"type": "Feature", "id": "way/68085816", "geometry": {"type": "LineString", "coordinates": [[674061.0072351214, 6581765.167483009], [674055.2849365096, 6581762.004907714], [674011.80630674, 6581737.479467713], [673976.2723722556, 6581717.334308936], [673900.5820452606, 6581674.713879184]]}, "properties": {"@id": "way/68085816", "cycleway": "opposite", "highway": "residential", "maxspeed": "30", "name": "Kammakargatan", "oneway": "yes", "surface": "asphalt", "wikidata": "Q10543155", "wikipedia": "sv:Kammakargatan"}}, {"type": "Feature", "id": "way/73086490", "geometry": {"type": "LineString", "coordinates": [[673064.75548475, 6582516.24617898], [673066.8609936559, 6582512.551013607], [673093.4737036495, 6582464.9252875745], [673153.4463756122, 6582357.939529281], [673158.3491507799, 6582349.131252884], [673163.3656254453, 6582340.328184883], [673182.0641206932, 6582307.618206475], [673233.0207237374, 6582218.509130761], [673231.3149632162, 6582209.732938752], [673229.3630577847, 6582203.844847305], [673227.0650024503, 6582198.052425315]]}, "properties": {"@id": "way/73086490", "cycleway:left": "opposite", "cycleway:right": "shared_lane", "highway": "residential", "lit": "yes", "maxspeed": "30", "name": "V\u00e4stmannagatan", "oneway": "yes", "sidewalk": "separate", "surface": "asphalt", "wikidata": "Q15116455", "wikipedia": "sv:V\u00e4stmannagatan"}}, {"type": "Feature", "id": "way/79567399", "geometry": {"type": "LineString", "coordinates": [[674375.1685200882, 6582103.137592836], [674370.0183536578, 6582093.755950899], [674335.6889363655, 6582074.777751603], [674326.2305797697, 6582069.881383295], [674321.7856110095, 6582067.446300706], [674312.5443426946, 6582062.783001136]]}, "properties": {"@id": "way/79567399", "highway": "residential", "maxspeed": "30", "name": "Eriksbergsgatan", "wikidata": "Q10487724", "wikipedia": "sv:Eriksbergsgatan"}}, {"type": "Feature", "id": "way/79567407", "geometry": {"type": "LineString", "coordinates": [[674176.198403875, 6582417.370327971], [674171.9606445825, 6582415.391001627], [674170.3999029683, 6582414.6500636535], [674126.9354820997, 6582391.2385736825], [674120.2064946608, 6582387.694960399]]}, "properties": {"@id": "way/79567407", "highway": "residential", "maxspeed": "30", "name": "Jarlaplan", "oneway": "yes", "oneway:bicycle": "no", "surface": "asphalt", "wikidata": "Q10539691", "wikipedia": "sv:Jarlaplan"}}, {"type": "Feature", "id": "way/88839447", "geometry": {"type": "LineString", "coordinates": [[673465.5148578672, 6580900.019677241], [673471.7124051427, 6580891.605541076]]}, "properties": {"@id": "way/88839447", "highway": "residential", "maxspeed": "30", "name": "Kungsbro strand", "oneway": "yes", "surface": "asphalt"}}, {"type": "Feature", "id": "way/88839453", "geometry": {"type": "LineString", "coordinates": [[673576.2070790245, 6580741.390019981], [673570.8065443675, 6580743.595745007], [673559.062966685, 6580753.6512437705]]}, "properties": {"@id": "way/88839453", "cycleway:right": "lane", "highway": "residential", "maxspeed": "30", "name": "Kungsholmsgatan", "oneway": "yes", "surface": "asphalt", "wikidata": "Q10550321", "wikipedia": "sv:Kungsholmsgatan"}}, {"type": "Feature", "id": "way/88839456", "geometry": {"type": "LineString", "coordinates": [[673632.313048522, 6580739.390604556], [673625.2094912397, 6580737.726658947], [673618.339215515, 6580737.188569591], [673602.1965558407, 6580738.790144635], [673595.0995648596, 6580739.468360645], [673588.6951428609, 6580739.955314967], [673576.2070790245, 6580741.390019981]]}, "properties": {"@id": "way/88839456", "cycleway:right": "track", "highway": "residential", "lit": "yes", "maxspeed": "30", "name": "Bolinders plan", "oneway": "yes", "surface": "asphalt", "wikidata": "Q10432441", "wikipedia": "sv:Bolinders plan"}}, {"type": "Feature", "id": "way/88850520", "geometry": {"type": "LineString", "coordinates": [[673559.062966685, 6580753.6512437705], [673566.492144165, 6580738.268291186], [673570.8326833466, 6580735.567906497], [673575.6747971149, 6580733.113550488]]}, "properties": {"@id": "way/88850520", "cycleway:right": "lane", "highway": "residential", "maxspeed": "30", "name": "Kungsholmsgatan", "oneway": "yes", "surface": "asphalt", "wikidata": "Q10550321", "wikipedia": "sv:Kungsholmsgatan"}}, {"type": "Feature", "id": "way/112791730", "geometry": {"type": "LineString", "coordinates": [[673540.2473934768, 6581463.581739475], [673534.3770227429, 6581473.571929107]]}, "properties": {"@id": "way/112791730", "bridge": "yes", "highway": "residential", "layer": "1", "lit": "yes", "maxspeed": "30", "maxweight": "12", "name": "Dalagatan", "sidewalk": "separate", "surface": "asphalt", "wikidata": "Q10466054", "wikipedia": "sv:Dalagatan"}}, {"type": "Feature", "id": "way/112791734", "geometry": {"type": "LineString", "coordinates": [[673534.3770227429, 6581473.571929107], [673489.9267393453, 6581553.385855959]]}, "properties": {"@id": "way/112791734", "highway": "residential", "lit": "yes", "maxspeed": "30", "maxweight": "12", "name": "Dalagatan", "sidewalk": "separate", "surface": "asphalt", "wikidata": "Q10466054", "wikipedia": "sv:Dalagatan"}}, {"type": "Feature", "id": "way/124974809", "geometry": {"type": "LineString", "coordinates": [[673095.1471645185, 6580572.167893637], [673110.6688405316, 6580569.197579692], [673111.6457364534, 6580569.019217223], [673126.2524986954, 6580566.118648262]]}, "properties": {"@id": "way/124974809", "highway": "residential", "maxspeed": "30", "name": "Garvargatan", "surface": "asphalt", "wikidata": "Q10503183", "wikipedia": "sv:Garvargatan, Stockholm"}}, {"type": "Feature", "id": "way/129712685", "geometry": {"type": "LineString", "coordinates": [[673939.2974908219, 6581614.490454849], [674010.2025195449, 6581655.887952158]]}, "properties": {"@id": "way/129712685", "cycleway": "opposite", "highway": "residential", "maxspeed": "30", "name": "Wallingatan", "oneway": "yes", "oneway:bicycle": "no", "sidewalk": "separate", "wikidata": "Q10719196", "wikipedia": "sv:Wallingatan"}}, {"type": "Feature", "id": "way/129795627", "geometry": {"type": "LineString", "coordinates": [[673973.5940175515, 6581562.427889364], [674040.8857667259, 6581600.648915544]]}, "properties": {"@id": "way/129795627", "cycleway": "opposite", "highway": "residential", "maxspeed": "30", "name": "Adolf Fredriks Kyrkogata", "oneway": "yes", "oneway:bicycle": "no", "surface": "asphalt"}}, {"type": "Feature", "id": "way/129881110", "geometry": {"type": "LineString", "coordinates": [[673885.487093699, 6581665.991240813], [673788.3819913883, 6581610.79182905], [673717.8003631857, 6581570.974730671], [673710.3610848251, 6581566.730274047], [673700.8642618665, 6581561.387772381], [673628.1095714018, 6581520.469100691], [673560.6005206133, 6581481.9112324]]}, "properties": {"@id": "way/129881110", "cycleway": "opposite", "highway": "residential", "maxspeed": "30", "name": "Kammakargatan", "oneway": "yes", "sidewalk": "separate", "surface": "asphalt", "wikidata": "Q10543155", "wikipedia": "sv:Kammakargatan"}}, {"type": "Feature", "id": "way/131441082", "geometry": {"type": "LineString", "coordinates": [[674376.773878975, 6581727.067603861], [674404.2429870192, 6581730.5636404585]]}, "properties": {"@id": "way/131441082", "highway": "residential", "maxspeed": "30", "name": "Drottninghusgr\u00e4nd"}}, {"type": "Feature", "id": "way/131692639", "geometry": {"type": "LineString", "coordinates": [[673709.5780771074, 6581972.2740210565], [673706.1021349708, 6581966.092663637], [673702.1605440478, 6581958.886302635], [673625.9449710889, 6581915.354991228], [673618.2840384779, 6581910.988992501], [673547.515786197, 6581871.612295893], [673539.1827274135, 6581866.992617106]]}, "properties": {"@id": "way/131692639", "highway": "residential", "lit": "yes", "maxspeed": "30", "name": "Kungstensgatan", "sidewalk": "separate", "surface": "asphalt", "wikidata": "Q15120837", "wikipedia": "sv:Kungstensgatan"}}, {"type": "Feature", "id": "way/132329943", "geometry": {"type": "LineString", "coordinates": [[674388.2194004576, 6581317.884906316], [674380.7439140085, 6581313.19139092], [674376.2658847654, 6581307.743846254], [674376.9719164964, 6581302.312087027], [674385.8106326973, 6581276.178460349], [674388.6883729016, 6581273.077071716], [674400.5800757487, 6581269.721876911]]}, "properties": {"@id": "way/132329943", "highway": "residential", "maxspeed": "30", "name": "Malmskillnadsgatan", "oneway": "yes", "surface": "asphalt", "wikidata": "Q4570166", "wikipedia": "sv:Malmskillnadsgatan"}}, {"type": "Feature", "id": "way/132465960", "geometry": {"type": "LineString", "coordinates": [[673505.6796388837, 6582208.809902902], [673510.5316743277, 6582199.888180631], [673513.7214408098, 6582193.678107778]]}, "properties": {"@id": "way/132465960", "check_date": "2019-12-06", "highway": "residential", "lit": "yes", "maxspeed": "30", "name": "Norrtullsgatan", "oneway": "yes", "sidewalk": "separate", "surface": "asphalt", "wikidata": "Q3344057", "wikipedia": "sv:Norrtullsgatan"}}, {"type": "Feature", "id": "way/132465961", "geometry": {"type": "LineString", "coordinates": [[673536.5143095151, 6582148.779268011], [673535.3473974605, 6582159.3196486235], [673520.8580961609, 6582185.864787353], [673513.7214408098, 6582193.678107778]]}, "properties": {"@id": "way/132465961", "highway": "residential", "lit": "yes", "maxspeed": "30", "name": "Norrtullsgatan", "oneway": "yes", "sidewalk": "separate", "surface": "asphalt", "wikidata": "Q3344057", "wikipedia": "sv:Norrtullsgatan"}}, {"type": "Feature", "id": "way/136987368", "geometry": {"type": "LineString", "coordinates": [[673513.7214408098, 6582193.678107778], [673514.3818192211, 6582183.002982949], [673528.9949728486, 6582156.240471982], [673536.5143095151, 6582148.779268011]]}, "properties": {"@id": "way/136987368", "highway": "residential", "lit": "yes", "maxspeed": "30", "name": "Norrtullsgatan", "oneway": "yes", "sidewalk": "separate", "surface": "asphalt", "wikidata": "Q3344057", "wikipedia": "sv:Norrtullsgatan"}}, {"type": "Feature", "id": "way/138007087", "geometry": {"type": "LineString", "coordinates": [[674160.9044215038, 6582316.525096081], [674156.9041403686, 6582314.333693113], [674152.2422616387, 6582311.665781646], [674091.6582588064, 6582277.7650413625], [674083.6626543913, 6582273.271108638]]}, "properties": {"@id": "way/138007087", "highway": "residential", "maxspeed": "30", "name": "Rehnsgatan", "oneway": "yes", "surface": "asphalt", "wikidata": "Q7309831", "wikipedia": "sv:Rehnsgatan"}}, {"type": "Feature", "id": "way/138313427", "geometry": {"type": "LineString", "coordinates": [[674185.9979913388, 6582090.633847126], [674180.224971883, 6582100.962125424], [674133.1175357172, 6582185.107339692], [674128.5942697071, 6582193.039844629]]}, "properties": {"@id": "way/138313427", "highway": "residential", "maxspeed": "30", "name": "Tulegatan", "oneway": "no", "surface": "asphalt", "wikidata": "Q7852008", "wikipedia": "sv:Tulegatan"}}, {"type": "Feature", "id": "way/138313428", "geometry": {"type": "LineString", "coordinates": [[674128.5942697071, 6582193.039844629], [674123.7509690775, 6582201.738237779], [674087.142660995, 6582266.963299326], [674083.6626543913, 6582273.271108638]]}, "properties": {"@id": "way/138313428", "highway": "residential", "maxspeed": "30", "name": "Tulegatan", "surface": "asphalt", "wikidata": "Q7852008", "wikipedia": "sv:Tulegatan"}}, {"type": "Feature", "id": "way/138313429", "geometry": {"type": "LineString", "coordinates": [[674083.6626543913, 6582273.271108638], [674079.5011001974, 6582280.774238713], [674073.4602976909, 6582291.982453823], [674032.1976184726, 6582368.033879035], [674027.1483822811, 6582377.503508743], [674022.6772514187, 6582385.550028635], [673987.4050206959, 6582450.279731859], [673984.2095087665, 6582456.600696113], [673980.6678637438, 6582463.017262284]]}, "properties": {"@id": "way/138313429", "highway": "residential", "maxspeed": "30", "name": "Tulegatan", "oneway": "yes", "surface": "asphalt", "wikidata": "Q7852008", "wikipedia": "sv:Tulegatan"}}, {"type": "Feature", "id": "way/138481201", "geometry": {"type": "LineString", "coordinates": [[673886.2274933362, 6582411.058863332], [673889.2012112944, 6582405.842785848]]}, "properties": {"@id": "way/138481201", "highway": "residential", "maxspeed": "30", "name": "D\u00f6belnsgatan", "oneway": "yes", "sidewalk": "separate", "surface": "asphalt", "wikidata": "Q10478625", "wikipedia": "sv:D\u00f6belnsgatan"}}, {"type": "Feature", "id": "way/138481234", "geometry": {"type": "LineString", "coordinates": [[674123.0202848784, 6582382.248654271], [674120.2064946608, 6582387.694960399], [674115.7868876848, 6582395.8552690735], [674064.3167078267, 6582489.502181737], [674060.191218127, 6582496.226368537], [674056.2726137508, 6582503.4061389975]]}, "properties": {"@id": "way/138481234", "foot": "no", "highway": "residential", "maxspeed": "30", "name": "Roslagsgatan", "source": "survey", "surface": "asphalt"}}, {"type": "Feature", "id": "way/138615449", "geometry": {"type": "LineString", "coordinates": [[674204.1786734153, 6582236.441400923], [674212.7897236169, 6582242.413632758]]}, "properties": {"@id": "way/138615449", "foot": "no", "highway": "residential", "maxspeed": "30", "name": "Kungstensgatan", "oneway": "yes", "surface": "asphalt", "wikidata": "Q15120837", "wikipedia": "sv:Kungstensgatan"}}, {"type": "Feature", "id": "way/138615451", "geometry": {"type": "LineString", "coordinates": [[674270.805555319, 6582141.598216295], [674273.4105321176, 6582143.167892103], [674278.8893167472, 6582146.654178601], [674292.7826204945, 6582155.434733607], [674297.6216497874, 6582161.679484527], [674312.0067264262, 6582186.987149182], [674331.3575611602, 6582226.909232801], [674335.4626177897, 6582233.008712006], [674343.8512513213, 6582238.859490135], [674424.527620703, 6582282.946325557], [674437.1845802458, 6582290.109244259]]}, "properties": {"@id": "way/138615451", "highway": "residential", "maxspeed": "30", "name": "R\u00e5dmansgatan", "surface": "asphalt", "wikidata": "Q10658680", "wikipedia": "sv:R\u00e5dmansgatan, Stockholm"}}, {"type": "Feature", "id": "way/141889092", "geometry": {"type": "LineString", "coordinates": [[674279.6250585266, 6581671.74155351], [674291.0401403398, 6581668.810212897]]}, "properties": {"@id": "way/141889092", "highway": "residential", "maxspeed": "30", "name": "Johannes Plan", "surface": "asphalt"}}, {"type": "Feature", "id": "way/141889095", "geometry": {"type": "LineString", "coordinates": [[674265.8347557541, 6581692.8521680385], [674271.984993494, 6581680.534059018], [674279.6250585266, 6581671.74155351]]}, "properties": {"@id": "way/141889095", "highway": "residential", "maxspeed": "30", "name": "Johannes Plan", "oneway": "yes", "surface": "asphalt"}}, {"type": "Feature", "id": "way/161366796", "geometry": {"type": "LineString", "coordinates": [[672825.310927912, 6581845.365215287], [672822.0789362837, 6581842.541304294], [672815.0769595946, 6581836.199845077]]}, "properties": {"@id": "way/161366796", "access": "destination", "bicycle": "yes", "cycleway:right": "lane", "foot": "no", "highway": "residential", "name": "Sankt Eriksplan", "psv": "yes", "sidewalk": "separate", "surface": "asphalt", "wikidata": "Q7418755", "wikipedia": "sv:Sankt Eriksplan"}}, {"type": "Feature", "id": "way/177035834", "geometry": {"type": "LineString", "coordinates": [[674341.5039429847, 6582022.7445894955], [674345.1810198145, 6582030.720120946]]}, "properties": {"@id": "way/177035834", "highway": "residential", "maxspeed": "30", "name": "Runebergsgatan", "oneway": "yes", "wikidata": "Q10657800", "wikipedia": "sv:Runebergsgatan"}}, {"type": "Feature", "id": "way/177560538", "geometry": {"type": "LineString", "coordinates": [[672906.1368390922, 6580690.545185981], [672913.3881041815, 6580688.980625018], [672922.3036816685, 6580687.157551663], [672968.4008560174, 6580677.219792966], [673016.6175413805, 6580667.044894798], [673027.0889154448, 6580664.847104054], [673036.3508918424, 6580662.928608745], [673101.7222451656, 6580648.966765522], [673108.4517328509, 6580647.601738807], [673120.8252060685, 6580644.933599391]]}, "properties": {"@id": "way/177560538", "highway": "residential", "lanes": "2", "lit": "yes", "maxspeed": "30", "name": "Hantverkargatan", "sidewalk": "both", "surface": "asphalt", "wikidata": "Q10517486", "wikipedia": "sv:Hantverkargatan"}}, {"type": "Feature", "id": "way/177560542", "geometry": {"type": "LineString", "coordinates": [[672804.79174622, 6580567.602959076], [672878.6896141685, 6580549.119813845]]}, "properties": {"@id": "way/177560542", "highway": "residential", "maxspeed": "30", "name": "Pontonj\u00e4rgatan", "parking:lane:both": "parallel", "surface": "asphalt"}}, {"type": "Feature", "id": "way/178204660", "geometry": {"type": "LineString", "coordinates": [[672815.0769595946, 6581836.199845077], [672811.1323022716, 6581834.012481466], [672743.2248201995, 6581796.67773818]]}, "properties": {"@id": "way/178204660", "access": "destination", "bicycle": "yes", "cycleway:right": "share_busway", "foot": "no", "highway": "residential", "name": "Sankt Eriksplan", "psv": "yes", "sidewalk": "separate", "surface": "asphalt", "wikidata": "Q7418755", "wikipedia": "sv:Sankt Eriksplan"}}, {"type": "Feature", "id": "way/213548259", "geometry": {"type": "LineString", "coordinates": [[673137.3371192195, 6582177.218822182], [673132.2221235771, 6582185.682881613]]}, "properties": {"@id": "way/213548259", "highway": "residential", "lit": "yes", "maxspeed": "30", "name": "Dalagatan", "sidewalk": "separate", "surface": "asphalt", "wikidata": "Q10466054", "wikipedia": "sv:Dalagatan"}}, {"type": "Feature", "id": "way/213548260", "geometry": {"type": "LineString", "coordinates": [[673210.7134647063, 6582046.31385805], [673206.3727752464, 6582054.032679036]]}, "properties": {"@id": "way/213548260", "check_date": "2019-12-16", "highway": "residential", "lit": "yes", "maxspeed": "50", "name": "Dalagatan", "surface": "asphalt", "wikidata": "Q10466054", "wikipedia": "sv:Dalagatan"}}, {"type": "Feature", "id": "way/220019530", "geometry": {"type": "LineString", "coordinates": [[673759.4197226474, 6581407.73158456], [673739.1437007121, 6581416.279615663], [673730.183986261, 6581420.328964229], [673719.2446445313, 6581424.064446696]]}, "properties": {"@id": "way/220019530", "highway": "residential", "maxspeed": "30", "name": "V\u00e4stmannagatan", "oneway": "yes", "sidewalk": "separate", "surface": "asphalt", "wikidata": "Q15116455", "wikipedia": "sv:V\u00e4stmannagatan"}}, {"type": "Feature", "id": "way/220019531", "geometry": {"type": "LineString", "coordinates": [[673719.2446445313, 6581424.064446696], [673727.5711607836, 6581415.190872823], [673729.8068601899, 6581411.167437079], [673734.0515272021, 6581404.3368254015]]}, "properties": {"@id": "way/220019531", "highway": "residential", "maxspeed": "30", "name": "V\u00e4stmannagatan", "oneway": "yes", "sidewalk": "separate", "surface": "asphalt", "wikidata": "Q15116455", "wikipedia": "sv:V\u00e4stmannagatan"}}, {"type": "Feature", "id": "way/251962203", "geometry": {"type": "LineString", "coordinates": [[673606.4009529862, 6580785.038408951], [673598.5204141581, 6580797.835760189], [673576.6687276855, 6580829.507578576], [673555.428303624, 6580862.768725961], [673541.9240443327, 6580883.894978305], [673539.2283103145, 6580888.008953757]]}, "properties": {"@id": "way/251962203", "highway": "residential", "maxspeed": "30", "name": "Kungsbro strand", "surface": "asphalt"}}, {"type": "Feature", "id": "way/252133179", "geometry": {"type": "LineString", "coordinates": [[674345.1810198145, 6582030.720120946], [674348.9173585926, 6582031.226806992], [674357.9043190811, 6582032.756023798], [674370.1822250744, 6582032.095059637], [674389.5750512355, 6582029.085612514], [674430.2670300097, 6582021.259101109], [674448.203792075, 6582021.4168057805], [674464.9066068513, 6582024.86319741], [674508.76994218, 6582043.390080215], [674524.631398036, 6582050.254955559], [674577.8940188517, 6582086.055169001], [674582.5192456591, 6582087.049163819], [674586.9115926644, 6582086.9172546705], [674600.2474357166, 6582081.8451875625], [674602.8516040334, 6582080.9616926145], [674613.1080288932, 6582077.197302475]]}, "properties": {"@id": "way/252133179", "highway": "residential", "maxspeed": "30", "name": "Runebergsgatan", "oneway": "yes", "surface": "asphalt", "wikidata": "Q10657800", "wikipedia": "sv:Runebergsgatan"}}, {"type": "Feature", "id": "way/252472363", "geometry": {"type": "LineString", "coordinates": [[673136.1912896158, 6580641.621751178], [673147.8722504901, 6580639.1450571045], [673154.0899929297, 6580637.756706203], [673222.3879022773, 6580623.373160079], [673230.7920367934, 6580621.527393317], [673286.949406362, 6580609.711911705]]}, "properties": {"@id": "way/252472363", "highway": "residential", "lanes": "2", "lit": "yes", "maxspeed": "30", "name": "Hantverkargatan", "sidewalk": "both", "surface": "asphalt", "wikidata": "Q10517486", "wikipedia": "sv:Hantverkargatan"}}, {"type": "Feature", "id": "way/252558065", "geometry": {"type": "LineString", "coordinates": [[673636.3079131208, 6581696.9269450465], [673610.6277433535, 6581741.358391628], [673610.0082129054, 6581742.4451196985], [673608.9550118934, 6581744.292557644], [673604.2210729293, 6581753.10809818]]}, "properties": {"@id": "way/252558065", "highway": "residential", "maxspeed": "30", "name": "Upplandsgatan", "sidewalk": "separate", "surface": "asphalt", "wikidata": "Q15116497", "wikipedia": "sv:Upplandsgatan"}}, {"type": "Feature", "id": "way/252558066", "geometry": {"type": "LineString", "coordinates": [[673683.2600795326, 6581614.776103328], [673667.7192176466, 6581641.830161696], [673662.0863353513, 6581651.608029143]]}, "properties": {"@id": "way/252558066", "highway": "residential", "maxspeed": "30", "name": "Upplandsgatan", "sidewalk": "separate", "surface": "asphalt", "wikidata": "Q15116497", "wikipedia": "sv:Upplandsgatan"}}, {"type": "Feature", "id": "way/252592789", "geometry": {"type": "LineString", "coordinates": [[673414.5150114632, 6582364.765731635], [673408.8166346411, 6582374.763910661], [673404.4809316745, 6582382.3712262735], [673389.729462575, 6582408.458696355], [673363.674367538, 6582453.766339468], [673359.3337325042, 6582461.484985208], [673355.4317635034, 6582468.331617691], [673351.1683900543, 6582475.60775315], [673348.6858667226, 6582480.066106879], [673325.5272941492, 6582520.6000324385], [673323.7880363046, 6582523.754275364], [673296.6772107731, 6582572.2478452455], [673293.3896799806, 6582578.119043107], [673291.4646732834, 6582581.599333301], [673268.3699419233, 6582623.251607441], [673265.2682853263, 6582628.796794301], [673263.1575328526, 6582632.603132641], [673258.5127160623, 6582640.753998556]]}, "properties": {"@id": "way/252592789", "check_date": "2019-12-10", "highway": "residential", "lit": "yes", "maxspeed": "30", "name": "Norrtullsgatan", "sidewalk": "separate", "surface": "asphalt", "wikidata": "Q3344057", "wikipedia": "sv:Norrtullsgatan"}}, {"type": "Feature", "id": "way/259732436", "geometry": {"type": "LineString", "coordinates": [[673055.8798449597, 6581293.984113386], [673076.5867835106, 6581289.68971242], [673099.4797143003, 6581284.937816907]]}, "properties": {"@id": "way/259732436", "highway": "residential", "maxspeed": "10", "name": "Grubbenstorget"}}, {"type": "Feature", "id": "way/262392016", "geometry": {"type": "LineString", "coordinates": [[673697.9045416757, 6580800.163867473], [673642.3474551514, 6580899.539643734], [673637.7569420259, 6580907.692687565], [673632.412664202, 6580917.372368742], [673574.4779435267, 6581020.208362405], [673571.4002809272, 6581025.196916509], [673568.2708688872, 6581030.071585528]]}, "properties": {"@id": "way/262392016", "bridge": "yes", "highway": "residential", "layer": "1", "maxspeed": "30", "name": "Blekholmsterrassen", "surface": "asphalt", "wikidata": "Q10431225", "wikipedia": "sv:Blekholmsterrassen"}}, {"type": "Feature", "id": "way/275027893", "geometry": {"type": "LineString", "coordinates": [[673329.9570624114, 6582233.653500041], [673294.0079410475, 6582297.242832311], [673242.4399806954, 6582384.761937553], [673237.9196258755, 6582393.92216658], [673233.8998509988, 6582402.101690319], [673145.6585577362, 6582556.747229214], [673143.6098253578, 6582560.4449526565], [673140.8230494375, 6582565.33555766], [673136.0494892991, 6582573.815211782]]}, "properties": {"@id": "way/275027893", "check_date": "2019-12-10", "highway": "residential", "lit": "yes", "maxspeed": "30", "name": "Upplandsgatan", "sidewalk": "separate", "surface": "asphalt", "wikidata": "Q15116497", "wikipedia": "sv:Upplandsgatan"}}, {"type": "Feature", "id": "way/328128157", "geometry": {"type": "LineString", "coordinates": [[672868.024149495, 6581753.310231075], [672872.8215866426, 6581755.536602896], [672880.1161784409, 6581759.215209337]]}, "properties": {"@id": "way/328128157", "access": "destination", "foot": "yes", "highway": "residential", "name": "Sankt Eriksplan", "oneway": "yes", "sidewalk": "both", "surface": "asphalt"}}, {"type": "Feature", "id": "way/328219656", "geometry": {"type": "LineString", "coordinates": [[672754.0287013986, 6580825.892148644], [672821.9131574786, 6580811.705857903], [672930.7569343988, 6580789.020696086], [672938.1217542978, 6580787.461379785], [672991.9136715392, 6580776.20276983], [673049.4843364108, 6580764.560051476], [673124.5190062801, 6580748.587103166]]}, "properties": {"@id": "way/328219656", "highway": "residential", "maxspeed": "30", "name": "Bergsgatan", "surface": "asphalt", "wikidata": "Q10428499", "wikipedia": "sv:Bergsgatan, Stockholm"}}, {"type": "Feature", "id": "way/328219906", "geometry": {"type": "LineString", "coordinates": [[673407.8311181173, 6580688.957169201], [673442.6884256325, 6580681.855732461], [673458.0802154035, 6580677.988784667], [673462.0160199755, 6580672.927935957], [673474.9168082145, 6580669.950556006], [673529.4406864356, 6580657.729268695]]}, "properties": {"@id": "way/328219906", "highway": "residential", "maxspeed": "30", "name": "Bergsgatan", "surface": "asphalt", "wikidata": "Q10428499", "wikipedia": "sv:Bergsgatan, Stockholm"}}, {"type": "Feature", "id": "way/328220336", "geometry": {"type": "LineString", "coordinates": [[673496.5097834925, 6580564.332367136], [673514.9779742361, 6580560.495073501]]}, "properties": {"@id": "way/328220336", "highway": "residential", "lit": "yes", "maxspeed": "30", "name": "Hantverkargatan", "oneway": "no", "sidewalk": "both", "surface": "asphalt", "wikidata": "Q10517486", "wikipedia": "sv:Hantverkargatan"}}, {"type": "Feature", "id": "way/328378894", "geometry": {"type": "LineString", "coordinates": [[673849.1141999724, 6581931.9567041835], [673807.3861832821, 6582004.532131732]]}, "properties": {"@id": "way/328378894", "highway": "residential", "lit": "yes", "maxspeed": "30", "name": "Holl\u00e4ndargatan", "oneway": "yes", "sidewalk": "separate", "surface": "asphalt", "wikidata": "Q10525252", "wikipedia": "sv:Holl\u00e4ndargatan"}}, {"type": "Feature", "id": "way/328656907", "geometry": {"type": "LineString", "coordinates": [[673877.9833289138, 6582426.849732625], [673881.3906898226, 6582420.872970299]]}, "properties": {"@id": "way/328656907", "highway": "residential", "maxspeed": "30", "name": "D\u00f6belnsgatan", "sidewalk": "separate", "surface": "asphalt", "wikidata": "Q10478625", "wikipedia": "sv:D\u00f6belnsgatan"}}, {"type": "Feature", "id": "way/328656918", "geometry": {"type": "LineString", "coordinates": [[673889.2012112944, 6582405.842785848], [673936.3025713179, 6582325.374740551], [673991.1863002888, 6582230.544952052], [673996.5624080126, 6582223.878189244]]}, "properties": {"@id": "way/328656918", "highway": "residential", "maxspeed": "30", "name": "D\u00f6belnsgatan", "oneway": "yes", "surface": "asphalt", "wikidata": "Q10478625", "wikipedia": "sv:D\u00f6belnsgatan"}}, {"type": "Feature", "id": "way/328657994", "geometry": {"type": "LineString", "coordinates": [[674291.0401403398, 6581668.810212897], [674305.9594235679, 6581666.486351501]]}, "properties": {"@id": "way/328657994", "highway": "residential", "maxspeed": "30", "name": "Johannes Plan", "surface": "asphalt"}}, {"type": "Feature", "id": "way/340405797", "geometry": {"type": "LineString", "coordinates": [[674040.8857667259, 6581600.648915544], [674077.805985034, 6581621.638995821], [674116.3335011613, 6581643.595527779], [674124.1599264608, 6581648.081660161]]}, "properties": {"@id": "way/340405797", "highway": "residential", "maxspeed": "30", "name": "Adolf Fredriks Kyrkogata", "oneway": "yes", "surface": "asphalt"}}, {"type": "Feature", "id": "way/377337316", "geometry": {"type": "LineString", "coordinates": [[673344.6883940173, 6580596.96602437], [673429.4554479341, 6580578.879588515], [673481.8253832716, 6580567.674029795]]}, "properties": {"@id": "way/377337316", "highway": "residential", "lit": "yes", "maxspeed": "30", "name": "Hantverkargatan", "sidewalk": "both", "surface": "asphalt", "wikidata": "Q10517486", "wikipedia": "sv:Hantverkargatan"}}, {"type": "Feature", "id": "way/377337317", "geometry": {"type": "LineString", "coordinates": [[673481.8253832716, 6580567.674029795], [673496.5097834925, 6580564.332367136]]}, "properties": {"@id": "way/377337317", "highway": "residential", "lit": "yes", "maxspeed": "30", "name": "Hantverkargatan", "oneway": "no", "sidewalk": "both", "surface": "asphalt", "wikidata": "Q10517486", "wikipedia": "sv:Hantverkargatan"}}, {"type": "Feature", "id": "way/382769102", "geometry": {"type": "LineString", "coordinates": [[673683.2600795326, 6581614.776103328], [673690.683964696, 6581619.354349316], [673801.7277864314, 6581683.666391983], [673805.0320662005, 6581687.386612534], [673804.8378760904, 6581691.615266831], [673803.5737728338, 6581695.571758146], [673793.4897680862, 6581712.951097718], [673787.0352051952, 6581723.248638505]]}, "properties": {"@id": "way/382769102", "highway": "residential", "maxspeed": "30", "name": "Tegn\u00e9rlunden", "oneway": "yes", "sidewalk": "separate", "surface": "asphalt"}}, {"type": "Feature", "id": "way/382769103", "geometry": {"type": "LineString", "coordinates": [[673662.0863353513, 6581651.608029143], [673658.0643232114, 6581658.560430641], [673636.3079131208, 6581696.9269450465]]}, "properties": {"@id": "way/382769103", "highway": "residential", "maxspeed": "30", "name": "Upplandsgatan", "sidewalk": "separate", "surface": "asphalt", "wikidata": "Q15116497", "wikipedia": "sv:Upplandsgatan"}}, {"type": "Feature", "id": "way/403119116", "geometry": {"type": "LineString", "coordinates": [[674124.1599264608, 6581648.081660161], [674133.3660899422, 6581652.296742463]]}, "properties": {"@id": "way/403119116", "check_date": "2019-12-19", "highway": "residential", "lit": "yes", "maxspeed": "30", "name": "Adolf Fredriks Kyrkogata", "surface": "asphalt"}}, {"type": "Feature", "id": "way/430633401", "geometry": {"type": "LineString", "coordinates": [[673491.5367251746, 6580976.261212573], [673494.0113037879, 6580965.780758306], [673513.7233874124, 6580928.546278057]]}, "properties": {"@id": "way/430633401", "highway": "residential", "maxspeed": "30", "name": "Kungsbroplan", "surface": "asphalt"}}, {"type": "Feature", "id": "way/437167331", "geometry": {"type": "LineString", "coordinates": [[673529.4406864356, 6580657.729268695], [673525.7921464033, 6580667.709849036], [673529.5664949464, 6580702.229245226]]}, "properties": {"@id": "way/437167331", "highway": "residential", "maxspeed": "30", "name": "Kaplansbacken", "surface": "asphalt"}}, {"type": "Feature", "id": "way/444128350", "geometry": {"type": "LineString", "coordinates": [[674371.0910711938, 6581413.891729553], [674373.9906370668, 6581400.420351658]]}, "properties": {"@id": "way/444128350", "cycleway": "opposite", "highway": "residential", "maxspeed": "30", "name": "Malmskillnadsgatan", "oneway": "yes"}}, {"type": "Feature", "id": "way/444128351", "geometry": {"type": "LineString", "coordinates": [[674293.5212846571, 6581512.244607114], [674237.7578554559, 6581479.7909611], [674229.6105557386, 6581474.843776112], [674220.4552540507, 6581469.5156656895]]}, "properties": {"@id": "way/444128351", "highway": "residential", "lit": "yes", "maxspeed": "30", "name": "Apelbergsgatan", "oneway": "yes", "surface": "asphalt", "wikidata": "Q15802429", "wikipedia": "sv:Apelbergsgatan"}}, {"type": "Feature", "id": "way/444135638", "geometry": {"type": "LineString", "coordinates": [[672918.5285407961, 6581635.405914666], [672927.2653608164, 6581646.175838705], [672930.5034667958, 6581650.115246518], [672933.7974967662, 6581652.830564699], [672938.6791409377, 6581656.956590434]]}, "properties": {"@id": "way/444135638", "highway": "residential", "lit": "yes", "maxspeed": "30", "name": "Lokstallsgatan", "sidewalk": "separate", "surface": "asphalt"}}, {"type": "Feature", "id": "way/444137467", "geometry": {"type": "LineString", "coordinates": [[674042.5106380491, 6582143.804253054], [674051.7212788484, 6582149.134572798], [674120.4331100776, 6582188.426709687], [674128.5942697071, 6582193.039844629], [674136.807130753, 6582197.766893382], [674195.8574162151, 6582231.597689789], [674201.3514974536, 6582234.750025018], [674204.1786734153, 6582236.441400923]]}, "properties": {"@id": "way/444137467", "highway": "residential", "maxspeed": "30", "name": "Kungstensgatan", "oneway": "no", "surface": "asphalt", "wikidata": "Q15120837", "wikipedia": "sv:Kungstensgatan"}}, {"type": "Feature", "id": "way/444137468", "geometry": {"type": "LineString", "coordinates": [[673877.5041108311, 6582289.775353723], [673936.3025713179, 6582325.374740551], [674027.1483822811, 6582377.503508743]]}, "properties": {"@id": "way/444137468", "highway": "residential", "maxspeed": "30", "name": "Markvardsgatan", "oneway": "yes", "surface": "asphalt"}}, {"type": "Feature", "id": "way/444137469", "geometry": {"type": "LineString", "coordinates": [[673923.1023518955, 6581798.303987879], [673919.3846644206, 6581804.824058998], [673869.3777984086, 6581892.630634097], [673867.1421740826, 6581896.653986866]]}, "properties": {"@id": "way/444137469", "cycleway": "opposite", "highway": "residential", "maxspeed": "30", "name": "Holl\u00e4ndargatan", "oneway": "yes", "surface": "asphalt", "wikidata": "Q10525252", "wikipedia": "sv:Holl\u00e4ndargatan"}}, {"type": "Feature", "id": "way/444137470", "geometry": {"type": "LineString", "coordinates": [[673867.1421740826, 6581896.653986866], [673865.9412265926, 6581902.955179955], [673849.1141999724, 6581931.9567041835]]}, "properties": {"@id": "way/444137470", "highway": "residential", "maxspeed": "30", "name": "Holl\u00e4ndargatan", "oneway": "yes", "sidewalk": "separate", "surface": "asphalt", "wikidata": "Q10525252", "wikipedia": "sv:Holl\u00e4ndargatan"}}, {"type": "Feature", "id": "way/467760755", "geometry": {"type": "LineString", "coordinates": [[673700.5204156413, 6580791.585740966], [673697.9045416757, 6580800.163867473]]}, "properties": {"@id": "way/467760755", "bridge": "yes", "highway": "residential", "layer": "1", "lit": "yes", "maxspeed": "30", "name": "Blekholmsterrassen", "surface": "asphalt", "wikidata": "Q10431225", "wikipedia": "sv:Blekholmsterrassen"}}, {"type": "Feature", "id": "way/543587650", "geometry": {"type": "LineString", "coordinates": [[673851.3989315977, 6581758.209505399], [673916.7751349567, 6581794.667764788], [673923.1023518955, 6581798.303987879], [673958.9353157033, 6581818.127880912], [673963.5934234067, 6581822.133517359], [673968.7483787836, 6581827.723214552], [674007.077550217, 6581849.00052788], [674013.5495511463, 6581853.201147379], [674022.3732831016, 6581858.290525263]]}, "properties": {"@id": "way/543587650", "highway": "residential", "maxspeed": "30", "name": "Tegn\u00e9rgatan", "surface": "asphalt", "wikidata": "Q10691873", "wikipedia": "sv:Tegn\u00e9rgatan"}}, {"type": "Feature", "id": "way/579265734", "geometry": {"type": "LineString", "coordinates": [[673572.8878214702, 6582241.220506069], [673575.6389425644, 6582235.882477975], [673607.4218359034, 6582178.795240729], [673609.3656802812, 6582171.189899434]]}, "properties": {"@id": "way/579265734", "highway": "residential", "lit": "yes", "maxspeed": "30", "name": "Gyld\u00e9ngatan", "sidewalk": "separate", "surface": "asphalt"}}, {"type": "Feature", "id": "way/579265736", "geometry": {"type": "LineString", "coordinates": [[673570.1162898435, 6582247.003658548], [673572.8878214702, 6582241.220506069]]}, "properties": {"@id": "way/579265736", "check_date": "2019-12-06", "highway": "residential", "lit": "yes", "maxspeed": "30", "name": "Gyld\u00e9ngatan", "surface": "asphalt"}}, {"type": "Feature", "id": "way/599791021", "geometry": {"type": "LineString", "coordinates": [[674388.2194004576, 6581317.884906316], [674386.3515925527, 6581312.6691192165], [674388.5862153855, 6581303.739270549], [674394.0350441078, 6581293.061732184]]}, "properties": {"@id": "way/599791021", "highway": "residential", "maxspeed": "30", "name": "Malmskillnadsgatan", "oneway": "yes", "surface": "asphalt", "wikidata": "Q4570166", "wikipedia": "sv:Malmskillnadsgatan"}}, {"type": "Feature", "id": "way/599791022", "geometry": {"type": "LineString", "coordinates": [[674394.0350441078, 6581293.061732184], [674393.6192423208, 6581314.453653697], [674393.4235026828, 6581316.228892187], [674392.1060445174, 6581317.617903283], [674389.930175811, 6581317.852206716], [674388.2194004576, 6581317.884906316]]}, "properties": {"@id": "way/599791022", "highway": "residential", "maxspeed": "30", "name": "Malmskillnadsgatan", "oneway": "yes", "surface": "asphalt", "wikidata": "Q4570166", "wikipedia": "sv:Malmskillnadsgatan"}}, {"type": "Feature", "id": "way/671117334", "geometry": {"type": "LineString", "coordinates": [[673414.5150114632, 6582364.765731635], [673419.9962597461, 6582354.534579127], [673421.4828045138, 6582351.9263619045], [673457.3302365986, 6582288.110438807], [673461.299588255, 6582281.043950673]]}, "properties": {"@id": "way/671117334", "check_date": "2019-12-09", "highway": "residential", "lit": "yes", "maxspeed": "30", "name": "Norrtullsgatan", "oneway": "yes", "sidewalk": "separate", "surface": "asphalt", "wikidata": "Q3344057", "wikipedia": "sv:Norrtullsgatan"}}, {"type": "Feature", "id": "way/683693850", "geometry": {"type": "LineString", "coordinates": [[673230.164679185, 6581597.691118412], [673177.7928681241, 6581690.192800062], [673170.7265317639, 6581702.693572389]]}, "properties": {"@id": "way/683693850", "highway": "residential", "maxspeed": "30", "name": "H\u00e4lsobrunnsgatan", "sidewalk": "separate", "surface": "asphalt"}}, {"type": "Feature", "id": "way/695998358", "geometry": {"type": "LineString", "coordinates": [[673867.1421740826, 6581896.653986866], [673798.4798891724, 6581858.595888905]]}, "properties": {"@id": "way/695998358", "check_date": "2020-02-13", "cycleway": "opposite", "highway": "residential", "maxspeed": "30", "name": "R\u00e5dmansgatan", "oneway": "yes", "sidewalk": "separate", "surface": "asphalt", "wikidata": "Q10658680", "wikipedia": "sv:R\u00e5dmansgatan, Stockholm"}}, {"type": "Feature", "id": "way/754355049", "geometry": {"type": "LineString", "coordinates": [[673245.0527703066, 6580723.322908241], [673368.8856549346, 6580696.986855014]]}, "properties": {"@id": "way/754355049", "highway": "residential", "lit": "yes", "maxspeed": "30", "name": "Bergsgatan", "surface": "asphalt", "wikidata": "Q10428499", "wikipedia": "sv:Bergsgatan, Stockholm"}}, {"type": "Feature", "id": "way/754355050", "geometry": {"type": "LineString", "coordinates": [[673368.8856549346, 6580696.986855014], [673407.8311181173, 6580688.957169201]]}, "properties": {"@id": "way/754355050", "highway": "residential", "lit": "yes", "maxspeed": "30", "name": "Bergsgatan", "surface": "asphalt", "wikidata": "Q10428499", "wikipedia": "sv:Bergsgatan, Stockholm"}}, {"type": "Feature", "id": "way/754828779", "geometry": {"type": "LineString", "coordinates": [[672796.5595675118, 6581596.716009151], [672870.3206554558, 6581587.037204033], [672884.0197615324, 6581585.209627207]]}, "properties": {"@id": "way/754828779", "cycleway": "opposite", "highway": "residential", "lit": "yes", "maxspeed": "30", "name": "Atlasmuren", "oneway": "yes", "sidewalk": "separate", "surface": "asphalt"}}, {"type": "Feature", "id": "way/756927421", "geometry": {"type": "LineString", "coordinates": [[673544.227067557, 6581472.462338021], [673560.6005206133, 6581481.9112324]]}, "properties": {"@id": "way/756927421", "highway": "residential", "lit": "yes", "maxspeed": "30", "name": "Kammakargatan", "sidewalk": "separate", "source": "survey", "surface": "asphalt", "wikidata": "Q10543155", "wikipedia": "sv:Kammakargatan"}}, {"type": "Feature", "id": "way/756927422", "geometry": {"type": "LineString", "coordinates": [[673530.5678853616, 6581464.699160691], [673544.227067557, 6581472.462338021]]}, "properties": {"@id": "way/756927422", "highway": "residential", "lit": "yes", "maxspeed": "30", "name": "Kammakargatan", "sidewalk": "separate", "source": "survey", "surface": "asphalt", "tunnel": "yes", "wikidata": "Q10543155", "wikipedia": "sv:Kammakargatan"}}, {"type": "Feature", "id": "way/756933040", "geometry": {"type": "LineString", "coordinates": [[673176.0130698031, 6581831.176481327], [673170.3470702169, 6581828.017854743], [673144.8032935816, 6581813.578979317], [673111.2616332102, 6581794.648436925]]}, "properties": {"@id": "way/756933040", "highway": "residential", "maxspeed": "30", "name": "Eastmansv\u00e4gen", "sidewalk": "separate", "surface": "asphalt", "wikidata": "Q60971004", "wikipedia": "sv:Eastmansv\u00e4gen"}}, {"type": "Feature", "id": "way/756933041", "geometry": {"type": "LineString", "coordinates": [[673230.2007719019, 6581736.304677043], [673283.5065324042, 6581766.511949779], [673299.6671141317, 6581775.6154742185], [673332.3706942042, 6581794.174801389], [673339.2566917327, 6581798.058637307], [673348.0864619378, 6581803.035146199]]}, "properties": {"@id": "way/756933041", "highway": "residential", "lit": "yes", "maxspeed": "30", "name": "Olivecronas V\u00e4g", "sidewalk": "separate", "surface": "asphalt"}}, {"type": "Feature", "id": "way/776187800", "geometry": {"type": "LineString", "coordinates": [[673442.8109063638, 6580873.2196721025], [673454.0263417403, 6580870.945651026], [673463.4586915853, 6580869.0360198915], [673470.1566010944, 6580867.11263125], [673475.7063176746, 6580864.133013013]]}, "properties": {"@id": "way/776187800", "cycleway": "lane", "highway": "residential", "maxspeed": "30", "name": "Kungsholmsgatan", "surface": "asphalt", "wikidata": "Q10550321", "wikipedia": "sv:Kungsholmsgatan"}}, {"type": "Feature", "id": "way/778509287", "geometry": {"type": "LineString", "coordinates": [[672764.5652625514, 6582322.433233508], [672790.333114173, 6582335.653273574]]}, "properties": {"@id": "way/778509287", "highway": "residential", "maxspeed": "30", "name": "R\u00f6dabergsbrinken", "oneway": "yes", "sidewalk": "separate", "surface": "asphalt"}}, {"type": "Feature", "id": "way/779850071", "geometry": {"type": "LineString", "coordinates": [[673475.7063176746, 6580864.133013013], [673481.797623531, 6580859.28247731], [673506.5373466557, 6580826.738898124], [673529.577451637, 6580795.232697039], [673543.2175362784, 6580776.119874032], [673544.7411276678, 6580773.9594260445], [673551.9975260288, 6580763.586677279], [673559.062966685, 6580753.6512437705]]}, "properties": {"@id": "way/779850071", "cycleway:left": "lane", "cycleway:right": "track", "highway": "residential", "maxspeed": "30", "name": "Kungsholmsgatan", "surface": "asphalt", "wikidata": "Q10550321", "wikipedia": "sv:Kungsholmsgatan"}}, {"type": "Feature", "id": "way/780535746", "geometry": {"type": "LineString", "coordinates": [[672803.659912906, 6582101.191696668], [672821.8541377701, 6582094.439665785], [672823.8043093544, 6582090.402734825]]}, "properties": {"@id": "way/780535746", "fixme": "I don't think cars are allowed here. re-survey", "foot": "yes", "highway": "residential", "lit": "yes", "maxspeed": "30", "name": "G\u00e4strikegatan", "oneway": "yes", "surface": "asphalt"}}, {"type": "Feature", "id": "way/780535747", "geometry": {"type": "LineString", "coordinates": [[672823.8043093544, 6582090.402734825], [672827.5554014829, 6582083.102652458]]}, "properties": {"@id": "way/780535747", "fixme": "I don't think cars are allowed here. re-survey", "highway": "residential", "lit": "yes", "maxspeed": "30", "name": "G\u00e4strikegatan", "oneway": "yes", "sidewalk": "separate", "surface": "asphalt"}}]}}