{"type": "FeatureCollection", "features": [{"type": "Feature", "id": "way/4231068", "geometry": {"type": "LineString", "coordinates": [[18.043179, 59.329002], [18.043218, 59.329075], [18.043259, 59.329148], [18.043672, 59.329884], [18.043943, 59.330418], [18.044145, 59.330834], [18.044184, 59.330904], [18.04447, 59.331446], [18.04459, 59.331525]]}, "properties": {"@id": "way/4231068", "highway": "tertiary", "lanes": "2", "maxspeed": "40", "name": "Scheelegatan", "surface": "asphalt", "wikidata": "Q10663209", "wikipedia": "sv:Scheelegatan, Stockholm"}}, {"type": "Feature", "id": "way/4352649", "geometry": {"type": "LineString", "coordinates": [[18.042207, 59.326763], [18.042256, 59.326848], [18.043058, 59.328255], [18.043089, 59.328309]]}, "properties": {"@id": "way/4352649", "highway": "tertiary", "maxspeed": "40", "name": "Kungsholmstorg", "oneway": "yes", "parking:lane:both": "parallel", "surface": "asphalt"}}, {"type": "Feature", "id": "way/4352651", "geometry": {"type": "LineString", "coordinates": [[18.043057, 59.329018], [18.042946, 59.328916], [18.042784, 59.328767], [18.042595, 59.328454], [18.042548, 59.328376], [18.042524, 59.328334], [18.041699, 59.32686], [18.041646, 59.326767], [18.041628, 59.32672]]}, "properties": {"@id": "way/4352651", "highway": "tertiary", "maxspeed": "40", "name": "Kungsholmstorg", "oneway": "yes", "surface": "asphalt"}}, {"type": "Feature", "id": "way/4490202", "geometry": {"type": "LineString", "coordinates": [[18.065896, 59.332475], [18.066185, 59.33249], [18.067853, 59.332562], [18.068081, 59.332572]]}, "properties": {"@id": "way/4490202", "cycleway:right": "lane", "foot": "no", "highway": "tertiary", "maxspeed": "30", "name": "Hamngatan", "oneway": "yes", "source": "survey", "surface": "asphalt", "wikidata": "Q839619", "wikipedia": "sv:Hamngatan, Stockholm"}}, {"type": "Feature", "id": "way/4490263", "geometry": {"type": "LineString", "coordinates": [[18.063354, 59.342844], [18.063437, 59.342757], [18.064142, 59.342035], [18.06421, 59.341965]]}, "properties": {"@id": "way/4490263", "foot": "no", "highway": "tertiary", "maxspeed": "50", "name": "Birger Jarlsgatan", "oneway": "yes", "surface": "asphalt", "wikidata": "Q2523030", "wikipedia": "sv:Birger Jarlsgatan"}}, {"type": "Feature", "id": "way/4491308", "geometry": {"type": "LineString", "coordinates": [[18.055669, 59.334805], [18.055829, 59.334844]]}, "properties": {"@id": "way/4491308", "highway": "tertiary", "maxspeed": "50", "name": "Olof Palmes Gata", "sidewalk": "separate", "surface": "asphalt", "wikidata": "Q10609262", "wikipedia": "sv:Olof Palmes gata, Stockholm"}}, {"type": "Feature", "id": "way/4647958", "geometry": {"type": "LineString", "coordinates": [[18.057278, 59.328283], [18.055861, 59.328151]]}, "properties": {"@id": "way/4647958", "bridge": "yes", "foot": "no", "highway": "tertiary", "layer": "1", "maxspeed": "40", "name": "Stadshusbron", "oneway": "yes", "surface": "asphalt"}}, {"type": "Feature", "id": "way/4706304", "geometry": {"type": "LineString", "coordinates": [[18.063481, 59.335515], [18.063681, 59.33556]]}, "properties": {"@id": "way/4706304", "check_date": "2019-12-19", "highway": "tertiary", "maxspeed": "50", "name": "Kungsgatan", "surface": "asphalt", "wikidata": "Q836909", "wikipedia": "sv:Kungsgatan, Stockholm"}}, {"type": "Feature", "id": "way/5173752", "geometry": {"type": "LineString", "coordinates": [[18.057613, 59.328249], [18.05786, 59.328275], [18.057939, 59.328287], [18.058025, 59.328309]]}, "properties": {"@id": "way/5173752", "foot": "no", "highway": "tertiary", "maxspeed": "50", "name": "Klarastrandsleden", "oneway": "yes", "surface": "asphalt"}}, {"type": "Feature", "id": "way/8048436", "geometry": {"type": "LineString", "coordinates": [[18.063806, 59.328518], [18.063811, 59.328579], [18.063779, 59.328655], [18.063595, 59.328831], [18.063544, 59.328879], [18.063492, 59.32894]]}, "properties": {"@id": "way/8048436", "foot": "no", "highway": "tertiary", "lanes": "2", "maxspeed": "50", "name": "R\u00f6dbodtorget", "oneway": "yes", "surface": "asphalt", "wikidata": "Q10658887", "wikipedia": "sv:R\u00f6dbodtorget"}}, {"type": "Feature", "id": "way/20151422", "geometry": {"type": "LineString", "coordinates": [[18.064327, 59.334505], [18.064523, 59.334187], [18.064728, 59.333845]]}, "properties": {"@id": "way/20151422", "cycleway:right": "lane", "foot": "no", "highway": "tertiary", "maxspeed": "50", "name": "Sveav\u00e4gen", "oneway": "yes", "sidewalk": "separate", "surface": "asphalt", "wikidata": "Q1788276", "wikipedia": "sv:Sveav\u00e4gen"}}, {"type": "Feature", "id": "way/22822091", "geometry": {"type": "LineString", "coordinates": [[18.055861, 59.328151], [18.054839, 59.328063], [18.054744, 59.328055], [18.054475, 59.328031], [18.054019, 59.327991], [18.053687, 59.327967], [18.053323, 59.327957]]}, "properties": {"@id": "way/22822091", "foot": "no", "highway": "tertiary", "maxspeed": "40", "name": "Hantverkargatan", "oneway": "yes", "surface": "asphalt", "wikidata": "Q10517486", "wikipedia": "sv:Hantverkargatan"}}, {"type": "Feature", "id": "way/22884861", "geometry": {"type": "LineString", "coordinates": [[18.04616, 59.334377], [18.046195, 59.334427], [18.046516, 59.334959], [18.046694, 59.335224], [18.046899, 59.335482], [18.047125, 59.335742], [18.047379, 59.335995], [18.047525, 59.336113], [18.047699, 59.336227], [18.04789, 59.336333], [18.04809, 59.336429]]}, "properties": {"@id": "way/22884861", "bridge": "yes", "cycleway": "track", "highway": "tertiary", "layer": "1", "lit": "yes", "material": "concrete", "maxspeed": "40", "name": "Barnhusbron", "sidewalk": "both", "start_date": "1969", "surface": "asphalt", "wikidata": "Q3373233", "wikipedia": "sv:Barnhusbron"}}, {"type": "Feature", "id": "way/22884865", "geometry": {"type": "LineString", "coordinates": [[18.04809, 59.336429], [18.048192, 59.336472], [18.048333, 59.336517], [18.048717, 59.336637], [18.050091, 59.336971], [18.050265, 59.337013]]}, "properties": {"@id": "way/22884865", "cycleway:left": "track", "cycleway:right": "lane", "highway": "tertiary", "maxspeed": "50", "name": "Tegn\u00e9rgatan", "sidewalk": "separate", "surface": "asphalt"}}, {"type": "Feature", "id": "way/23088918", "geometry": {"type": "LineString", "coordinates": [[18.063034, 59.328265], [18.063104, 59.328267], [18.063175, 59.328275], [18.063728, 59.328385]]}, "properties": {"@id": "way/23088918", "foot": "no", "highway": "tertiary", "maxspeed": "50", "name": "Fredsgatan", "oneway": "yes", "surface": "asphalt", "wikidata": "Q10498797", "wikipedia": "sv:Fredsgatan, Stockholm"}}, {"type": "Feature", "id": "way/23088942", "geometry": {"type": "LineString", "coordinates": [[18.061226, 59.328522], [18.061054, 59.328471], [18.060905, 59.328428], [18.060703, 59.328374], [18.060499, 59.328331]]}, "properties": {"@id": "way/23088942", "foot": "no", "highway": "tertiary", "maxspeed": "50", "name": "Tegelbacken", "oneway": "yes", "surface": "asphalt", "wikidata": "Q10691825", "wikipedia": "sv:Tegelbacken"}}, {"type": "Feature", "id": "way/23088947", "geometry": {"type": "LineString", "coordinates": [[18.061226, 59.328522], [18.061508, 59.32844]]}, "properties": {"@id": "way/23088947", "foot": "no", "highway": "tertiary", "maxspeed": "50", "name": "Tegelbacken", "oneway": "yes", "surface": "asphalt", "wikidata": "Q10691825", "wikipedia": "sv:Tegelbacken"}}, {"type": "Feature", "id": "way/23089329", "geometry": {"type": "LineString", "coordinates": [[18.063492, 59.32894], [18.063415, 59.32904], [18.063317, 59.329182], [18.063246, 59.329294], [18.06286, 59.329706], [18.062826, 59.329742]]}, "properties": {"@id": "way/23089329", "foot": "no", "highway": "tertiary", "maxspeed": "30", "name": "R\u00f6dbodgatan", "oneway": "yes", "surface": "asphalt"}}, {"type": "Feature", "id": "way/24225426", "geometry": {"type": "LineString", "coordinates": [[18.065514, 59.340786], [18.065795, 59.340662], [18.066274, 59.34047]]}, "properties": {"@id": "way/24225426", "cycleway:right": "track", "foot": "no", "highway": "tertiary", "maxspeed": "50", "name": "Birger Jarlsgatan", "oneway": "yes", "source": "survey", "surface": "asphalt", "wikidata": "Q2523030", "wikipedia": "sv:Birger Jarlsgatan"}}, {"type": "Feature", "id": "way/27344331", "geometry": {"type": "LineString", "coordinates": [[18.063492, 59.32894], [18.06309, 59.328895]]}, "properties": {"@id": "way/27344331", "foot": "no", "highway": "tertiary", "maxspeed": "50", "name": "Tegelbacken", "oneway": "yes", "surface": "asphalt"}}, {"type": "Feature", "id": "way/28345891", "geometry": {"type": "LineString", "coordinates": [[18.062979, 59.328139], [18.064324, 59.327305], [18.065286, 59.326703]]}, "properties": {"@id": "way/28345891", "bridge": "yes", "foot": "no", "highway": "tertiary", "lanes": "1", "layer": "1", "maxspeed": "50", "maxweight": "12", "name": "Vasabron", "oneway": "yes", "surface": "asphalt", "wikidata": "Q7916304", "wikipedia": "sv:Vasabron, Stockholm"}}, {"type": "Feature", "id": "way/28495618", "geometry": {"type": "LineString", "coordinates": [[18.04459, 59.331525], [18.045236, 59.33268], [18.045255, 59.332784]]}, "properties": {"@id": "way/28495618", "highway": "tertiary", "maxspeed": "40", "name": "Scheelegatan", "surface": "asphalt", "wikidata": "Q10663209", "wikipedia": "sv:Scheelegatan, Stockholm"}}, {"type": "Feature", "id": "way/31585900", "geometry": {"type": "LineString", "coordinates": [[18.058044, 59.328336], [18.058059, 59.328368], [18.058056, 59.328407], [18.058024, 59.328528], [18.057704, 59.328707], [18.057641, 59.328743], [18.057434, 59.328815], [18.056945, 59.328967]]}, "properties": {"@id": "way/31585900", "foot": "no", "highway": "tertiary", "maxspeed": "50", "name": "Blekholmsgatan", "oneway": "yes", "surface": "asphalt"}}, {"type": "Feature", "id": "way/35205843", "geometry": {"type": "LineString", "coordinates": [[18.059857, 59.339528], [18.060001, 59.339566], [18.061099, 59.339857], [18.061218, 59.339889], [18.062238, 59.340165], [18.062377, 59.340203], [18.062505, 59.340236], [18.063812, 59.340571], [18.063949, 59.340607], [18.064979, 59.340879], [18.065081, 59.340906], [18.065253, 59.340938]]}, "properties": {"@id": "way/35205843", "highway": "tertiary", "maxspeed": "30", "name": "Tegn\u00e9rgatan", "oneway": "yes", "surface": "asphalt", "wikidata": "Q10691873", "wikipedia": "sv:Tegn\u00e9rgatan"}}, {"type": "Feature", "id": "way/35263420", "geometry": {"type": "LineString", "coordinates": [[18.05404, 59.329717], [18.054762, 59.329379], [18.055019, 59.329268], [18.057175, 59.328652], [18.05729, 59.328605], [18.057452, 59.328534], [18.057607, 59.328477], [18.057738, 59.328424], [18.057815, 59.32839], [18.057936, 59.328343]]}, "properties": {"@id": "way/35263420", "bicycle": "no", "foot": "no", "highway": "tertiary", "lanes": "1", "maxspeed": "50", "name": "Klarastrandsleden", "oneway": "yes", "surface": "asphalt"}}, {"type": "Feature", "id": "way/35263421", "geometry": {"type": "LineString", "coordinates": [[18.058025, 59.328309], [18.058044, 59.328336]]}, "properties": {"@id": "way/35263421", "highway": "tertiary", "maxspeed": "50", "name": "Klarastrandsleden", "oneway": "yes", "surface": "asphalt"}}, {"type": "Feature", "id": "way/35263422", "geometry": {"type": "LineString", "coordinates": [[18.057452, 59.328534], [18.057581, 59.328542], [18.057641, 59.328548], [18.057682, 59.328559], [18.057724, 59.328586], [18.057734, 59.328622], [18.057731, 59.328665], [18.057704, 59.328707]]}, "properties": {"@id": "way/35263422", "foot": "no", "highway": "tertiary_link", "maxspeed": "50", "oneway": "yes", "surface": "asphalt"}}, {"type": "Feature", "id": "way/35263424", "geometry": {"type": "LineString", "coordinates": [[18.057936, 59.328343], [18.058025, 59.328309]]}, "properties": {"@id": "way/35263424", "foot": "no", "highway": "tertiary", "maxspeed": "50", "name": "Klarastrandsleden", "oneway": "yes", "surface": "asphalt"}}, {"type": "Feature", "id": "way/35551366", "geometry": {"type": "LineString", "coordinates": [[18.060056, 59.328155], [18.060564, 59.328217]]}, "properties": {"@id": "way/35551366", "foot": "no", "highway": "tertiary", "maxheight": "4.4", "maxspeed": "50", "name": "Tegelbacken", "oneway": "yes", "surface": "asphalt"}}, {"type": "Feature", "id": "way/35551367", "geometry": {"type": "LineString", "coordinates": [[18.059973, 59.328251], [18.059139, 59.328171]]}, "properties": {"@id": "way/35551367", "foot": "no", "highway": "tertiary", "maxheight": "4.4", "maxspeed": "50", "name": "Klarastrandsleden", "oneway": "yes", "surface": "asphalt"}}, {"type": "Feature", "id": "way/35551368", "geometry": {"type": "LineString", "coordinates": [[18.057324, 59.328239], [18.057491, 59.328249], [18.057613, 59.328249], [18.057782, 59.328241], [18.057934, 59.328223], [18.05803, 59.328207], [18.058094, 59.328195], [18.058298, 59.328159], [18.058607, 59.328121]]}, "properties": {"@id": "way/35551368", "foot": "no", "highway": "tertiary", "maxspeed": "50", "name": "Klarastrandsleden", "oneway": "yes", "surface": "asphalt"}}, {"type": "Feature", "id": "way/35551369", "geometry": {"type": "LineString", "coordinates": [[18.058044, 59.328336], [18.05801, 59.32834], [18.057977, 59.328343], [18.057936, 59.328343]]}, "properties": {"@id": "way/35551369", "foot": "no", "highway": "tertiary", "maxspeed": "50", "name": "Klarastrandsleden", "oneway": "yes", "surface": "asphalt"}}, {"type": "Feature", "id": "way/37988913", "geometry": {"type": "LineString", "coordinates": [[18.063681, 59.33556], [18.06393, 59.335624], [18.064091, 59.335666], [18.064468, 59.335752], [18.06483, 59.335809], [18.065284, 59.335856], [18.065737, 59.335882], [18.066665, 59.335925], [18.068533, 59.336012], [18.070789, 59.336117], [18.070985, 59.336127]]}, "properties": {"@id": "way/37988913", "cycleway": "none", "highway": "tertiary", "lit": "yes", "maxspeed": "50", "name": "Kungsgatan", "sidewalk": "both", "surface": "asphalt", "wikidata": "Q836909", "wikipedia": "sv:Kungsgatan, Stockholm"}}, {"type": "Feature", "id": "way/40859308", "geometry": {"type": "LineString", "coordinates": [[18.060564, 59.328217], [18.061189, 59.328305], [18.0614, 59.328327], [18.061899, 59.328358]]}, "properties": {"@id": "way/40859308", "foot": "no", "highway": "tertiary", "maxspeed": "50", "name": "Tegelbacken", "oneway": "yes", "surface": "asphalt", "wikidata": "Q10691825", "wikipedia": "sv:Tegelbacken"}}, {"type": "Feature", "id": "way/40859309", "geometry": {"type": "LineString", "coordinates": [[18.060499, 59.328331], [18.059973, 59.328251]]}, "properties": {"@id": "way/40859309", "bicycle": "yes", "foot": "no", "highway": "tertiary", "maxheight": "4.4", "maxspeed": "50", "name": "Tegelbacken", "oneway": "yes", "surface": "asphalt"}}, {"type": "Feature", "id": "way/40859310", "geometry": {"type": "LineString", "coordinates": [[18.059139, 59.328171], [18.058959, 59.328179], [18.05886, 59.328189], [18.058553, 59.328231], [18.058343, 59.328277], [18.058193, 59.328311], [18.058119, 59.328325], [18.058044, 59.328336]]}, "properties": {"@id": "way/40859310", "foot": "no", "highway": "tertiary", "maxspeed": "50", "name": "Klarastrandsleden", "oneway": "yes", "surface": "asphalt"}}, {"type": "Feature", "id": "way/40859311", "geometry": {"type": "LineString", "coordinates": [[18.05936, 59.328088], [18.060056, 59.328155]]}, "properties": {"@id": "way/40859311", "foot": "no", "highway": "tertiary", "maxheight": "4.4", "maxspeed": "50", "name": "Klarastrandsleden", "oneway": "yes", "surface": "asphalt"}}, {"type": "Feature", "id": "way/41208821", "geometry": {"type": "LineString", "coordinates": [[18.035598, 59.334043], [18.035804, 59.334016], [18.038025, 59.333727], [18.038266, 59.333695], [18.038436, 59.333673], [18.039415, 59.333545], [18.040848, 59.333359], [18.041094, 59.333326], [18.043381, 59.333028], [18.043554, 59.333006], [18.044944, 59.332825], [18.045255, 59.332784]]}, "properties": {"@id": "way/41208821", "cycleway:right": "lane", "foot": "no", "highway": "tertiary", "lit": "yes", "maxspeed": "40", "name": "Fleminggatan", "oneway": "yes", "surface": "asphalt", "wikidata": "Q10496638", "wikipedia": "sv:Fleminggatan"}}, {"type": "Feature", "id": "way/41274654", "geometry": {"type": "LineString", "coordinates": [[18.062556, 59.329685], [18.062599, 59.329643], [18.063098, 59.329132], [18.063144, 59.329055], [18.063148, 59.329015], [18.06309, 59.328895]]}, "properties": {"@id": "way/41274654", "foot": "no", "highway": "tertiary", "lanes": "3", "maxspeed": "30", "name": "R\u00f6dbodgatan", "oneway": "yes", "surface": "asphalt"}}, {"type": "Feature", "id": "way/41517359", "geometry": {"type": "LineString", "coordinates": [[18.061899, 59.328358], [18.062303, 59.328317]]}, "properties": {"@id": "way/41517359", "foot": "no", "highway": "tertiary", "maxspeed": "50", "name": "Tegelbacken", "oneway": "yes", "surface": "asphalt", "wikidata": "Q10691825", "wikipedia": "sv:Tegelbacken"}}, {"type": "Feature", "id": "way/41519530", "geometry": {"type": "LineString", "coordinates": [[18.043179, 59.329002], [18.043324, 59.328982]]}, "properties": {"@id": "way/41519530", "highway": "tertiary", "lanes": "2", "maxspeed": "40", "name": "Hantverkargatan", "sidewalk": "both", "surface": "asphalt", "wikidata": "Q10517486", "wikipedia": "sv:Hantverkargatan"}}, {"type": "Feature", "id": "way/41567779", "geometry": {"type": "LineString", "coordinates": [[18.06351, 59.342894], [18.063416, 59.343023], [18.063202, 59.3433], [18.063162, 59.343464], [18.06314, 59.343646]]}, "properties": {"@id": "way/41567779", "foot": "no", "highway": "tertiary", "maxspeed": "50", "name": "Birger Jarlsgatan", "oneway": "yes", "surface": "asphalt", "wikidata": "Q2523030", "wikipedia": "sv:Birger Jarlsgatan"}}, {"type": "Feature", "id": "way/41568968", "geometry": {"type": "LineString", "coordinates": [[18.062659, 59.34358], [18.062806, 59.343424], [18.063226, 59.342979], [18.063354, 59.342844]]}, "properties": {"@id": "way/41568968", "foot": "no", "highway": "tertiary", "maxspeed": "50", "name": "Birger Jarlsgatan", "oneway": "yes", "source": "survey", "surface": "asphalt", "wikidata": "Q2523030", "wikipedia": "sv:Birger Jarlsgatan"}}, {"type": "Feature", "id": "way/41568973", "geometry": {"type": "LineString", "coordinates": [[18.067341, 59.329912], [18.067257, 59.329876], [18.065858, 59.329502], [18.065786, 59.329491], [18.065448, 59.329423], [18.064462, 59.329166], [18.063787, 59.328996], [18.063657, 59.328963], [18.063492, 59.32894]]}, "properties": {"@id": "way/41568973", "highway": "tertiary", "maxspeed": "30", "name": "Jakobsgatan", "oneway": "yes", "surface": "asphalt", "wikidata": "Q10539314", "wikipedia": "sv:Jakobsgatan"}}, {"type": "Feature", "id": "way/41568980", "geometry": {"type": "LineString", "coordinates": [[18.064265, 59.341907], [18.064374, 59.341806], [18.065082, 59.341088], [18.065117, 59.341053], [18.065253, 59.340938]]}, "properties": {"@id": "way/41568980", "cycleway:right": "track", "foot": "no", "highway": "tertiary", "maxspeed": "50", "name": "Birger Jarlsgatan", "oneway": "yes", "source": "survey", "surface": "asphalt", "wikidata": "Q2523030", "wikipedia": "sv:Birger Jarlsgatan"}}, {"type": "Feature", "id": "way/41679291", "geometry": {"type": "LineString", "coordinates": [[18.063728, 59.328385], [18.063795, 59.328438], [18.063813, 59.328477], [18.063806, 59.328518]]}, "properties": {"@id": "way/41679291", "foot": "no", "highway": "tertiary", "maxspeed": "50", "name": "R\u00f6dbodtorget", "oneway": "yes", "surface": "asphalt", "wikidata": "Q10658887", "wikipedia": "sv:R\u00f6dbodtorget"}}, {"type": "Feature", "id": "way/42559625", "geometry": {"type": "LineString", "coordinates": [[18.064863, 59.33276], [18.064821, 59.332738], [18.064781, 59.33271], [18.064738, 59.332667], [18.06471, 59.332616], [18.064704, 59.332566], [18.064719, 59.33251], [18.064763, 59.332454], [18.064812, 59.332416]]}, "properties": {"@id": "way/42559625", "bicycle": "yes", "check_date": "2020-01-05", "cycleway:right": "track", "foot": "no", "highway": "tertiary", "junction": "roundabout", "maxspeed": "50", "name": "Sergels Torg", "sidewalk": "separate", "surface": "asphalt"}}, {"type": "Feature", "id": "way/42978106", "geometry": {"type": "LineString", "coordinates": [[18.06309, 59.328895], [18.062602, 59.328828], [18.062282, 59.328781], [18.062066, 59.328779], [18.061707, 59.32872], [18.061588, 59.3287]]}, "properties": {"@id": "way/42978106", "foot": "no", "highway": "tertiary", "maxspeed": "50", "name": "Tegelbacken", "oneway": "yes", "surface": "asphalt", "wikidata": "Q10691825", "wikipedia": "sv:Tegelbacken"}}, {"type": "Feature", "id": "way/79567411", "geometry": {"type": "LineString", "coordinates": [[18.062806, 59.343424], [18.062961, 59.343392], [18.063018, 59.343396], [18.063073, 59.343409], [18.063162, 59.343464]]}, "properties": {"@id": "way/79567411", "foot": "no", "highway": "tertiary", "maxspeed": "50", "name": "Birger Jarlsgatan", "oneway": "yes", "surface": "asphalt", "wikidata": "Q2523030", "wikipedia": "sv:Birger Jarlsgatan"}}, {"type": "Feature", "id": "way/121752189", "geometry": {"type": "LineString", "coordinates": [[18.063962, 59.33507], [18.06399, 59.335002], [18.064023, 59.334948], [18.064062, 59.334879], [18.064095, 59.334828], [18.064327, 59.334505]]}, "properties": {"@id": "way/121752189", "cycleway:right": "lane", "foot": "no", "highway": "tertiary", "maxspeed": "50", "name": "Sveav\u00e4gen", "oneway": "yes", "sidewalk": "separate", "surface": "asphalt", "wikidata": "Q1788276", "wikipedia": "sv:Sveav\u00e4gen"}}, {"type": "Feature", "id": "way/125910435", "geometry": {"type": "LineString", "coordinates": [[18.05886, 59.328189], [18.058662, 59.328248], [18.058463, 59.328315], [18.058263, 59.328412], [18.058238, 59.328424], [18.058227, 59.328431], [18.058114, 59.328485], [18.058024, 59.328528]]}, "properties": {"@id": "way/125910435", "foot": "no", "highway": "tertiary", "maxspeed": "50", "name": "Blekholmsgatan", "oneway": "yes", "surface": "asphalt"}}, {"type": "Feature", "id": "way/125910436", "geometry": {"type": "LineString", "coordinates": [[18.05729, 59.328605], [18.05743, 59.328508], [18.057473, 59.32846], [18.05749, 59.328408], [18.057486, 59.328394], [18.057482, 59.328379], [18.057458, 59.328332], [18.057408, 59.328295]]}, "properties": {"@id": "way/125910436", "foot": "no", "highway": "tertiary", "maxspeed": "50", "name": "Klarastrandsleden", "oneway": "yes", "surface": "asphalt"}}, {"type": "Feature", "id": "way/135200006", "geometry": {"type": "LineString", "coordinates": [[18.046563, 59.342773], [18.046573, 59.342763], [18.046595, 59.342738], [18.047238, 59.342067], [18.047294, 59.342017], [18.047403, 59.341979]]}, "properties": {"@id": "way/135200006", "cycleway:right": "lane", "highway": "tertiary", "maxspeed": "30", "name": "V\u00e4stmannagatan", "oneway": "yes", "sidewalk": "separate", "surface": "asphalt", "wikidata": "Q15116455", "wikipedia": "sv:V\u00e4stmannagatan"}}, {"type": "Feature", "id": "way/135299053", "geometry": {"type": "LineString", "coordinates": [[18.065253, 59.340938], [18.065514, 59.340786]]}, "properties": {"@id": "way/135299053", "cycleway": "track", "cycleway:right": "track", "foot": "no", "highway": "tertiary", "maxspeed": "50", "name": "Birger Jarlsgatan", "oneway": "yes", "source": "survey", "surface": "asphalt"}}, {"type": "Feature", "id": "way/137504572", "geometry": {"type": "LineString", "coordinates": [[18.063806, 59.328518], [18.063569, 59.328728], [18.063475, 59.32879], [18.063393, 59.328832], [18.063246, 59.32887], [18.06309, 59.328895]]}, "properties": {"@id": "way/137504572", "foot": "no", "highway": "tertiary", "lanes": "3", "maxspeed": "50", "name": "R\u00f6dbodtorget", "oneway": "yes", "surface": "asphalt", "wikidata": "Q10658887", "wikipedia": "sv:R\u00f6dbodtorget"}}, {"type": "Feature", "id": "way/138007081", "geometry": {"type": "LineString", "coordinates": [[18.065431, 59.340945], [18.065265, 59.341088], [18.065116, 59.341242], [18.064555, 59.34185], [18.064447, 59.341966], [18.064311, 59.342081], [18.063738, 59.342627], [18.063663, 59.342712], [18.063588, 59.342795], [18.06351, 59.342894]]}, "properties": {"@id": "way/138007081", "foot": "no", "highway": "tertiary", "maxspeed": "50", "name": "Birger Jarlsgatan", "oneway": "yes", "surface": "asphalt", "wikidata": "Q2523030", "wikipedia": "sv:Birger Jarlsgatan"}}, {"type": "Feature", "id": "way/138481198", "geometry": {"type": "LineString", "coordinates": [[18.06314, 59.343646], [18.063153, 59.343881], [18.063112, 59.34476], [18.063138, 59.344876], [18.063213, 59.344988]]}, "properties": {"@id": "way/138481198", "foot": "no", "highway": "tertiary", "maxspeed": "50", "name": "Birger Jarlsgatan", "oneway": "yes", "surface": "asphalt", "wikidata": "Q2523030", "wikipedia": "sv:Birger Jarlsgatan"}}, {"type": "Feature", "id": "way/138481203", "geometry": {"type": "LineString", "coordinates": [[18.06409, 59.344762], [18.065043, 59.344333], [18.066191, 59.343816], [18.066404, 59.34372]]}, "properties": {"@id": "way/138481203", "cycleway": "lane", "foot": "no", "highway": "tertiary", "lanes": "2", "maxspeed": "50", "name": "Karlav\u00e4gen", "surface": "asphalt", "wikidata": "Q10543765", "wikipedia": "sv:Karlav\u00e4gen"}}, {"type": "Feature", "id": "way/162142149", "geometry": {"type": "LineString", "coordinates": [[18.062282, 59.328781], [18.062089, 59.328722], [18.061712, 59.328661], [18.061638, 59.328643]]}, "properties": {"@id": "way/162142149", "foot": "no", "highway": "tertiary", "maxspeed": "50", "name": "Tegelbacken", "oneway": "yes", "surface": "asphalt", "wikidata": "Q10691825", "wikipedia": "sv:Tegelbacken"}}, {"type": "Feature", "id": "way/162142150", "geometry": {"type": "LineString", "coordinates": [[18.061638, 59.328643], [18.061548, 59.32862], [18.061356, 59.328563]]}, "properties": {"@id": "way/162142150", "foot": "no", "highway": "tertiary", "maxspeed": "50", "name": "Tegelbacken", "oneway": "yes", "surface": "asphalt"}}, {"type": "Feature", "id": "way/162142151", "geometry": {"type": "LineString", "coordinates": [[18.062303, 59.328317], [18.062435, 59.328322], [18.062639, 59.328299], [18.062708, 59.328292], [18.062819, 59.328279], [18.062909, 59.328267]]}, "properties": {"@id": "way/162142151", "foot": "no", "highway": "tertiary", "maxspeed": "50", "name": "Tegelbacken", "oneway": "yes", "surface": "asphalt", "wikidata": "Q10691825", "wikipedia": "sv:Tegelbacken"}}, {"type": "Feature", "id": "way/162142152", "geometry": {"type": "LineString", "coordinates": [[18.062602, 59.328828], [18.062466, 59.328738], [18.061969, 59.328658], [18.061863, 59.32864], [18.0618, 59.328626], [18.061746, 59.328605], [18.061718, 59.328582], [18.061699, 59.328556], [18.061693, 59.328511], [18.061702, 59.328485], [18.061726, 59.328461], [18.061899, 59.328358]]}, "properties": {"@id": "way/162142152", "foot": "no", "highway": "tertiary", "maxspeed": "50", "name": "Tegelbacken", "oneway": "yes", "surface": "asphalt", "wikidata": "Q10691825", "wikipedia": "sv:Tegelbacken"}}, {"type": "Feature", "id": "way/162142153", "geometry": {"type": "LineString", "coordinates": [[18.063086, 59.328158], [18.063057, 59.328207]]}, "properties": {"@id": "way/162142153", "foot": "no", "highway": "tertiary", "maxspeed": "50", "name": "Vasabron", "oneway": "yes", "surface": "asphalt"}}, {"type": "Feature", "id": "way/162142154", "geometry": {"type": "LineString", "coordinates": [[18.065353, 59.326732], [18.06421, 59.327448], [18.063268, 59.328029], [18.063106, 59.328139], [18.063086, 59.328158]]}, "properties": {"@id": "way/162142154", "bridge": "yes", "foot": "no", "highway": "tertiary", "lanes": "2", "layer": "1", "maxspeed": "50", "maxweight": "12", "name": "Vasabron", "oneway": "yes", "surface": "asphalt", "wikidata": "Q7916304", "wikipedia": "sv:Vasabron, Stockholm"}}, {"type": "Feature", "id": "way/167514876", "geometry": {"type": "LineString", "coordinates": [[18.062909, 59.328267], [18.062973, 59.328265], [18.063034, 59.328265]]}, "properties": {"@id": "way/167514876", "foot": "no", "highway": "tertiary", "maxspeed": "50", "name": "Tegelbacken", "oneway": "yes", "surface": "asphalt"}}, {"type": "Feature", "id": "way/167816643", "geometry": {"type": "LineString", "coordinates": [[18.064812, 59.332416], [18.064856, 59.332391], [18.064901, 59.332371], [18.06491, 59.332368], [18.064957, 59.332353], [18.065042, 59.332333], [18.065116, 59.332324], [18.065193, 59.33232], [18.065283, 59.332324], [18.06534, 59.33233], [18.065435, 59.33235], [18.065496, 59.33237]]}, "properties": {"@id": "way/167816643", "bicycle": "yes", "cycleway:right": "track", "foot": "no", "highway": "tertiary", "junction": "roundabout", "maxspeed": "50", "name": "Sergels Torg", "railway": "tram", "surface": "asphalt"}}, {"type": "Feature", "id": "way/167816644", "geometry": {"type": "LineString", "coordinates": [[18.065006, 59.332808], [18.064952, 59.332794], [18.064909, 59.332779], [18.064863, 59.33276]]}, "properties": {"@id": "way/167816644", "bicycle": "yes", "foot": "no", "highway": "tertiary", "junction": "roundabout", "maxspeed": "50", "name": "Sergels Torg", "surface": "asphalt"}}, {"type": "Feature", "id": "way/176356751", "geometry": {"type": "LineString", "coordinates": [[18.061356, 59.328563], [18.061311, 59.32855], [18.061226, 59.328522]]}, "properties": {"@id": "way/176356751", "foot": "no", "highway": "tertiary", "maxspeed": "50", "name": "Tegelbacken", "oneway": "yes", "surface": "asphalt"}}, {"type": "Feature", "id": "way/176555489", "geometry": {"type": "LineString", "coordinates": [[18.062629, 59.343619], [18.062659, 59.34358]]}, "properties": {"@id": "way/176555489", "foot": "no", "highway": "tertiary", "maxspeed": "50", "name": "Birger Jarlsgatan", "oneway": "yes", "surface": "asphalt"}}, {"type": "Feature", "id": "way/177035828", "geometry": {"type": "LineString", "coordinates": [[18.065592, 59.340871], [18.065431, 59.340945]]}, "properties": {"@id": "way/177035828", "foot": "no", "highway": "tertiary", "maxspeed": "50", "name": "Birger Jarlsgatan", "oneway": "yes", "source": "survey", "surface": "asphalt", "wikidata": "Q2523030", "wikipedia": "sv:Birger Jarlsgatan"}}, {"type": "Feature", "id": "way/179043386", "geometry": {"type": "LineString", "coordinates": [[18.062916, 59.328185], [18.062979, 59.328139]]}, "properties": {"@id": "way/179043386", "foot": "no", "highway": "tertiary", "maxspeed": "50", "name": "Tegelbacken", "oneway": "yes", "surface": "asphalt"}}, {"type": "Feature", "id": "way/179043387", "geometry": {"type": "LineString", "coordinates": [[18.063057, 59.328207], [18.063034, 59.328265]]}, "properties": {"@id": "way/179043387", "foot": "no", "highway": "tertiary", "maxspeed": "50", "name": "Vasabron", "oneway": "yes", "surface": "asphalt"}}, {"type": "Feature", "id": "way/179695127", "geometry": {"type": "LineString", "coordinates": [[18.04985, 59.332281], [18.049583, 59.332276]]}, "properties": {"@id": "way/179695127", "bridge": "yes", "cycleway:right": "track", "foot": "no", "highway": "tertiary", "layer": "2", "maxspeed": "40", "name": "Fleminggatan", "oneway": "yes", "surface": "asphalt", "wikidata": "Q10496638", "wikipedia": "sv:Fleminggatan"}}, {"type": "Feature", "id": "way/179695130", "geometry": {"type": "LineString", "coordinates": [[18.049583, 59.332276], [18.049273, 59.332309], [18.04701, 59.332606], [18.046821, 59.332631], [18.04666, 59.332652], [18.045522, 59.332801], [18.045266, 59.332836]]}, "properties": {"@id": "way/179695130", "cycleway:right": "lane", "foot": "no", "highway": "tertiary", "lit": "yes", "maxspeed": "40", "name": "Fleminggatan", "oneway": "yes", "surface": "asphalt", "wikidata": "Q10496638", "wikipedia": "sv:Fleminggatan"}}, {"type": "Feature", "id": "way/190803735", "geometry": {"type": "LineString", "coordinates": [[18.062662, 59.336549], [18.062504, 59.336508], [18.062356, 59.336469], [18.061819, 59.336326], [18.061744, 59.336279]]}, "properties": {"@id": "way/190803735", "highway": "tertiary", "maxspeed": "50", "name": "Olof Palmes Gata", "oneway": "yes", "surface": "asphalt", "wikidata": "Q10609262", "wikipedia": "sv:Olof Palmes gata, Stockholm"}}, {"type": "Feature", "id": "way/190803736", "geometry": {"type": "LineString", "coordinates": [[18.061744, 59.336279], [18.061865, 59.336283], [18.062397, 59.336425], [18.062545, 59.336464], [18.062703, 59.336506]]}, "properties": {"@id": "way/190803736", "highway": "tertiary", "maxspeed": "50", "name": "Olof Palmes Gata", "oneway": "yes", "surface": "asphalt", "wikidata": "Q10609262", "wikipedia": "sv:Olof Palmes gata, Stockholm"}}, {"type": "Feature", "id": "way/213548272", "geometry": {"type": "LineString", "coordinates": [[18.061508, 59.32844], [18.061899, 59.328358]]}, "properties": {"@id": "way/213548272", "foot": "no", "highway": "tertiary", "maxspeed": "50", "name": "Tegelbacken", "oneway": "yes", "surface": "asphalt", "wikidata": "Q10691825", "wikipedia": "sv:Tegelbacken"}}, {"type": "Feature", "id": "way/242678154", "geometry": {"type": "LineString", "coordinates": [[18.067465, 59.339711], [18.066965, 59.340176], [18.066802, 59.340301], [18.066355, 59.340546], [18.065965, 59.340704], [18.065899, 59.340731], [18.065592, 59.340871]]}, "properties": {"@id": "way/242678154", "foot": "no", "highway": "tertiary", "maxspeed": "50", "name": "Birger Jarlsgatan", "oneway": "yes", "source": "survey", "surface": "asphalt", "wikidata": "Q2523030", "wikipedia": "sv:Birger Jarlsgatan"}}, {"type": "Feature", "id": "way/252472364", "geometry": {"type": "LineString", "coordinates": [[18.043057, 59.329018], [18.043179, 59.329002]]}, "properties": {"@id": "way/252472364", "highway": "tertiary", "lanes": "2", "maxspeed": "40", "name": "Hantverkargatan", "sidewalk": "both", "surface": "asphalt", "wikidata": "Q10517486", "wikipedia": "sv:Hantverkargatan"}}, {"type": "Feature", "id": "way/259323892", "geometry": {"type": "LineString", "coordinates": [[18.056945, 59.328967], [18.055051, 59.329531], [18.054598, 59.329734], [18.054445, 59.329851], [18.054354, 59.329989]]}, "properties": {"@id": "way/259323892", "foot": "no", "highway": "tertiary", "maxspeed": "50", "name": "Blekholmsgatan", "surface": "asphalt"}}, {"type": "Feature", "id": "way/259323893", "geometry": {"type": "LineString", "coordinates": [[18.054354, 59.329989], [18.054177, 59.329984]]}, "properties": {"@id": "way/259323893", "highway": "tertiary", "maxspeed": "50", "name": "Blekholmsgatan", "oneway": "yes", "surface": "asphalt"}}, {"type": "Feature", "id": "way/259323894", "geometry": {"type": "LineString", "coordinates": [[18.056945, 59.328967], [18.057283, 59.32872], [18.057452, 59.328534]]}, "properties": {"@id": "way/259323894", "foot": "no", "highway": "tertiary", "maxspeed": "50", "name": "Blekholmsgatan", "oneway": "yes", "surface": "asphalt"}}, {"type": "Feature", "id": "way/278468172", "geometry": {"type": "LineString", "coordinates": [[18.064728, 59.333845], [18.065147, 59.333119]]}, "properties": {"@id": "way/278468172", "cycleway:right": "lane", "foot": "no", "highway": "tertiary", "lanes": "1", "maxspeed": "50", "name": "Sveav\u00e4gen", "oneway": "yes", "sidewalk": "separate", "surface": "asphalt", "wikidata": "Q1788276", "wikipedia": "sv:Sveav\u00e4gen"}}, {"type": "Feature", "id": "way/328128841", "geometry": {"type": "LineString", "coordinates": [[18.057149, 59.335186], [18.057257, 59.335213], [18.058004, 59.335402], [18.058239, 59.33542], [18.058476, 59.335425], [18.058673, 59.335449], [18.059614, 59.33569]]}, "properties": {"@id": "way/328128841", "highway": "tertiary", "maxspeed": "50", "name": "Olof Palmes Gata", "sidewalk": "separate", "surface": "asphalt", "wikidata": "Q10609262", "wikipedia": "sv:Olof Palmes gata, Stockholm"}}, {"type": "Feature", "id": "way/328128848", "geometry": {"type": "LineString", "coordinates": [[18.055829, 59.334844], [18.056975, 59.335142], [18.057149, 59.335186]]}, "properties": {"@id": "way/328128848", "highway": "tertiary", "maxspeed": "50", "name": "Olof Palmes Gata", "sidewalk": "separate", "surface": "asphalt", "wikidata": "Q10609262", "wikipedia": "sv:Olof Palmes gata, Stockholm"}}, {"type": "Feature", "id": "way/356897483", "geometry": {"type": "LineString", "coordinates": [[18.062303, 59.328317], [18.062411, 59.328282], [18.062613, 59.328249], [18.062684, 59.328236], [18.062794, 59.328217], [18.062862, 59.328203], [18.062916, 59.328185]]}, "properties": {"@id": "way/356897483", "foot": "no", "highway": "tertiary", "maxspeed": "50", "name": "Tegelbacken", "oneway": "yes", "surface": "asphalt", "wikidata": "Q10691825", "wikipedia": "sv:Tegelbacken"}}, {"type": "Feature", "id": "way/377337565", "geometry": {"type": "LineString", "coordinates": [[18.043089, 59.328309], [18.043122, 59.32838], [18.043296, 59.328761], [18.043304, 59.328815], [18.043312, 59.32887], [18.043324, 59.328982]]}, "properties": {"@id": "way/377337565", "highway": "tertiary", "maxspeed": "40", "name": "Kungsholmstorg", "oneway": "yes", "parking:lane:both": "parallel", "surface": "asphalt"}}, {"type": "Feature", "id": "way/398076848", "geometry": {"type": "LineString", "coordinates": [[18.038462, 59.333727], [18.038294, 59.333749], [18.038052, 59.333781], [18.03583, 59.334072], [18.035624, 59.334098]]}, "properties": {"@id": "way/398076848", "cycleway:right": "share_busway", "foot": "no", "highway": "tertiary", "maxspeed": "40", "name": "Fleminggatan", "oneway": "yes", "surface": "asphalt", "wikidata": "Q10496638", "wikipedia": "sv:Fleminggatan"}}, {"type": "Feature", "id": "way/398076849", "geometry": {"type": "LineString", "coordinates": [[18.043405, 59.333079], [18.041221, 59.333362], [18.040874, 59.333411], [18.039442, 59.333599], [18.038462, 59.333727]]}, "properties": {"@id": "way/398076849", "cycleway:right": "share_busway", "foot": "no", "highway": "tertiary", "lit": "yes", "maxspeed": "40", "name": "Fleminggatan", "oneway": "yes", "surface": "asphalt", "wikidata": "Q10496638", "wikipedia": "sv:Fleminggatan"}}, {"type": "Feature", "id": "way/566342768", "geometry": {"type": "LineString", "coordinates": [[18.058025, 59.328309], [18.058091, 59.328289], [18.058162, 59.328267], [18.058607, 59.328121]]}, "properties": {"@id": "way/566342768", "foot": "no", "highway": "tertiary", "maxspeed": "50", "name": "Klarastrandsleden", "oneway": "yes", "surface": "asphalt"}}, {"type": "Feature", "id": "way/566342769", "geometry": {"type": "LineString", "coordinates": [[18.057936, 59.328343], [18.057794, 59.328327], [18.057408, 59.328295], [18.057278, 59.328283]]}, "properties": {"@id": "way/566342769", "foot": "no", "highway": "tertiary", "maxspeed": "50", "name": "Klarastrandsleden", "oneway": "yes", "surface": "asphalt"}}, {"type": "Feature", "id": "way/577190494", "geometry": {"type": "LineString", "coordinates": [[18.063017, 59.344916], [18.063009, 59.344877], [18.062997, 59.344737], [18.063009, 59.344478], [18.063021, 59.344144], [18.063018, 59.344061], [18.062986, 59.343983], [18.062902, 59.343919], [18.062824, 59.343849], [18.062709, 59.343745], [18.062656, 59.343683], [18.062629, 59.343619]]}, "properties": {"@id": "way/577190494", "foot": "no", "highway": "tertiary", "maxspeed": "50", "name": "Birger Jarlsgatan", "oneway": "yes", "surface": "asphalt", "wikidata": "Q2523030", "wikipedia": "sv:Birger Jarlsgatan"}}, {"type": "Feature", "id": "way/614158963", "geometry": {"type": "LineString", "coordinates": [[18.065147, 59.333119], [18.065169, 59.333053], [18.065171, 59.333001], [18.065152, 59.33295], [18.065116, 59.332898], [18.065064, 59.332845], [18.065006, 59.332808]]}, "properties": {"@id": "way/614158963", "cycleway:right": "track", "foot": "no", "highway": "tertiary", "lanes": "1", "maxspeed": "50", "name": "Sveav\u00e4gen", "oneway": "yes", "sidewalk": "separate", "surface": "asphalt", "wikidata": "Q1788276", "wikipedia": "sv:Sveav\u00e4gen"}}, {"type": "Feature", "id": "way/622371402", "geometry": {"type": "LineString", "coordinates": [[18.06421, 59.341965], [18.064265, 59.341907]]}, "properties": {"@id": "way/622371402", "foot": "no", "highway": "tertiary", "maxspeed": "50", "name": "Birger Jarlsgatan", "oneway": "yes", "surface": "asphalt", "wikidata": "Q2523030", "wikipedia": "sv:Birger Jarlsgatan"}}, {"type": "Feature", "id": "way/622465146", "geometry": {"type": "LineString", "coordinates": [[18.068071, 59.332646], [18.067839, 59.332639], [18.066166, 59.332565], [18.066071, 59.332565], [18.065989, 59.332572], [18.065908, 59.332583], [18.065822, 59.332606], [18.065777, 59.332623], [18.065731, 59.33265], [18.065665, 59.332696]]}, "properties": {"@id": "way/622465146", "cycleway:right": "lane", "foot": "no", "highway": "tertiary", "maxspeed": "30", "name": "Hamngatan", "oneway": "yes", "railway": "tram", "surface": "asphalt"}}, {"type": "Feature", "id": "way/622465158", "geometry": {"type": "LineString", "coordinates": [[18.065593, 59.332418], [18.065697, 59.332499], [18.065719, 59.332548], [18.065718, 59.332607], [18.065665, 59.332696]]}, "properties": {"@id": "way/622465158", "cycleway:right": "track", "foot": "no", "highway": "tertiary", "junction": "roundabout", "maxspeed": "50", "name": "Sergels Torg", "sidewalk": "separate", "surface": "asphalt"}}, {"type": "Feature", "id": "way/622465159", "geometry": {"type": "LineString", "coordinates": [[18.065598, 59.332742], [18.065539, 59.332777], [18.065472, 59.332801], [18.065383, 59.332819], [18.065301, 59.332827], [18.065203, 59.332828], [18.065123, 59.332822], [18.06506, 59.332816], [18.065006, 59.332808]]}, "properties": {"@id": "way/622465159", "cycleway:right": "track", "foot": "no", "highway": "tertiary", "junction": "roundabout", "maxspeed": "50", "name": "Sergels Torg", "railway": "tram", "surface": "asphalt"}}, {"type": "Feature", "id": "way/622466357", "geometry": {"type": "LineString", "coordinates": [[18.065593, 59.332418], [18.065896, 59.332475]]}, "properties": {"@id": "way/622466357", "cycleway:right": "lane", "foot": "no", "highway": "tertiary", "maxspeed": "30", "name": "Hamngatan", "oneway": "yes", "source": "survey", "surface": "asphalt", "wikidata": "Q839619", "wikipedia": "sv:Hamngatan, Stockholm"}}, {"type": "Feature", "id": "way/623564885", "geometry": {"type": "LineString", "coordinates": [[18.065665, 59.332696], [18.065598, 59.332742]]}, "properties": {"@id": "way/623564885", "cycleway:right": "lane", "foot": "no", "highway": "tertiary", "junction": "roundabout", "maxspeed": "50", "name": "Sergels Torg", "railway": "tram", "surface": "asphalt"}}, {"type": "Feature", "id": "way/623564886", "geometry": {"type": "LineString", "coordinates": [[18.065598, 59.332742], [18.065563, 59.332889], [18.065449, 59.333089], [18.06467, 59.334385], [18.064559, 59.334471]]}, "properties": {"@id": "way/623564886", "cycleway:right": "lane", "foot": "no", "highway": "tertiary", "maxspeed": "50", "name": "Sveav\u00e4gen", "oneway": "yes", "sidewalk": "separate", "surface": "asphalt"}}, {"type": "Feature", "id": "way/680061607", "geometry": {"type": "LineString", "coordinates": [[18.055885, 59.328105], [18.057324, 59.328239]]}, "properties": {"@id": "way/680061607", "bridge": "yes", "foot": "no", "highway": "tertiary", "layer": "1", "maxspeed": "40", "name": "Stadshusbron", "oneway": "yes", "surface": "asphalt"}}, {"type": "Feature", "id": "way/715872125", "geometry": {"type": "LineString", "coordinates": [[18.045255, 59.332784], [18.045501, 59.332752], [18.046634, 59.332604], [18.046794, 59.332583], [18.046985, 59.332558], [18.048558, 59.332353], [18.049061, 59.332288], [18.049139, 59.332271], [18.049208, 59.332248], [18.049277, 59.332205], [18.049343, 59.332162], [18.049393, 59.332116]]}, "properties": {"@id": "way/715872125", "cycleway:right": "share_busway", "foot": "no", "highway": "tertiary", "lit": "yes", "maxspeed": "40", "name": "Fleminggatan", "oneway": "yes", "surface": "asphalt", "wikidata": "Q10496638", "wikipedia": "sv:Fleminggatan"}}, {"type": "Feature", "id": "way/715872126", "geometry": {"type": "LineString", "coordinates": [[18.045255, 59.332784], [18.045266, 59.332836]]}, "properties": {"@id": "way/715872126", "cycleway:left": "lane", "cycleway:right": "track", "highway": "tertiary", "maxspeed": "40", "name": "Scheelegatan", "oneway": "no", "surface": "asphalt", "wikidata": "Q10663209", "wikipedia": "sv:Scheelegatan, Stockholm"}}, {"type": "Feature", "id": "way/715872127", "geometry": {"type": "LineString", "coordinates": [[18.045266, 59.332836], [18.045305, 59.332947], [18.04571, 59.333683], [18.04616, 59.334377]]}, "properties": {"@id": "way/715872127", "cycleway:left": "lane", "cycleway:right": "track", "highway": "tertiary", "maxspeed": "40", "name": "Scheelegatan", "surface": "asphalt", "wikidata": "Q10663209", "wikipedia": "sv:Scheelegatan, Stockholm"}}, {"type": "Feature", "id": "way/715872128", "geometry": {"type": "LineString", "coordinates": [[18.045266, 59.332836], [18.044967, 59.332874], [18.04358, 59.333056], [18.043405, 59.333079]]}, "properties": {"@id": "way/715872128", "cycleway:right": "lane", "foot": "no", "highway": "tertiary", "lit": "yes", "maxspeed": "40", "name": "Fleminggatan", "oneway": "yes", "surface": "asphalt", "wikidata": "Q10496638", "wikipedia": "sv:Fleminggatan"}}, {"type": "Feature", "id": "way/757994094", "geometry": {"type": "LineString", "coordinates": [[18.059614, 59.33569], [18.060582, 59.335947], [18.06109, 59.336081], [18.061434, 59.336176], [18.061744, 59.336279]]}, "properties": {"@id": "way/757994094", "highway": "tertiary", "maxspeed": "50", "name": "Olof Palmes Gata", "surface": "asphalt", "wikidata": "Q10609262", "wikipedia": "sv:Olof Palmes gata, Stockholm"}}, {"type": "Feature", "id": "way/764157394", "geometry": {"type": "LineString", "coordinates": [[18.065496, 59.33237], [18.065543, 59.33239], [18.065593, 59.332418]]}, "properties": {"@id": "way/764157394", "bicycle": "yes", "cycleway:right": "track", "foot": "no", "highway": "tertiary", "junction": "roundabout", "maxspeed": "50", "name": "Sergels Torg", "surface": "asphalt"}}]}